{"type":"Topology","arcs":[[[33173,37150],[131,-170],[-203,-102],[-173,-55],[87,-167],[-185,-70],[155,-164],[140,-105],[-34,-17],[101,-72],[-56,-103],[-260,-179],[55,-109],[367,-443],[170,-150],[296,-176],[7,-22],[-226,-131],[175,-146],[-84,-71],[-191,86],[-301,-247],[100,-159],[-311,-83],[49,-134],[-5,-78],[-128,-105],[130,-83],[80,-19],[167,19],[46,45],[241,114],[88,17],[180,3],[81,-48],[132,0],[42,-194],[-34,-8],[56,-92],[-99,-37],[49,-62],[59,13],[39,54],[129,-33],[113,16],[91,-102],[105,31],[76,-85],[242,100],[274,226],[248,81],[181,-8],[16,33],[36,-9],[453,-202],[172,168],[228,-32],[182,-84],[304,-69],[187,31],[70,38],[47,9],[72,-27],[71,36],[-39,-83],[52,-90],[-2,-49],[287,101],[289,-313],[-240,-147],[146,-109],[766,332],[446,55],[47,-80],[257,78],[12,-13],[277,149],[-39,28],[398,305],[100,11],[110,-145],[375,124],[-49,115],[106,18],[-69,76],[-142,282],[126,44],[133,-3],[-143,123],[-29,65],[26,12],[161,38],[149,7],[207,58],[314,-9],[107,-20],[134,12],[123,-21],[155,-75],[51,-68],[2,-113],[283,-364],[99,-60],[-97,-122],[43,-72],[-77,-49],[204,-182],[233,-125],[176,22],[192,65],[93,4],[301,76],[169,83],[55,38],[19,48],[109,72],[195,80],[144,108],[456,-3],[24,-119],[55,-41],[-55,-69],[-7,-85],[-37,-24],[-9,-53],[136,-44],[-80,-74],[48,-45],[2,-44],[-75,-122],[55,-46],[-18,-99],[73,-32],[1,-58],[73,-21],[-46,-76],[61,-53],[32,-129],[-104,-81],[6,-27],[71,-31],[-4,-18],[-155,-63],[-5,-147],[-70,-53],[31,-59],[-35,-105]],[[44572,32314],[-10,-75],[-164,-360],[-75,-82],[20,-113],[-44,-134],[-128,-127],[-211,-80],[-29,-52],[-52,7],[-47,-23],[-39,-26],[26,-19],[-12,-25],[-72,-14],[-97,-61],[-3,-125],[-63,-138],[421,-113],[399,-20],[375,-293],[317,-110],[55,-65],[215,-122],[263,-57],[-52,-50],[-518,-79],[209,-209],[214,-173],[50,-124],[155,-191],[440,-388],[223,-475],[-169,-101],[-194,-234],[-205,-306],[-192,-141],[380,-616],[-1224,-36],[-1158,63],[-312,-1],[-173,51],[80,117],[47,176],[-40,231],[-281,316],[-182,382],[-305,225],[-209,18],[-250,93],[-125,-87],[-49,-7],[0,-54],[-148,-186],[16,-47],[-118,-127],[-69,-33],[-50,1],[-61,-74],[-190,-97],[-66,27],[-63,-28],[-91,31],[-78,-20],[-98,-147],[-110,-3],[-32,-22],[-11,-104],[-74,-101],[-40,-228],[-49,-38],[-307,-103],[-71,-44],[9,-51],[-41,-66],[51,-47],[45,-112],[-98,-57],[-90,-1],[-7,-84],[-31,-32],[-209,-49],[-51,-40],[-78,-8],[-11,-30],[-190,-81],[-41,-66],[-48,-11],[-52,-48],[-8,-54],[-127,-32],[1,-35],[61,-47],[14,-68],[206,-146],[46,-86],[-22,-72],[-115,-86],[-83,-149],[-164,-124],[21,-89],[-55,-114],[165,-123],[-1,-33],[52,-46],[-2,-152],[40,-103],[-170,-177],[-77,-39],[-114,-14],[-74,-66],[-223,-104],[-42,-97],[-85,-40],[-44,-71],[32,-34],[-77,-102],[-69,-31],[-89,24],[-104,-28],[-142,-71],[-46,-49],[-147,-121],[-3,-177],[-107,-161],[-72,-192],[-26,-4],[-69,-294],[2,-88],[74,-140],[-138,-18],[15,-110],[-23,-114],[-50,10],[-24,-59],[102,-31],[-213,-191],[-73,-101],[-342,10],[-549,-93],[-296,-27],[-273,31],[-292,2],[-412,146],[-98,69],[-83,-172],[-3,-140],[-196,-173],[-142,-36],[-60,-45],[-116,-394],[-76,-6],[-112,-49],[-175,-211],[-116,-100],[-481,-274],[-151,-111],[-78,-232],[-62,-48],[6,-203],[-32,-99],[161,-24],[-6,-30],[447,-140],[729,-74],[180,22],[-89,-56],[145,-48],[11,-46],[-113,-95],[-298,-169],[-8,-221],[-475,-120],[27,-89],[-76,-89],[88,-91],[164,65],[443,111],[28,-87],[-184,-60],[-156,-143],[159,-152],[56,10],[5,-83],[238,15],[48,-72],[504,73],[-15,-156]],[[35052,18208],[20,-23],[-91,-65],[-546,-171],[47,-44],[-292,-84],[-92,-68],[20,-31],[-203,-98],[-21,-35],[47,-31],[-243,-121],[-282,-252],[-60,-99],[-23,1],[13,-125],[-49,-20],[29,-59],[-91,-20],[-3,37],[-256,-57],[194,-185],[-236,-152],[-70,15],[-76,-75],[-275,51],[-5,-48],[-151,-35],[5,-15],[146,26],[36,-236],[-120,-15],[13,-97],[-67,-109],[-58,-43],[-128,43],[-195,28],[-8,-42],[-213,-78],[-39,35],[-219,-105],[-36,38],[-357,-183],[-62,51],[-229,-100],[-124,201],[29,11],[-57,58],[44,18],[-105,85],[-70,91],[130,72],[-297,195],[-251,46],[-323,-150],[-146,125],[-34,19],[-17,-39],[-75,60],[69,258],[-160,40],[-153,-1],[-246,-23],[-692,-314],[0,0],[-23,36],[81,76],[-283,69],[0,0],[-99,-26],[-84,-57],[-102,-113],[-123,-85],[-100,-131],[-63,-135],[21,-85],[-46,-146],[-219,-229],[-205,-59],[-8,-71],[-224,-177],[-132,-13],[-114,165],[-196,46],[-360,136],[-46,5],[0,0],[0,0],[-33,-45],[-60,-12],[-214,28],[0,0],[0,0],[-295,-28],[-103,-47],[87,-278],[-756,-323],[-440,-107],[-307,-104],[-249,-53],[-236,-16],[-172,-38],[-18,34],[0,0],[-484,-148],[-65,65],[0,0],[0,0],[-422,-36],[-154,-50],[-321,-182],[-363,-52],[0,0],[-153,24],[0,0],[-149,-54],[31,-72],[52,-3],[-93,-39],[-139,-113],[-213,-105],[-277,-309],[-1068,-123],[-7,50],[-307,-19],[-281,51],[-3,26],[48,265],[-15,88],[-63,84],[192,419],[-22,22],[-26,-20],[15,31],[-31,106],[147,220],[37,118],[-8,54],[-115,144],[-44,-11],[-102,153],[-14,101],[63,138],[-9,141],[-300,11],[-160,-75],[-90,12],[-107,-14],[-40,-52],[-96,13],[-119,-20],[-33,-71],[-88,-86],[-112,6],[-101,-47],[-84,8],[-134,202],[127,24],[-107,289],[-238,203],[-35,-16],[-99,113],[-31,-12],[-25,206],[-137,181],[-552,436]],[[16303,16856],[270,185],[-5,23],[69,53],[97,-49],[1,0],[188,80],[284,52],[-104,142],[-159,111],[-109,75],[22,15],[-1,1],[175,131],[98,185],[0,16],[-55,52],[-292,4],[-16,8],[-8,-1],[-239,93],[-133,26],[52,31],[-1,0],[176,110],[25,30],[45,56],[101,48],[85,36],[21,3],[24,15],[346,55],[21,18],[-112,236],[-29,40],[-57,82],[-3,65],[-61,127],[-163,208],[-14,4],[-69,-54],[-159,123],[-177,-115],[-68,-47],[27,-19],[26,-18],[-136,-88],[27,-19],[-86,-73],[-35,-31],[-15,-22],[-139,16],[-41,-38],[-74,51],[-29,3],[-329,-96],[-82,10],[-270,6],[-177,49],[-594,73],[-61,-6],[-3,81],[-82,246],[-75,147],[-36,307],[-27,134],[-57,286],[-9,17],[5,4],[0,1],[101,163],[-3,11],[-2,3],[58,67],[472,201],[226,73],[73,9],[292,121],[496,252],[540,343],[15,15],[11,2],[15,9],[506,75],[407,164],[95,60],[15,-16],[37,15],[167,67],[-8,17],[46,20],[29,114],[-2,0],[-1,76],[-46,36],[45,65],[-70,138],[121,87],[45,41],[1,58],[-5,22],[-1,1],[-25,3],[24,53],[-128,69],[-46,66],[-25,36],[10,26],[-7,50],[13,496],[28,75],[24,61],[4,2],[8,22],[101,132],[280,244],[106,69],[17,19],[14,16],[0,3],[-7,63],[14,2],[23,3],[46,39],[5,0],[10,22],[52,-18],[43,37],[-17,16],[87,30],[25,14],[17,36],[36,-7],[15,7],[31,39],[60,8],[87,79],[45,13],[92,28],[64,59],[44,41],[9,2],[-60,120],[-6,6],[-49,94],[0,1],[-330,266],[-21,13],[1,2],[131,249],[14,26],[2,1],[1,1],[83,50],[63,1],[125,43],[19,9],[58,70],[32,93],[96,17],[580,159],[10,-1],[53,1],[318,4],[218,-46],[47,-10],[33,-3],[174,-189],[122,52],[238,109],[96,43],[63,29],[339,282],[112,56],[118,58],[-17,11],[-219,118],[-45,19],[-1,5],[-8,4],[-138,163],[0,16],[-19,50],[-4,339],[-2,155],[-42,7],[-110,-8],[-65,24],[-19,27],[-3,5],[41,133],[7,-1],[8,25],[-22,124],[-34,190],[23,146],[46,99],[4,20],[-48,4],[-86,8],[19,50],[15,-1],[47,92],[3,15],[19,90],[52,79],[27,11],[20,40],[242,93],[-29,27],[-76,69],[-174,254],[-13,16],[81,154],[166,317],[-3,6],[347,138],[377,54],[-2,4],[-77,109],[-59,175],[-2,1],[-36,4],[-50,66],[-93,75],[-28,1],[-317,-60],[-62,-53],[-102,-15],[-75,-77],[-119,-23],[-39,16],[-42,17],[-46,110],[8,72],[-35,29],[11,52],[32,19],[126,76],[61,37],[-47,44],[-27,10],[-19,57],[-34,23],[-49,-9],[-81,-78],[-32,-73],[10,-28],[-27,-28],[-49,-50],[-19,-20],[-102,-16],[-168,67],[-65,66],[-9,27],[-12,35],[-102,88],[-16,51],[-18,11],[-56,20],[-48,-2],[-43,-19],[-116,-96],[-38,-191],[-136,-15],[-23,18],[-77,60],[-8,31],[25,35],[5,31],[-79,73],[-13,78],[-70,53],[-70,52],[-9,50],[-13,77],[5,18],[-59,5],[-277,-107],[-7,-16],[-45,-105],[15,-37],[18,-22],[-21,-59],[-83,-10],[-178,106],[-45,50],[-13,53],[51,64],[1,3],[2,55],[1,11],[-14,13],[-52,11],[-164,-52],[-68,11],[-38,5],[-13,3],[16,185],[-30,15],[-162,32],[-216,115],[-42,-11],[-47,16],[-57,52],[-50,-10],[-84,26],[-66,-3],[-316,-19],[-466,285],[-340,-28],[-180,87],[-83,40],[-2,1],[-369,486],[-80,191],[67,69],[-1,83],[62,111],[-41,123],[2,4],[-2,6],[17,79],[149,250],[53,25],[2,2],[-23,77],[58,27],[-30,122],[-114,33],[112,96],[111,119],[64,95],[116,98],[33,36],[-9,88],[-5,6],[-14,9],[-115,66],[46,70],[75,134],[69,9],[136,17],[299,341],[9,22],[128,147],[10,-1],[90,-7],[75,25],[590,355],[227,231],[322,389],[590,483]],[[19017,35573],[201,121],[105,35],[348,-12],[136,30],[322,209],[361,107],[215,-127],[-51,-153],[508,-2],[408,133],[126,17],[272,-211],[-80,-244],[13,-222],[236,-272],[70,-33],[180,-186],[100,-20],[120,36],[88,42],[68,84],[168,-24],[200,26],[195,-5],[176,130],[32,-53],[-34,-130],[23,-56],[172,-111],[113,-3],[347,117],[54,-105],[119,-126],[20,5],[362,80],[606,187],[787,482],[374,177],[389,-17],[86,12],[187,243],[338,267],[135,51],[238,83],[307,148],[211,129],[64,65],[303,145],[121,171],[125,48],[142,112],[153,55],[111,110],[98,57],[0,-14],[87,-2],[21,-73],[58,-26],[237,-7],[626,70],[260,96],[113,76],[483,132],[-12,24],[125,40],[207,48],[127,-18],[93,17],[67,-96],[44,-105],[-54,-214],[61,-159],[-1,-68],[338,40],[808,214]],[[35052,18208],[764,248],[145,16],[100,-64],[39,47],[170,92],[90,90],[87,-75],[162,55],[89,-141],[87,-250],[152,48],[11,-37],[528,86],[-127,219],[-43,202],[234,29],[404,9],[-22,27],[310,85],[131,-58],[37,-114],[-45,-78],[-102,-85],[240,5],[326,80],[278,-3],[340,138],[320,95],[675,132],[332,19],[548,114],[637,180],[75,-158],[89,20],[49,-152],[247,221],[103,3],[59,59],[17,-51],[230,-6],[70,-252],[-66,-31],[92,-78],[293,-199],[59,-118],[-28,12],[-59,-35],[-117,-390],[54,-62],[-42,-63],[73,-71],[52,-107],[-25,-119],[46,-116],[218,39],[181,-78],[86,1],[210,-118],[231,49],[531,164],[16,23],[302,74],[77,-158],[-18,-243],[159,-54],[-8,-18],[241,-322],[138,-165],[147,-36],[45,32],[85,20],[300,-84],[193,-111],[0,-30],[-87,-102],[-222,-121],[-281,-248],[255,-185],[13,-52],[46,-8],[55,25],[213,151],[206,70],[38,37],[112,7],[260,-36],[-19,-200],[-97,-401],[540,-106],[150,-46],[382,-180],[66,18],[499,-2],[473,-126],[338,-125],[-54,-104],[34,-8],[-25,-18],[356,-29],[370,-67],[322,-30],[21,34],[108,-85],[31,15],[47,-16],[14,19],[34,-21],[14,20],[79,-13],[130,-50],[8,11],[285,-83],[277,-52],[184,-65],[77,115],[481,-172],[42,87],[248,-46],[285,-108],[65,73],[237,-57],[250,353],[200,-65],[-157,-222],[160,-64],[74,82],[205,-189],[201,141],[115,-83],[94,-21],[-164,-192],[619,-172],[-4,-14],[452,-4],[130,-406],[-327,-177],[220,-384],[15,-346],[68,-9],[-91,-240],[82,8],[41,-67],[279,-265],[-207,50],[-23,-55],[-68,10],[-65,-166],[-352,42],[4,-199],[-241,-43],[-30,-10],[13,-29],[-68,-22],[-252,-9],[4,-99],[-215,-21],[-127,-38],[-17,-38],[-35,17],[-54,-16],[12,-181],[-403,-64],[-141,-107],[-371,-155],[-10,-43],[83,-143],[157,8],[380,113],[-60,204],[121,24],[55,-36],[17,-155],[375,-33],[146,-118],[77,-101],[-101,-311],[15,-18],[-203,-18],[-449,108],[-181,-19],[-134,-114],[-147,-188],[-142,-52],[154,-62],[356,-260],[25,23],[67,-55],[39,14],[110,-144],[75,41],[66,-78],[334,17],[488,-57],[379,8],[-64,648],[83,116],[198,138],[80,31],[-26,34],[283,77],[471,68],[-58,132],[657,216],[251,-303],[236,83],[20,-86],[222,61],[-6,12],[283,53],[3,-59],[171,-51],[194,-3],[129,22],[3,59],[204,61],[24,-39],[161,63],[57,-52],[234,64],[-175,112],[133,125],[198,272],[192,-40],[110,153],[157,138],[58,-26],[249,-40],[264,128],[363,10],[63,22],[-22,191],[52,95],[90,20],[36,116],[-55,123],[-35,178],[209,310],[299,-73],[16,22],[171,-49],[23,-63],[-240,-148],[41,-18],[62,42],[103,-257],[615,20],[-27,81],[257,40],[34,117],[73,-22]],[[62006,12341],[48,-14],[-45,-119],[257,15],[130,-282],[232,-265],[215,-63],[46,55],[120,-46],[372,-393],[-553,-323],[138,-106],[-46,-34],[190,-146],[33,15],[210,-181],[-104,-164],[27,-7],[-108,-201],[-103,-102],[-16,-91],[-69,-88],[-130,-280],[-105,-44],[60,-119],[267,54],[135,-20],[291,-251],[1,-11]],[[63499,9130],[-24,-94],[-114,-39],[-75,-62],[-26,-199],[0,0],[-91,-148],[-234,-381],[0,0],[-50,18],[-17,-26],[-433,171],[-99,12],[-16,1],[-257,20],[0,0],[-121,-12],[-2,3],[-33,43],[-199,26],[-231,-69],[-223,-47],[-352,-56],[-1,9],[-10,-2],[-180,80],[-14,-1],[-4,9],[-109,49],[-43,-10],[-96,-101],[56,-33],[62,-120],[-34,-4],[25,-131],[-58,-20],[-7,-1],[-103,-19],[-175,-35],[-91,-8],[-95,-4],[-76,1],[-41,2],[-156,-5],[-69,-2],[-212,-22],[-842,103],[-130,-28],[-328,-87],[-15,-4],[-173,-46],[-129,-34],[-2,4],[-10,22],[-25,-5],[-102,86],[-305,-17],[-51,-3],[-9,-1],[-24,-2],[-23,0],[-32,-2],[-109,22],[-211,30],[-16,1],[-12,3],[-21,7],[-41,17],[-748,147],[-288,-73],[-106,-8],[-60,-11],[0,0],[-4,4],[-187,197],[-23,24],[0,0],[12,11],[-79,187],[-437,-201],[-48,-43],[-28,-17],[-46,-22],[-48,-24],[-52,-23],[-25,-8],[-37,-13],[-66,-32],[-60,-22],[-26,-11],[-479,-205],[-3,-3],[-39,-23],[-171,-104],[-213,-55],[-35,106],[-1,0],[-81,-26],[-310,-99],[0,0],[-28,39],[-122,-44],[-29,36],[-72,-29],[-74,-48],[13,-17],[0,0],[-65,-97],[0,0],[-107,-92],[14,-13],[0,0],[-47,-23],[-46,-70],[9,-16],[43,-62],[12,-29],[69,-113],[251,-336],[192,-153],[42,-5],[50,-18],[31,-14],[1,0],[92,-78],[0,0],[27,-36],[68,-90],[19,9],[115,-75],[14,-10],[25,-47],[-83,-111],[-301,-122],[-265,-40],[-120,169],[-98,82],[-35,-10],[-36,8],[-130,-40],[-63,-18],[-87,-19],[41,-140],[-25,-9],[-36,-11],[-49,-17],[-3,-8],[-960,-491],[-442,-179],[5,37],[-45,-8],[0,0],[0,0],[8,220],[0,1],[0,0],[0,0],[102,317],[1,0],[15,134],[-524,-106],[-26,-9],[-21,-8],[-1,0],[-8,-1],[-30,-2],[-23,-2],[-76,-15],[-14,-4],[-32,-9],[-113,-29],[-31,-7],[-110,-30],[-2,0],[-118,2],[-131,86],[0,0],[-24,33],[-169,230],[-269,184],[-5,1],[-26,-166],[-37,-175],[0,0],[-54,-103],[-45,-86],[61,-700],[9,-113],[21,-237],[-257,-380],[-133,-270],[-122,-98],[-50,-39],[0,-1],[-12,-38],[-43,-148],[23,-47],[13,-27],[48,-99],[27,-56],[0,0],[-272,-139],[-1,0],[-59,-18],[-116,-36],[-44,0],[-28,0],[-13,0],[-139,-73],[-16,-8],[-23,-12],[-29,-5],[-347,-66],[-77,-48],[-50,13],[-14,15],[-58,60],[0,0],[-56,11],[-9,27],[-12,36],[0,0],[-58,52],[0,0],[0,1],[-111,54],[-113,-12],[-174,-18],[-203,-60],[-78,-23],[-59,-21],[-32,-11],[0,0],[-32,-7],[-18,-3],[0,0],[-364,-109],[-22,-144],[5,-9],[-130,-54],[-137,-107],[-84,-103],[0,0],[0,-10],[-11,-192],[-80,-98],[-63,-76],[-43,-53],[-4,-5],[0,0],[0,0],[-1,-8],[-3,-24],[-3,-21],[-4,-29],[-2,-18],[-1,-8],[92,-121],[38,-49],[0,0],[-48,-119],[4,-99],[47,-42],[80,-72],[0,0],[3,-19],[6,-34],[194,-222],[35,-466],[-7,-11],[-1,-8],[-1,-6],[-3,-7],[-5,-8],[-4,-5],[-6,-4],[-3,-2],[-80,-144],[-4,0],[0,-3],[-3,1],[-20,2],[-137,-2],[-868,-14],[-7,17],[-13,32],[-15,-2],[0,0],[-7,24],[-6,15],[-6,19],[-1,8],[0,9],[0,14],[-26,67],[-37,-2],[-58,-4],[-17,0],[-13,0],[-12,1],[-9,2],[-53,-1],[0,0],[0,0],[-7,23],[0,0],[0,0],[-240,25],[-274,102],[-83,51],[0,0],[54,53],[-159,84],[-18,-11],[-171,106],[-79,49],[0,0],[-223,85],[-16,6],[0,0],[-16,87],[-12,68],[-58,118],[1,128],[-85,167],[-1,1],[-5,53],[-6,58],[-3,30],[-1,11],[-59,-2],[-46,-1],[-557,-17],[-7,6],[-30,-2],[0,0],[-19,46],[-219,199],[-111,-10],[-160,-51],[-5,-2],[-5,-1],[-32,-3],[-30,-3],[-34,-3],[-120,-11],[-50,-2],[-30,-1],[-31,1],[-37,0],[-43,1],[-7,0],[0,0],[-134,10],[-192,13],[-99,17],[-74,12],[-26,4],[-28,4],[-56,10],[-34,7],[-48,17],[-32,13],[-44,14],[-69,23],[-27,11],[-109,22],[-129,-46],[-10,-11],[-31,-34],[-69,-38],[-19,-10],[-45,-22],[-6,-3],[-9,-4],[-2,-1],[-164,-36],[-20,-5],[-3,0],[0,-1],[-87,-45],[-88,-46],[-401,-576],[0,0],[-16,-39],[-4,-14],[-7,-23],[-9,-23],[-9,-16],[-8,-14],[-9,-12],[-15,-19],[-28,-41],[-21,-29],[-44,-60],[-5,-7],[-31,-41],[-13,-22],[-31,-45],[-9,-13],[-28,-35],[-88,-148],[-1,-23],[0,0],[-51,-81],[-77,-121],[-9,-16],[-15,-22],[-1,-1],[-10,-10],[-437,-735],[-43,8],[-4,-5],[-2,0],[-114,26],[-8,1],[-464,84],[-55,4],[-7,1],[-58,4],[-55,15],[-34,13],[-319,57],[-589,-69],[-93,-63],[-28,-18],[-52,45],[-61,215],[0,0],[0,0],[-60,75],[0,0],[0,0],[3,64],[3,89],[0,0],[167,262],[0,0],[0,0],[165,112],[90,61],[-8,5],[-45,29],[-49,30],[-19,-6],[-65,-19],[-6,-11],[-9,-15],[-26,-31],[-98,-98],[0,0],[-263,79],[-360,27],[-137,-54],[-36,-15],[-74,-28],[-80,-17],[-140,-25],[-2,0],[-15,0],[-24,-8],[-22,-6],[-336,-101],[-32,-10],[-27,-18],[-71,-50],[-1,-1],[-51,24],[-5,-1],[-265,94],[-47,-30],[-14,-8],[-159,-89],[-108,-57],[-101,-54],[0,0],[-451,359],[-11,8],[-354,265],[-369,29],[-9,0],[-53,0],[-255,-96],[-24,-9],[-66,-26],[-414,-153],[-100,-37],[-177,-65],[-353,-129],[-132,-50],[-480,-171],[-6,-3],[-209,109],[-154,111],[0,0],[-42,178],[0,0],[48,118],[21,53],[384,243],[1,1],[5,-3],[2,1],[428,-116],[31,79],[83,265],[54,88],[79,127],[35,138],[-47,142],[-27,24],[-8,-8],[-612,147],[-70,-103],[-69,-212],[-268,-43],[-74,38],[-21,30],[-284,178],[-65,10],[-7,35],[-13,8],[-167,212],[-12,69],[-24,43],[-26,234],[-24,131],[-220,182],[34,590],[-181,129],[-108,62],[-23,36],[113,1],[406,163],[108,370],[-5,9],[-5,10],[-2,14],[-1,19],[13,72],[3,6],[4,4],[-230,394],[-28,3],[-154,-37],[-47,36],[-371,418],[250,163],[22,53],[44,5],[38,51],[186,49],[151,94],[-32,55],[-9,18],[-103,149],[-167,34],[-186,-15],[-68,38],[-116,30],[-29,-5],[1,-23],[-228,-23],[-1,7],[-3,-1],[-75,88],[-1,0],[-5,7],[-85,101],[-165,10],[-935,56],[-105,-30],[-29,45],[-389,88],[-265,209],[-108,34],[34,89],[-370,68],[-9,93],[-200,-23],[-68,-8],[-76,-10],[45,-121],[93,-126],[-87,-55],[-46,41],[-100,138],[-48,122],[-41,107],[13,27],[43,83],[31,19],[5,5],[3,8],[-9,22],[63,116],[-214,56],[-167,43],[-521,-14],[-74,-47],[-12,-8],[-13,-9],[-33,-21],[0,0],[-5,3],[-93,49],[-210,-136],[-9,-6],[-25,24],[-10,23],[-15,-13],[-42,34],[-140,78],[-379,-308],[-238,80],[-11,-7],[0,0],[-210,61],[-5,3],[-52,32],[-17,18],[-53,60],[-65,45],[-53,27],[-163,34],[-34,-48],[-1,-1],[-11,-15],[-19,-22],[-16,-15],[-1,0],[-17,4],[-58,13],[-1,0],[0,0],[-29,6],[-16,3],[-13,3],[-13,2],[-11,2],[-24,5],[-17,4],[-9,2],[-9,2],[-14,3],[-15,3],[-10,3],[-10,3],[-3,1],[-9,3],[-13,3],[-1,0],[-11,4],[-13,5],[-2,1],[-12,4],[-14,6],[-3,1],[-9,3],[-11,5],[-12,5],[-2,1],[-560,132],[-287,-12],[-13,-1],[-193,-34],[0,0],[-116,73],[-38,-70],[-14,-208],[-376,-174],[-8,-4],[-12,-5],[-89,-84],[-133,-12],[-136,-39],[-128,-37],[-310,-90],[-207,-36],[-165,4],[-120,20],[-79,14],[0,0],[0,0],[-12,0],[-348,-19],[-28,-1],[-101,10],[-106,49],[-52,45],[-56,49],[-19,15],[-78,50],[-152,50],[-109,21],[-57,-6],[0,0],[-110,19],[-208,36],[-363,-54],[-3,3],[-28,19],[-17,-3],[-125,-44],[-32,-12],[-131,-20],[-80,-13],[0,0],[-13,18],[-153,7],[-39,1],[-16,0],[-13,1],[-15,1],[-9,2],[-10,1],[-8,2],[-7,1],[-8,2],[-7,3],[-7,3],[-18,9],[-10,6],[-13,10],[-23,18],[-11,10],[-7,6],[-7,8],[-4,7],[-4,8],[-2,6],[-2,8],[-7,2],[-100,40],[-253,-86],[-67,9],[-76,10],[-295,121],[-75,32],[-90,40],[-125,55],[-128,80],[-63,75],[0,1],[0,0],[-177,213],[-3,2],[-8,1],[-22,4],[-28,27],[-11,11],[-38,36],[-29,1],[-8,22],[-6,13],[-27,71],[-34,26],[8,30],[-1,0],[-7,6],[-2,0],[-6,0],[-7,-1],[-4,1],[-1,0],[-2,1],[0,1],[-1,9],[-1,3],[-2,3],[-6,6],[-2,2],[-1,4],[0,3],[2,5],[0,1],[1,8],[-2,2],[-89,32],[-34,6],[0,0],[-3,1],[-3,2],[-13,7],[-16,8],[-36,13],[-5,-5],[0,-1],[-1,-3],[-2,-2],[-2,-1],[-3,-1],[-3,0],[-3,1],[-5,3],[-8,6],[-6,5],[-14,9],[0,0],[0,0],[-5,-1],[-61,-10],[-16,33],[0,0],[-19,-7],[-6,-2],[-4,-2],[-17,-6],[-17,23],[-40,-7],[-28,20],[-10,7],[0,0],[0,0],[-7,-7],[-12,-13],[-33,33],[-6,6],[0,0],[0,0],[-28,-3],[-22,-2],[-70,42],[-4,2],[0,0],[0,0],[-50,-15],[-7,-2],[-228,139],[-4,3],[-1,1],[0,0],[-37,-4],[-18,-1],[-50,23],[-35,33],[-1,1],[-61,58],[-4,13],[-47,133],[0,0],[0,0],[-34,36],[-22,22],[1,7],[3,31],[0,0],[-1,7],[0,6],[1,7],[3,7],[5,53],[-1,2],[-2,5],[-2,4],[0,3],[0,3],[1,4],[2,8],[0,4],[0,4],[0,5],[0,4],[2,4],[5,12],[1,4],[0,4],[0,5],[-1,13],[-3,21],[1,7],[1,4],[2,7],[4,9],[0,3],[1,4],[-1,3],[-2,3],[-2,6],[-3,6],[-1,4],[0,4],[1,3],[0,0],[-61,212],[-1,1],[-2,2],[0,3],[-1,3],[0,3],[-10,35],[-1,3],[0,1],[-397,154],[-15,-5],[-20,-6],[0,0],[-115,37],[-11,4],[0,0],[-19,11],[-41,24],[4,15],[1,4],[-76,30],[0,0],[-4,-1],[-3,-1],[-4,0],[-3,1],[-3,1],[-3,1],[-4,3],[-3,2],[-18,11],[-4,2],[-13,3],[-5,2],[-4,2],[-2,2],[-70,27],[-1,0],[-3,-1],[-8,-3],[-3,0],[-5,0],[-19,3],[-11,1],[-6,1],[-7,2],[-6,3],[-4,2],[-1,1],[-94,59],[-35,23],[-1,0],[-3,1],[-4,3],[-3,2],[-3,4],[-3,4],[-1,4],[0,4],[1,5],[2,5],[1,3],[0,4],[-9,8],[-19,4],[-5,0],[-4,0],[-3,0],[-2,1],[-1,1],[-1,2],[0,6],[0,3],[-1,18],[-163,157],[-69,21],[-7,-1],[-12,-1],[-9,0],[-14,2],[-11,2],[-11,3],[-7,3],[-63,20],[-12,1],[-18,2],[-11,4],[-14,5],[-14,9],[-15,11],[-8,8],[-4,5],[0,1],[-5,1],[-6,32],[-3,5],[-1,3],[0,0],[0,0],[-3,23],[-71,341],[0,0],[-1,0],[-79,-10],[-9,122],[-43,-7],[6,99],[9,158],[0,0],[-16,45],[-22,60],[0,0],[0,0],[0,0],[95,100],[426,88],[251,113],[54,24],[0,0],[30,10],[167,56],[98,33],[73,12],[3,0],[273,43],[1,0],[-91,112],[-14,20],[-324,371],[-228,260],[-181,207],[-243,647],[-18,48],[-111,39],[-927,-278],[-53,-16],[-47,-14],[0,-8],[0,0],[-88,-24],[-19,-6],[-268,-76],[-13,-3],[-245,-158],[-8,-1],[-17,-10],[-6,-3],[-3,-2],[-4,8],[-497,-103],[-20,-4],[-38,-9],[-46,-10],[-32,-7],[-24,-4],[-35,-7],[-3,-1],[0,0],[0,5],[-58,77],[-38,-9],[-49,-8],[-35,69],[-31,61],[-3,5],[-1,3],[-5,12],[-2,5],[-5,18],[-1,10],[2,11],[3,13],[0,1],[0,18],[0,0],[-124,112],[0,0],[-8,6],[-5,5],[-5,7],[-5,11],[-16,27],[-1,1],[-238,197],[-5,-1],[-1,0],[-1,1],[-12,11],[-10,9],[-3,3],[-426,-150],[-53,225],[301,83],[5,41],[109,33],[344,103],[476,173],[135,183],[132,74],[5,12],[-39,55],[38,52],[6,18],[-15,75],[166,95],[49,-9],[6,-1],[72,15],[40,17],[54,43],[66,73],[57,49],[5,7],[8,5],[73,47],[77,49],[83,24],[45,-27],[37,-79],[165,-199],[284,105],[86,11],[414,151],[170,67],[276,56],[524,32],[24,113],[-14,77],[8,-2],[0,4],[183,80],[-2,15],[100,37],[75,88],[137,20],[5,3],[-2,9],[-9,38],[15,25],[5,7],[-6,19],[-3,13],[-26,39],[13,9],[-29,104],[-49,49],[32,12],[-45,66],[-119,81],[-112,77],[-69,79],[100,-34],[119,32],[182,97],[61,69],[97,8],[127,41],[239,102],[31,-16],[2,1],[136,191],[70,99],[105,5],[14,4],[278,80],[17,16],[152,35],[167,-6],[24,2],[98,18],[120,23],[56,25],[65,39],[-10,265],[-41,114],[17,53],[86,88],[86,-26],[71,11],[96,-29],[265,165]],[[44572,32314],[410,-80],[636,197],[330,159],[484,222],[18,57],[122,-15],[32,72],[90,-25],[24,48],[207,43],[594,70],[24,70],[225,-66],[156,46],[150,117],[99,-17],[28,26],[76,-142],[-15,-78],[166,-64],[73,141],[282,-35],[121,60],[160,143],[6,-90],[213,-14],[-20,-98],[274,-7],[6,-56],[128,7],[8,-55],[292,-20],[-5,-12],[185,-33],[60,12],[1,20],[90,-38],[-9,-40],[-125,-76],[-95,-10],[-28,-60],[41,-54],[-102,-47],[-78,-69],[309,-64],[-85,-126],[148,-15],[-132,-84],[-47,-250],[517,-52],[20,95],[428,-79],[114,69],[207,-186],[458,-59],[708,94],[291,-6],[19,56],[548,-24],[449,342],[634,165]],[[54492,32399],[34,9],[493,-66],[216,157],[94,1],[-12,21],[373,-20],[165,-24],[-113,-245],[124,-45],[-34,-106],[82,6],[90,97],[844,15],[353,-34],[396,-207],[614,278],[-66,125],[-174,95],[-52,209],[235,50],[777,-22],[967,129],[136,-85],[174,-247],[-35,-122],[69,-96],[7,-9],[18,-23],[1056,107],[-48,-142],[108,-19],[-31,-119],[91,-12],[124,218],[145,30],[364,-14],[304,-40],[134,37],[183,16],[148,-207],[254,-46],[468,109],[-7,-30],[524,134],[265,46],[163,65],[69,-76],[24,-80],[337,10],[82,60],[32,-1],[32,-35],[283,91],[64,-36],[104,46],[84,92],[156,-70],[151,-112],[103,-28],[43,-40],[130,-48],[212,41],[-4,-37],[89,-49],[178,-222],[180,-152],[49,-417],[117,-251],[166,245],[166,-107],[-18,-21],[153,-260],[237,72],[-25,57],[481,258],[67,-270],[6,-351],[47,-225],[-31,-332],[-164,-31],[307,-597],[75,-5],[117,38],[109,-19],[151,39],[37,-31],[108,-21],[237,20],[-96,-188],[3,-409],[-23,-134],[-657,-93],[115,-216],[110,15],[-49,-327],[9,-236],[291,-241],[366,-107],[280,-111],[33,-100],[-53,-22],[73,-87],[-128,-38],[117,-87],[41,-15],[27,14],[-122,-105],[85,-130],[56,-200],[-14,-200],[25,-269],[299,-289],[96,26],[61,-88],[194,33],[33,-166],[-20,-98],[644,120],[107,44],[62,-78],[79,41],[-7,-78],[71,-10],[104,-263],[437,-243],[142,-258],[77,-288],[60,-71]],[[72181,24566],[-464,-201],[-193,-117],[-619,-491],[-1320,-1131],[-904,-710],[-244,-193],[-196,-202],[-168,-102],[-121,-125],[-72,-107],[-214,-306],[204,-83],[128,101],[128,28],[12,65],[288,6],[113,45],[184,35],[345,-19],[176,-108],[274,0],[77,-117],[54,-163],[102,-82],[202,-69],[168,-8],[235,-51],[185,-364],[372,-327],[15,-269],[256,-93],[-55,-76],[85,-146],[34,-292],[73,-229],[-60,-169],[-202,-152],[-441,319],[-673,212],[-92,-36],[-826,36],[-1232,-248],[-472,-19],[-149,-32],[-150,-55],[9,-111],[-190,-359],[26,-74],[-62,-81],[-149,-97],[6,75],[-34,95],[-17,-9],[30,-97],[-16,-78],[35,-41],[-329,46],[-470,26],[-156,-122],[-161,-210],[-38,-106],[-149,-146],[29,-138],[-37,-93],[20,-86],[106,-159],[142,-119],[-340,-108],[-130,-92],[-390,-106],[-233,-40],[-98,15],[-807,-2],[-156,120],[-113,150],[-367,76],[-452,-29],[-218,7],[-52,-141],[199,-152],[-46,-38],[188,-208],[45,-151],[-283,-317],[91,-91],[89,-209],[-139,-32],[-84,-69],[-35,-110],[4,-106],[21,-59],[313,-336],[222,-137],[-65,-122],[-212,95],[-187,-90],[-189,-43],[-357,325],[-118,194],[-164,-44],[-174,-92],[-38,47],[-224,-84],[-317,-78],[38,-64],[139,-337],[204,-187],[188,-115],[128,-233],[214,-95],[-151,-58],[283,-317],[221,99],[138,-110],[-278,-174],[159,-132],[-130,-185],[218,-93],[-131,-103],[-37,-135]],[[33173,37150],[513,118],[-85,129],[20,7],[-152,180],[203,70],[-11,22],[231,75],[-141,201],[115,38],[29,24],[-178,100],[-2,76],[134,359],[-196,28],[-57,144],[-108,97],[-36,-11],[-89,133],[528,171],[175,38],[25,100],[31,-3],[-23,69],[-201,21],[-76,53],[-185,59],[-149,24],[-138,200],[-301,339],[-98,94],[-34,-15],[-26,-12],[62,-84],[-325,-115],[-184,193],[-76,-44],[-38,41],[-268,-84],[-16,24],[-204,-98],[-40,90],[34,15],[-234,146],[502,245],[-18,20],[-95,-39],[-214,291],[-310,246],[136,83],[270,81],[-35,62],[67,7],[-43,141],[-20,54],[-68,56],[79,41],[8,121],[78,89],[-218,45],[2,38],[223,44],[136,106],[271,156],[72,118],[5,60],[324,225],[-89,96],[131,60],[417,123],[-151,339],[-63,8],[-70,148],[-91,363],[60,45],[-57,49],[40,33],[-146,162],[81,-8],[57,15],[39,36],[14,89],[60,74],[94,-30],[38,8],[76,45],[43,61],[259,49],[96,35],[32,43],[-213,55],[24,92],[-198,-3],[-7,93],[-152,-10],[261,225],[-66,234],[-159,169],[31,14],[-129,125],[103,55],[-173,106],[165,114],[-62,117],[416,250],[-49,73],[215,89],[279,71],[136,37],[155,-13],[277,-70],[137,-6],[223,34],[109,-3],[-41,27],[-21,59],[19,52],[38,0],[-8,138],[-113,170],[243,96],[-1,66],[102,167],[31,131],[-46,247],[486,115],[203,73],[-123,146],[-27,78],[757,211],[40,-11],[69,74],[296,43],[45,66],[750,294],[440,44],[-210,136],[-792,399],[-82,68],[81,91],[-282,105],[-54,99],[120,164],[-35,154],[148,164],[229,407],[84,386],[530,312],[540,108],[49,181],[-48,178],[-54,85]],[[38310,51466],[152,53],[286,37],[158,-7],[488,-313],[315,125],[-164,171],[128,33],[230,114],[456,162],[61,52],[236,113],[364,68],[296,491],[40,37],[95,-36],[-117,-182],[-20,6],[-43,-114],[6,-151],[54,-78],[1022,-48],[-12,-34],[210,-60],[62,33],[60,-14],[2,-35],[-40,-27],[17,-20],[-51,-16],[-118,-132],[33,-180],[-128,-135],[538,-97],[531,-183],[288,-60],[148,-59],[808,43],[15,-27],[175,-48],[191,-110],[108,-113],[150,-234],[36,-109],[-219,-120],[-37,-40],[19,-78],[139,-128],[165,-80],[172,20],[320,-51],[108,4],[115,37],[-4,14],[127,-2],[178,-62],[123,-96],[244,-141],[20,-157],[66,-109],[74,-64],[221,64],[132,6],[143,80],[346,137],[182,122],[283,95],[402,194],[133,38],[210,129],[15,-8],[58,54],[200,67],[55,73],[112,29],[117,86],[81,14],[120,60],[153,124],[468,266],[304,206],[382,173],[148,41],[310,176],[87,-106],[189,59],[153,-100],[43,-69],[163,-310],[-41,-161],[91,-95],[-81,-129],[20,-97],[-23,-8],[43,-78],[103,-49],[109,42],[16,-30],[355,125],[569,232],[195,102],[137,121],[189,-78],[342,44],[229,-89],[290,-72],[504,-51],[431,137],[432,96],[461,59],[454,-103],[-182,-580],[81,-42],[215,-221],[130,-250],[71,-291],[-88,-239],[37,-96],[-34,-91],[-99,-3],[-192,-346],[208,-285],[144,38],[85,0],[-28,-70],[-150,-102],[60,-81],[293,100],[219,-167],[185,-60],[164,-18],[27,-138],[-44,-126],[451,-81],[141,-55],[-14,-27],[258,-48],[99,-42],[14,16],[342,-253],[7,-141],[-12,-23],[-63,5],[-6,-53],[63,-70],[71,-7],[99,-44],[243,-201],[517,-204],[252,-64],[-29,-54],[104,-66],[52,144],[75,89],[8,63],[261,-42],[64,302],[76,68],[274,125],[-18,31],[126,13],[117,40],[266,20],[150,52],[251,75],[105,-55],[-28,-95],[34,-114],[130,-117],[40,16],[218,-276],[266,-773],[409,124],[137,-99],[204,212],[-14,9],[192,146],[217,-171],[-39,-23],[262,-304]],[[64495,45927],[-429,-181],[-241,-57],[-97,-5],[-22,23],[-476,-83],[-233,-38],[24,-68],[73,-175],[336,36],[311,86],[51,-94],[-22,-8],[152,-155],[241,105],[44,-55],[209,55],[41,-50],[-68,-17],[439,-479],[211,104],[95,80],[33,76],[164,-28],[195,-195],[326,146],[435,81],[107,-247],[-51,-5],[11,-37],[-255,-36],[181,-323],[21,5],[46,-74],[172,-413],[-19,-6],[13,-66],[-179,16],[-12,-186],[208,-40],[16,52],[300,116],[25,-29],[-121,-46],[12,-16],[105,16],[27,-27],[78,-20],[57,34],[387,102],[431,67],[72,-146],[114,7],[78,-181],[171,43],[107,-169],[-12,-37],[-185,-89],[-368,-251],[77,-134],[186,-21],[39,25],[40,-3],[132,-37],[27,-56],[-19,-54],[-69,-7],[-32,-93],[-85,-65],[-27,-118],[-52,-40],[-143,-210],[-395,-102],[-13,-98],[11,-152],[-129,-131],[53,-99],[3,-129],[-305,-336],[-429,-327],[-68,-116],[18,-81],[-68,-18],[6,-65],[-50,-80],[61,-96],[-44,-65]],[[66549,40337],[-72,-6],[-122,82],[-227,78],[-822,-49],[0,17],[-453,-15],[-158,16],[-136,55],[-192,32],[-778,40],[-518,124],[-237,38],[-557,42],[-32,-12],[-203,123],[-186,174],[-24,-146],[-182,-246],[39,-53],[-57,-111],[-63,-456],[-286,-404],[-61,-242],[-70,-151],[-71,-152],[-72,5],[-11,-82],[-82,-122],[-166,-142],[-175,-75],[-150,-135],[-284,-184],[10,-73],[-52,-75],[-193,-57],[-195,-15],[-264,-56],[-346,-188],[71,-149],[-257,-147],[31,-71],[-314,-73],[-6,-88],[85,-96],[61,-122],[-159,-21],[-375,-135],[-361,-23],[-817,-389],[-573,-308],[204,-143],[36,-86],[14,-201],[19,-50],[-35,-117],[1,-117],[-97,-119],[-12,-56],[27,-114],[137,-139],[-188,-169],[-106,-355],[-140,-111],[187,-260],[-41,-66],[4,-49],[-52,-3],[-121,-106],[-62,-19],[-65,-59],[-60,-14],[-137,-13],[-245,-139],[172,-182],[311,-234],[-233,-184],[22,-75],[-42,-77],[-134,-85],[-95,76],[-149,-88],[-94,-95],[-182,44],[-238,-16],[-377,-162],[-353,-109],[-126,-72],[255,-131]],[[54154,71974],[-507,103],[-316,132],[-254,0],[-106,19],[-172,88],[-543,-166],[-187,-49],[-390,-152],[-170,-89],[-146,-123],[-392,-150],[-193,-23],[-306,45],[-150,0],[-86,-44],[-285,-74],[-63,-26],[-29,-110],[-88,-71],[-408,-78],[-61,2],[-91,35],[-156,1],[-94,38],[-293,-21],[-479,352],[-36,97],[-121,184],[62,20],[9,-12],[182,82],[-114,371],[-236,263],[-248,127],[-177,8],[-96,-9],[10,-10],[-384,15],[-107,37],[-55,47],[-108,-23],[-196,-102],[-208,-10],[-94,-42],[-45,13],[-4,49],[-60,16],[-30,71],[-311,-35],[43,186],[-51,221],[-137,258],[-126,2],[75,-248],[-21,-183],[-185,-372],[-93,-114],[125,-125],[121,-70],[204,-39],[310,-15],[110,-41],[-11,-82],[-63,-54],[-25,-62],[30,-157],[-24,-91],[-46,-88],[-219,-172],[-17,-80],[23,-126],[-135,-173],[-37,-85],[-12,-161],[-80,-120],[12,-100],[109,-71],[-20,-23],[69,-20],[15,-31],[60,-11],[128,-116],[19,-32],[-199,-105],[-84,-130],[-26,-113],[42,-182],[-43,-72],[-33,-22],[2,19],[-33,-3],[-32,-66],[-75,-16],[-92,-127],[-26,-92],[-56,-55],[-292,-105],[-42,9],[-30,-65],[62,-98],[-23,-15],[22,-40],[-18,-16],[30,-40],[-31,-60],[-94,-44],[-23,-33],[2,-97],[-32,-80],[18,-62],[86,-82],[39,-87],[126,-145],[-93,-79],[-193,-56],[-91,-66],[62,-122],[2,-120],[33,-32],[-101,-59],[-52,-68],[-39,3],[44,-32],[-37,-8],[2,-56],[-53,-3],[11,-47],[-76,-86],[153,-180],[60,-24],[5,-29],[53,-6],[133,-121],[-4,-135],[-587,-284],[-10,-41],[-28,-10],[26,-78],[-102,-29],[0,-94],[37,-86],[-33,-98],[-38,-26],[47,-100]],[[44249,66179],[-68,-14],[44,-111],[-47,-14],[-126,-5],[-25,84],[-33,18],[-223,1],[-360,-98],[-162,-72],[7,-32],[-75,-11],[-402,51],[-28,-20],[-111,62],[-23,46],[-29,-27],[-53,24],[-26,76],[-333,87],[28,-80],[-13,-95],[-37,-76],[-76,-55],[47,216],[-12,27],[-64,27],[-185,-9],[-111,97],[-127,16],[-97,-17],[-59,11],[-17,31],[-63,406],[-82,136],[-118,322],[22,62],[112,118],[14,89],[69,53],[18,45],[-109,220],[-103,54],[-19,43],[-73,39],[-14,56],[79,165],[122,85],[95,-22],[55,35],[7,172],[-79,120],[-122,91],[-120,43],[-19,37],[-4,79],[236,104],[-6,55],[-98,38],[-242,37],[-90,42],[-548,-178],[-138,13],[-144,-17],[-190,-98],[-292,-112],[14,-55],[163,-54],[265,-28],[49,-65],[-177,-39],[-92,-47],[-56,-43],[18,-31],[-17,-30],[-210,-199],[-200,51],[-112,6],[-124,50],[-87,5],[-344,-107],[-232,-96],[-151,-32]],[[38316,67935],[37,91],[-7,79],[52,84],[-136,169],[-136,93],[218,72],[169,153],[45,84],[-104,120],[-167,57],[-158,89],[-107,124],[-178,282],[284,77],[370,286],[52,116],[71,10],[-104,228],[-85,-22],[-350,4],[-264,115],[-512,81],[-151,44],[-277,-88],[-78,-59],[-281,290],[177,234],[-237,-113],[-92,-112],[-30,-6],[-139,139],[-29,78],[1,41],[93,102],[125,101],[557,200],[-453,285],[-36,43],[90,-12],[57,28],[82,93],[46,125],[81,82],[415,211],[39,90],[-7,111],[33,90],[65,56],[208,88],[227,187],[-30,137],[32,55],[-6,45],[-87,102],[62,17],[131,-43],[81,1],[231,91],[-24,35],[119,-3],[112,-193],[45,16],[39,15],[95,-14],[62,22],[174,144],[70,125],[76,63],[118,53],[76,-2],[129,-56],[45,27],[104,6],[301,88],[180,84],[-113,138],[-3,259],[-91,233],[271,160],[159,29],[220,77],[-36,91],[282,137],[-28,43],[96,39],[-106,108],[163,93],[-46,85],[121,64],[71,126],[-58,404],[-80,80],[-364,-234],[-20,18],[-70,-22],[5,-53],[-90,9],[-212,-85],[-46,-37],[0,-30],[-466,-166],[-57,-26],[-66,-71],[-87,13],[-85,-56],[-42,0],[-34,-54],[-262,-101],[-65,148],[-9,191],[-70,62],[-17,51],[11,148],[63,85],[-126,121],[2,126],[-25,35],[-150,124],[-188,51],[-30,-160],[-102,-86],[-176,-101],[-97,-133],[-174,-128],[-293,-121],[-56,53],[-223,-151],[-158,-6],[-151,30],[-237,-58],[-48,172],[-170,-52],[-361,-168],[-55,69],[-30,-16],[-213,174],[75,43],[-168,145],[-186,-134],[-20,75],[-60,67],[16,83],[-88,121],[-431,-99],[-86,111],[-292,-107],[-190,187],[527,248],[-48,81],[-96,-39],[-29,39],[-28,-5],[-59,112],[-106,88],[-151,13],[-135,75],[-90,96],[45,13],[-21,41],[-123,133],[84,100],[-80,30],[-46,-1],[-66,40],[-58,-43],[-95,-15],[-2,13],[-372,-36],[-35,16],[-158,-3],[12,55],[-198,51],[-142,-7],[-51,53],[-187,65],[5,17],[-133,19],[-111,-18],[-153,61],[-74,58],[-47,-26],[-132,121],[-227,-113],[38,-42],[-377,-179],[12,251],[418,137],[-106,148],[-21,-10],[-36,35],[-24,-12],[-41,19],[-101,119],[-106,-27],[-100,383],[-507,-265],[-452,-12],[141,200],[13,66],[58,68],[5,75],[-120,198],[-145,114],[-8,122],[-364,48],[-185,-39],[-47,153],[-189,92],[-122,88],[252,94],[-133,95],[174,80],[65,58],[154,290],[0,63],[-50,77],[-448,-46],[-359,14],[-241,-215],[-95,5],[-124,-51],[-199,-203],[-403,-200],[-286,-114],[-110,134],[66,68],[73,-31],[140,135],[29,0],[-9,48],[-307,-110],[40,-46],[-51,-44],[-456,80],[-254,-101],[8,-22],[-58,-11],[-2,-55],[-50,-38],[-236,-63],[-348,-58],[-89,-57],[-62,-125],[-147,-122],[-276,-171],[-109,-160],[-145,-163],[-38,-14],[-169,59],[-302,15],[-147,50],[-26,58],[61,170],[8,232],[-96,154],[-125,87],[-58,26],[-36,-29],[-36,3],[27,-53],[-118,-20],[-165,-182],[90,-36],[14,-45],[-110,-238],[383,-52],[58,-151],[-298,-3],[51,-112],[50,-14],[-97,-75],[-153,-27],[-3,-185],[-70,-23],[-49,21],[-183,-55],[-84,-31],[22,-23],[-41,-34],[67,-183],[182,-160],[-87,-81],[25,-2],[32,-111],[289,-24],[71,-36],[50,-64],[-63,-78],[-52,-222],[-117,-77],[-471,8],[-5,173],[-265,-57],[20,-108],[-90,-27],[15,-133],[-70,-399],[-38,13],[-559,-276],[-650,-262],[32,-133],[77,-140],[-22,-88],[-24,-29],[-29,5],[-95,-55],[-23,-55],[-141,-122],[-59,-63],[-140,-20],[-78,-204],[6,-81],[-118,43],[-40,47],[-121,57],[-3,25],[-126,-13],[-319,-115],[-96,5],[-4,87],[-89,147],[-11,145],[-134,230],[0,0],[-163,-32],[183,-262],[-1,-9],[122,-268],[-108,-30],[-119,-112],[-200,-39],[-43,4],[-27,75],[-285,-3],[-194,63],[-82,-128],[61,-110],[-427,86],[-86,65],[1,6],[-56,28],[-57,1],[-49,40],[0,7],[-10,18],[11,11],[-20,35],[-111,35],[-27,39],[-88,19],[-328,192],[-445,199],[-119,119],[-232,104],[-479,174],[-112,-57],[-91,-45],[3,-70],[64,-109],[-72,-22],[141,-142],[97,-171],[6,-95],[54,-32],[-75,-203],[35,-16],[48,-254],[-376,-170],[17,-110],[-232,184],[-196,-183],[-760,-302],[185,138],[-125,-46],[-62,-70],[-81,43],[63,237],[78,-9],[22,17],[-79,95],[36,47],[-42,29],[-79,-16],[-78,45],[-29,-20],[-19,21],[-186,22],[47,-74],[-90,-116],[-44,4],[-255,-90],[-269,-67],[16,235],[-371,-23],[-262,24],[-286,-14],[-387,-75],[-114,-5],[-2,-2]],[[13130,73690],[-14,7],[-71,23],[-111,64],[-170,82],[-585,-34],[-8,8],[-8,-2],[-44,63],[-497,567],[-80,57],[-355,162],[-135,33],[-109,128],[-236,306],[-21,85],[128,137],[-4,140],[-106,91],[9,5],[3,1],[-45,191],[-17,29],[145,38],[82,60],[-141,180],[-140,290],[-14,46],[-65,208],[7,0],[-1,2],[-40,191],[-14,24],[8,6],[6,4],[96,68],[158,60],[101,50],[46,29],[5,-3],[5,2],[205,61],[21,17],[10,-5],[10,-5],[187,-5],[6,8],[15,-9],[220,-9],[3,9],[299,-2],[-104,127],[9,3],[270,103],[124,73],[46,29],[-60,89],[171,64],[285,42],[132,-6],[140,23],[36,10],[-13,38],[147,2],[75,26],[2,-40],[67,-13],[3,-42],[34,-34],[150,82],[51,59],[13,-2],[33,-4],[13,8],[457,189],[389,179],[112,46],[226,46],[-118,436],[9,2],[268,68],[-16,81],[-43,48],[22,6],[-5,15],[809,170],[-100,176],[26,43],[-66,106],[-8,21],[-50,131],[-64,53],[-27,49],[52,150],[-81,97],[-98,48],[32,31],[-1,1],[-9,21],[-72,35],[-6,32],[200,92],[272,197],[172,66],[37,4],[167,120],[-4,13],[-26,26],[16,6],[-32,109],[-19,28],[10,6],[118,82],[-10,58],[244,27],[19,9],[-7,32],[243,97],[16,-10],[128,61],[0,5],[1,51],[-113,153],[308,83],[-247,418],[-60,153],[-25,21],[-146,95],[-174,163],[-94,88],[-43,37],[-280,192],[-14,29],[-77,-29],[-8,-9],[-10,3],[-241,71],[-48,1],[-91,2],[-132,363],[-50,-3],[-10,27],[-43,-2],[-182,142],[23,14],[13,18],[36,119],[219,202],[15,19],[0,2],[-23,66],[12,96],[-1,25],[8,28],[8,60],[37,88],[20,63],[17,23],[4,9],[8,20],[73,120],[65,105],[278,327],[75,12],[412,123],[72,22],[5,2],[5,2],[315,218],[11,127],[-7,57],[12,6],[33,14],[607,212],[751,186],[281,37],[137,18],[6,-36],[20,-50],[5,3],[23,47],[57,45],[209,90],[256,160],[35,60],[29,69],[10,92],[23,213],[-40,266],[8,242],[-106,648],[236,400],[120,299],[125,153],[173,281],[41,79],[324,249],[-20,267],[72,203],[44,124],[-35,499],[32,143],[-3,270],[668,500],[30,31],[102,35],[134,56],[100,57],[224,76],[238,98],[391,161],[18,15],[96,130],[366,158],[8,-1],[22,-5],[4,2],[364,-41],[158,62],[136,53],[256,111],[115,34],[737,288],[157,81],[75,10],[210,28],[124,29],[155,36],[13,-16],[255,29],[810,246],[3,0],[-4,7],[-8,14],[99,21],[211,-8],[212,22],[107,-19],[296,8],[508,142],[-36,63],[5,5],[27,34],[83,16],[630,-11],[167,38],[37,13],[-3,10],[-102,176],[-80,206],[-162,626],[6,8],[347,495],[-3,25],[-81,394],[-28,65],[-35,195],[50,181],[80,126],[-316,97],[7,40],[-76,78],[-2,1],[1,0],[572,264],[13,-17],[22,9],[108,2],[200,57],[123,83],[95,114],[-10,37],[-348,382],[-139,367],[-180,-24],[23,73],[243,358],[37,130],[10,867],[-72,187],[178,58],[410,-28],[142,75],[157,199],[41,21],[127,1],[1660,55],[462,16],[1382,46],[387,61],[817,261],[42,6],[382,81],[12,3],[30,9],[208,117],[270,100],[70,81],[38,16],[12,5],[133,24],[187,44],[202,82],[328,47],[1,-4],[20,5],[84,-248],[179,-529],[35,-76],[25,-27],[212,-470],[1,-9],[49,-270],[2,-9],[-1,-7],[24,-426],[15,-279],[86,-97],[106,-120],[86,-69],[200,-107],[155,-83],[16,-8],[24,-6],[254,-183],[353,-158],[390,-105],[254,-126],[61,-15],[9,13],[119,-25],[456,-93],[635,-228],[210,-109],[41,-7],[578,-76],[87,17],[91,-36],[2,-5],[14,-2],[133,34],[119,30],[41,10],[214,100],[141,65],[78,53],[129,132],[61,-1],[-2,26],[34,-2],[125,76],[274,12],[22,-16],[2,0],[326,-70],[49,13],[158,-52],[11,-4],[-10,52],[-7,18],[-7,19],[10,184],[60,196],[145,165],[23,118],[-5,168],[-16,100],[-165,549],[37,59],[-4,19],[17,263],[-16,31],[522,144],[36,4],[84,8],[96,9],[201,-53],[4,-4],[26,-4],[472,-180],[46,4],[110,-63],[3,-1],[72,6],[5,-36],[17,-6],[85,1],[3,2],[1,-1],[3,-1],[27,0],[301,4],[141,9],[103,43],[32,20],[28,6],[162,68],[11,0],[25,13],[49,-13],[51,0],[27,0],[5,1],[2,-1],[173,-1],[1031,-474],[16,-7],[1133,-510],[78,-207],[-369,-410],[-84,-143],[-180,-175],[-45,-78],[-2,-13],[3,-11],[21,-69],[105,4],[53,-22],[19,-2],[18,-2],[111,-40],[45,-47],[166,-122],[172,-209],[103,4],[1,-28],[38,6],[50,-53],[83,-4],[81,-31],[18,26],[60,-21],[105,-129],[18,11],[73,-35],[1,-1],[-95,-48],[-16,-2],[-22,-10],[-365,-76],[-2,0],[-1,-1],[-537,-295],[-21,-56],[-18,-48],[-12,-183],[-2,-40],[-185,-4],[-30,-22],[-23,-17],[-12,-29],[-40,-151],[-66,-108],[-22,-54],[-62,-301],[-99,-146],[-72,-58],[-11,-249],[28,-19],[57,15],[123,30],[241,3],[40,24],[17,-27],[229,-7],[32,-17],[44,-1],[32,5],[15,-5],[120,-2],[20,20],[88,1],[101,-65],[103,-11],[-5,-26],[207,-117],[103,3],[224,-99],[143,-168],[122,-69],[90,-131],[351,-227],[94,10],[71,-28],[166,26],[5,41],[88,28],[77,-14],[56,-35],[36,43],[64,-35],[62,-2],[12,-205],[0,0],[0,0],[-39,-89],[-38,-86],[-19,-189],[0,-1],[0,-2],[-3,-7],[0,-1],[-82,-192],[-57,-61],[0,0],[0,0],[-163,-79],[0,0],[0,0],[-1,0],[-30,-8],[-44,-4],[-2,0],[-165,-27],[-73,-25],[-91,-40],[-50,-20],[-17,-7],[-33,-13],[-28,-5],[-31,-12],[-84,-56],[-27,-70],[-5,-137],[-46,-122],[-28,-134],[-44,-134],[-17,-67],[-16,-67],[28,-69],[59,-102],[40,-51],[114,-72],[17,-8],[121,-23],[64,-12],[347,-4],[40,-18],[0,0],[0,0],[12,-18],[19,-15],[-11,-63],[-59,-92],[-75,-105],[-77,-88],[-120,-103],[-85,-120],[-90,-124],[3,-98],[12,-73],[46,-76],[71,-56],[139,-48],[92,-35],[106,-55],[30,-35],[0,-1],[1,-1],[37,-45],[51,-68],[-2,-22],[3,-5],[0,0],[0,0],[-18,-53],[-217,-84],[-195,-7],[-128,37],[-147,4],[-75,-19],[-105,-27],[-92,-23],[-134,-42],[-100,-66],[-35,-56],[-19,-99],[3,-101],[21,-92],[22,-54],[62,-102],[153,-224],[87,-97],[83,-55],[114,-27],[162,3],[80,-2],[6,1],[29,3],[20,-3],[24,-8],[0,0],[68,-86],[17,-86],[0,0],[0,-1],[-10,-37],[0,0],[-1,-17],[-67,-69],[-103,-35],[-133,-21],[-118,7],[-108,19],[-99,11],[-78,36],[-113,11],[-158,20],[-103,31],[-89,51],[-95,-4],[-152,-45],[-79,-62],[-76,-89],[-68,-119],[-34,-126],[-25,-107],[11,-124],[2,-93],[26,-108],[-14,-94],[16,-120],[24,-58],[15,-22],[14,-21],[73,-65],[90,-74],[29,-29],[37,-31],[0,0],[6,-14],[7,-24],[-3,-18],[2,-10],[-7,-117],[-13,-109],[-35,-111],[-47,-103],[-65,-92],[-85,-113],[-120,-98],[-73,-62],[-50,-76],[1,-70],[-67,-69],[-102,-47],[-75,-46],[-17,-63],[62,-71],[92,-86],[78,-51],[49,-15],[43,-26],[1,0],[48,-15],[65,2],[79,3],[97,16],[74,47],[14,14],[21,42],[19,90],[13,61],[55,93],[105,175],[0,0],[57,40],[133,42],[0,0],[190,-164],[262,-165],[78,-163],[-150,-125],[-151,-78],[-103,-113],[-260,-106],[-336,-172],[-52,-242],[-6,-251],[-59,-76],[-188,-41],[-83,1],[-95,29],[0,1],[-175,119],[-61,21],[-101,4],[-61,-14],[-58,-41],[-7,-44],[23,-125],[1,-34],[0,0],[9,-39],[-201,-425],[-10,-109],[125,-214],[117,-89],[322,-111],[129,-44],[83,17],[148,-6],[85,47],[49,92],[-7,205],[-36,62],[0,1],[39,91],[163,42],[164,-25],[89,-53],[25,-64],[-19,-150],[-195,-330],[-5,-8],[-7,-5],[-65,-73],[-69,-104],[4,-113],[25,-96],[69,-83],[104,-53],[35,-14],[42,-17],[60,-19],[18,-7],[19,-7],[1,-1],[110,-53],[82,-105],[77,-128],[97,-149],[95,-125],[115,-112],[111,-124],[145,-126],[132,-100],[87,-105],[105,-163],[71,-130],[18,-54],[0,0],[9,-20],[6,-11],[3,-8],[13,-48],[1,-5],[-13,-34],[-1,-9],[0,-29],[-1,-6],[-1,-4],[-1,0],[0,-4],[-32,-45],[-14,-27],[-105,-148],[-75,-97],[-22,-75],[-10,-85],[-1,-29],[-6,-45],[-1,-15],[-5,-14],[-5,-14],[-1,-6],[-5,-6],[-2,-4],[-2,-2],[-3,-15],[-83,-85],[-91,-109],[-78,-128],[-47,-107],[-2,-105],[5,-63],[18,-53],[4,-8],[50,-64],[118,-69],[350,-173],[96,-50],[24,-8],[39,-17],[84,-23],[114,-31],[95,-62],[104,-46],[117,-62],[144,-48],[125,-30],[147,-14],[104,-38],[106,-70],[147,-109],[30,-27],[1,0],[2,-2],[24,-21],[-1,-5],[3,-4],[5,-11],[3,-9],[2,-8],[-2,-8],[-2,-7],[-1,-1],[1,-1],[0,-3],[-65,-103],[-160,-168],[-146,-112],[-9,-7],[-255,-195],[-168,-56],[-179,-190],[-110,-58],[-3,-1],[-3,-2],[-122,7],[-59,31],[-36,19],[-62,33],[-10,13],[-221,296],[-22,13],[-87,52],[-84,22],[-100,-4],[-76,-23],[-58,-45],[-16,-71],[37,-49],[129,-69],[150,-118],[149,-111],[138,-107],[103,-97],[85,-82],[82,-110],[21,-27],[5,-3],[7,-6],[19,-22],[30,-43],[16,-23],[3,-4],[12,-16],[4,-4],[1,-1],[91,-72],[95,-49],[4,-2],[21,-6],[23,-6],[92,-16],[5,-1],[30,-1],[27,-1],[34,-2],[31,-3],[16,-2],[15,-2],[64,-8],[13,-1],[5,0],[80,-4],[55,-1],[20,-1],[31,-2],[66,-6],[16,-1],[133,-8],[144,6],[60,2],[35,5],[47,3],[17,-1],[22,-2],[15,-4],[2,0],[4,-1],[1,0],[13,-6],[7,-4],[6,-6],[5,-7],[6,-10],[7,-7],[44,-32],[52,-54],[23,-17],[14,-11],[24,-25],[6,-9],[7,-13],[2,-7],[0,-7],[-1,-4],[1,-1],[-2,-17],[4,-55],[-19,-102],[-20,-157],[-166,-213],[-99,-152],[-64,-104],[-21,-75],[-3,-93],[-3,-98],[-35,-114],[-61,-135],[-65,-88],[-27,-20],[0,0],[-3,-2],[-1,-2],[-8,-10],[-5,-1],[-5,-1],[-73,-10],[-9,1],[-43,8],[-37,7],[-34,19],[-2,1],[-116,65],[-14,14],[-75,52],[-191,86],[-58,17],[-50,-2],[-42,-29],[-124,-111],[-19,-47],[22,-62],[92,-89],[94,-129],[96,-78],[34,-29],[12,-8],[12,-9],[9,-7],[13,-12],[24,-23],[11,-13],[25,-18],[64,-40],[32,-9],[49,-8],[45,-8],[29,0],[47,2],[23,1],[34,2],[36,3],[41,3],[92,11],[39,5],[36,4],[36,2],[23,1],[30,0],[0,0],[15,1],[28,-3],[6,0],[24,-3],[16,-2],[21,-3],[0,0],[29,-3],[282,-63],[1,0],[8,0],[9,0],[10,-2],[16,-5],[23,-7],[10,-4],[18,-7],[1,0],[4,-2],[1,-1],[5,-3],[2,-2],[6,-12],[0,0],[42,-57],[70,-99],[79,-144],[140,-317],[2,-2],[6,-4],[12,-9],[27,-19],[5,-3],[22,-14],[29,-19],[25,-16],[8,-7],[86,-37],[98,-55],[62,-69],[93,-61],[109,-18],[117,-8],[144,-7],[3,1],[1,0],[22,6],[17,4],[20,3],[34,4],[23,2],[19,2],[31,5],[131,5],[128,-21],[178,-41],[26,-7],[10,-3],[18,-3],[33,-6],[27,-6],[22,-7],[19,-7],[23,-11],[7,-5],[6,-2],[38,-13],[243,-84],[80,12],[219,-52],[165,-91],[21,-61],[-24,-29],[-110,5],[-6,6],[-1,1],[-2,0],[-6,3],[-48,3],[-133,29],[-60,-19],[-48,-84],[-35,-96],[7,-160],[-12,-78],[-31,-35],[-2,-3],[-1,-1],[-17,-19],[-104,-82],[-54,-88],[-47,-101],[1,-91],[-12,-36],[-3,-44],[-14,-28],[0,-1],[-17,-34],[-12,-23]],[[38310,51466],[-396,-218],[-405,253],[-87,-34],[-26,153],[84,191],[23,236],[58,165],[-66,-8],[-895,-192],[44,-80],[408,-450],[27,-50],[-74,-67],[-374,72],[-144,89],[-211,-172],[-126,228],[-154,24],[-434,-14],[-72,-153],[-305,-51],[-143,-95],[-16,12],[-114,-52],[-328,-192],[-271,-41],[-35,16],[-304,-4],[-46,-96],[29,-41],[-231,-82],[-175,-151],[-264,-87],[43,-102],[-774,-57],[-575,-13],[-223,-77],[-161,-22],[-128,-82],[-115,41],[-107,-63],[-117,80],[-86,-47],[-123,96],[77,43],[-368,240],[57,47],[165,69],[106,130],[-64,34],[167,160],[241,131],[-126,174],[34,84],[-170,-53],[-194,266],[125,42],[-147,302],[-184,25],[-117,-9],[-61,139],[-116,77],[197,220],[-187,99],[38,51],[-7,171],[28,86],[-85,28],[-45,220],[-30,-13],[-108,18],[-59,80],[-194,93],[39,40],[-127,101],[83,102],[-23,36],[-139,84],[-198,81],[-42,60],[119,186],[30,146],[277,-15],[95,230],[278,-51],[271,-89],[9,17],[232,-20],[189,6],[-3,-35],[173,-52],[143,17],[11,46],[37,-8],[29,37],[71,-2],[52,-56],[7,-66],[45,-1],[3,47],[82,6],[-18,86],[21,78],[-49,123],[-27,4],[-28,111],[-231,315],[-268,216],[23,59]],[[31060,55122],[70,42],[-168,78],[78,70],[-134,175],[-26,78],[132,10],[560,148],[-13,87],[-64,79],[57,49],[-54,189],[28,120],[-25,70],[-46,39],[75,43],[-122,76],[291,-30],[291,-188],[60,54],[72,10],[122,61],[173,10],[81,28],[-58,113],[519,244],[-259,156],[-154,260],[-12,77],[-110,139],[202,66],[169,273],[-47,96],[-388,-19],[-79,56],[4,138],[148,108],[2,64],[120,110],[-148,125],[363,137],[105,71],[140,-289],[191,-80],[233,109],[199,178],[-160,31],[-89,-3],[-11,37],[44,36],[217,27],[133,-16],[96,23],[241,-22],[74,39],[145,25],[145,-2],[36,-42],[67,11],[49,94],[107,-51],[46,10],[1,59],[0,70],[-82,7],[-14,68],[54,77],[189,163],[29,64],[23,-1],[-35,154],[18,256],[-84,97],[-73,162],[36,8],[82,189],[-20,75],[-100,152],[302,79],[-328,84],[-113,97],[568,69],[-7,102],[-211,4],[-11,251],[72,179],[193,59],[160,134],[126,70],[142,48],[95,3],[-2,15],[-62,173],[-240,136],[-181,59],[108,119],[285,201],[242,477],[-360,93],[-12,29],[45,67],[174,151],[81,37],[53,120],[31,152],[-125,173],[228,157],[108,14],[278,-38],[232,2],[27,30],[217,97],[370,257],[336,125],[185,16],[147,71],[28,-95],[63,-49],[103,26],[72,102],[4,184],[-32,172],[-154,301],[154,163],[86,18],[123,-17],[687,-158],[159,-66],[163,-124],[15,114],[-210,566],[-52,54],[-409,208],[-39,53],[11,148],[80,106],[1,66],[-60,66],[-289,71],[-68,75],[-18,244],[53,78],[-12,51],[92,60],[30,69],[-68,24],[-198,-17],[-226,68],[-74,157],[-61,287],[-54,88],[10,199],[154,163],[83,68],[103,45],[111,106]],[[44249,66179],[144,-162],[104,-86],[68,-27],[76,1],[94,38],[185,-32],[163,44],[93,-44],[30,-80],[-59,-43],[-88,-26],[8,-30],[27,0],[23,-84],[-26,-47],[33,-133],[204,-221],[-92,-64],[-12,-60],[60,-96],[-9,-133],[38,-54],[70,-29],[222,19],[126,-24],[171,-138],[149,-70],[314,-62],[89,-54],[23,15],[53,-10],[144,-64],[157,-28],[79,-66],[0,-114],[312,-123],[143,-27],[110,23],[293,-2],[133,13],[60,36],[142,-77],[64,-67],[-17,-7],[30,-50],[-209,49],[-45,31],[-78,-57],[-101,-6],[-55,-73],[-155,-27],[-36,-90],[60,-5],[28,-22],[106,-271],[37,-252],[63,-5],[14,-94],[-287,28],[-46,-230],[-49,-39],[-85,-27],[-116,0],[-113,26],[-108,52],[-47,56],[-66,-30],[181,-96],[130,-110],[-29,-2],[192,-127],[17,39],[227,14],[232,67],[188,26],[122,-18],[78,-151],[-174,-156],[-23,-67],[-72,-74],[351,-247],[236,-112],[188,-48],[190,-21],[311,25],[349,-16],[148,14],[66,-57],[-156,-206],[18,-19],[-436,-299],[41,-30],[-69,-66],[-102,-232],[-77,-104],[46,-29],[-40,-47],[53,-209],[198,33],[97,66],[102,-22],[75,91],[103,2],[43,-29],[94,243],[148,117],[215,122],[58,97],[62,32],[138,-100],[343,-116],[234,-144],[229,-29],[199,53],[225,-385],[-202,-54],[12,-32],[-109,-21],[-83,-54],[-99,44],[-259,1],[-311,-83],[-28,-69],[119,17],[28,-88],[209,-14],[155,-74],[121,-12],[2,-25],[496,134],[15,-66],[171,-128],[163,-92],[119,-33],[141,-96],[184,-258],[296,-285],[22,-16],[54,20],[331,-139],[-51,-68],[136,-43],[161,-16],[105,-43],[258,50],[107,-12],[20,59],[80,-25],[112,-61],[-45,-39],[221,-154],[218,-126],[235,-91],[239,-151],[33,30],[172,-62],[75,-54],[172,-13],[-11,-241],[157,1],[-11,-185],[288,29],[95,-199],[-91,-27],[610,106],[221,-185],[168,-37],[81,-101],[167,13],[-47,44],[-107,94],[-21,75],[136,84],[65,151],[35,7],[-5,33],[-283,738],[59,-19],[38,12],[147,179],[31,56],[-10,163],[48,122],[308,470],[143,-55],[-42,-58],[583,-244],[188,232],[35,-13],[281,304],[251,-53],[115,93],[257,-53],[124,-52],[236,181],[882,533],[171,31],[397,-48],[319,-6],[184,-32],[364,12],[314,429],[69,133],[91,108],[257,87],[44,77],[67,36],[10,14]],[[62844,61418],[118,-76],[110,-90],[209,-175],[63,-30],[73,-36],[179,-40],[211,-31],[83,-5],[167,-7],[128,-4],[77,-36],[52,-59],[124,-194],[200,-165],[87,-259],[698,-355],[229,-222],[145,-389],[104,-82],[133,-65],[71,-71],[27,-89],[441,-124],[172,-77],[106,-12],[105,-15],[251,-81],[374,-222],[338,-56],[271,98],[259,165],[168,21],[170,-28],[341,-381],[143,-102],[75,-17],[132,27],[179,-1],[234,-83],[38,-65],[-49,-174],[19,-182],[181,-308],[197,-205],[164,-128],[160,-72],[138,-10],[201,21],[144,42],[544,297],[263,114],[251,45],[156,-11],[140,-92],[151,-145],[94,-133],[41,-117],[38,-181],[-113,-378],[22,-167],[69,-137]],[[72740,56064],[-841,-358],[223,-316],[67,-137],[-11,-185],[98,-334],[-6,-314],[-256,-6],[-205,-34],[-138,-102],[-32,-52],[-54,-14],[-283,73],[-369,203],[-197,33],[-148,-7],[-120,-52],[-344,-86],[-157,24],[-322,8],[-306,-77],[-127,-14],[-891,114],[-262,61],[-752,100],[-178,16],[-106,-88],[-235,-144],[27,-22],[-533,-311],[445,-436],[264,-81],[382,-19],[-2110,-1491],[127,-904],[566,-161],[703,-159],[500,-11],[55,36],[30,-6],[-87,-75],[10,-108],[-70,-62],[-7,-48],[-78,-87],[35,-158],[-13,-65],[32,-11],[-65,-69],[-123,-65],[-4,-35],[-109,-55],[-271,24],[-105,-17],[107,-159],[2,-68],[-79,-83],[-200,-64],[83,-94],[69,4],[27,-59],[-771,-126],[17,-36],[-406,53],[-12,22],[-202,-51],[222,-247],[496,-769],[-197,-96],[-146,-133],[-196,-106],[24,-60],[-1196,-476],[-31,-89],[-38,-368],[118,-107],[748,-539],[-83,-38],[179,-306],[-36,-9],[-35,44],[-358,-93]],[[19017,35573],[-246,133],[-57,46],[-110,88],[21,8],[-35,34],[-13,12],[-14,12],[-99,36],[-126,146],[-453,215],[-243,75],[-151,76],[0,55],[-73,160],[-13,14],[307,94],[-147,187],[-50,130],[9,25],[19,8],[3,1],[-1,145],[-1,3],[-5,7],[-203,-33],[-358,2],[-52,128],[13,80],[-13,43],[0,1],[-90,43],[9,22],[-70,63],[-270,204],[-18,37],[-71,31],[-39,4],[-55,36],[-13,6],[-462,-79],[-69,45],[-112,71],[-33,20],[-45,-23],[-7,-6],[-6,-2],[-1,0],[-252,-134],[-43,-23],[-210,-111],[-28,-5],[-27,-4],[-88,-38],[-340,-38],[-40,-10],[-864,-400],[-16,1],[-11,-5],[-197,-11],[-226,29],[-245,109],[-112,80],[-11,6],[-2,4],[-18,13],[8,11],[-14,36],[-32,80],[-257,49],[-24,25],[-74,-11],[0,-35],[-29,-13],[-374,56],[-14,3],[-6,-1],[-426,-110],[-205,-19],[-13,14],[-7,-2],[-13,22],[-129,135],[-86,176],[25,9],[-2,4],[136,55],[152,62],[3,19],[-35,159],[61,61],[13,12],[1,6],[-131,212],[-91,211],[8,2],[6,2],[-5,10],[213,68],[126,121],[-150,747],[99,47],[282,169],[264,96],[-71,99],[-26,35],[-92,127],[-29,25],[4,9],[133,244],[120,229],[-66,102],[-131,127],[-29,81],[-24,36],[-50,21],[-150,64],[-74,12],[-193,-41],[-274,-59],[-66,-18],[-11,2],[-1,0],[-114,19],[-139,140],[-183,105],[6,33],[-5,260],[-85,37],[-244,38],[2,31],[-25,109],[-30,132],[-100,278],[-63,429],[-33,143],[-584,416],[-198,8],[-26,0],[-104,230],[1,91],[-2,6],[-54,98],[-67,415],[-24,59],[-207,277],[-71,82],[-74,112],[-95,127],[-35,21],[-6,4],[-65,27],[-387,129],[-61,42],[-34,133],[-11,31],[-30,132],[-60,238],[-126,126],[-101,82],[-247,163],[-28,51],[-296,272],[-19,18],[-38,96],[18,73],[192,299],[-156,298],[-146,253],[-78,134],[-156,105],[-47,24],[-69,-2],[-88,-11],[-64,-8],[-14,12],[-53,-12],[-153,-50],[-30,-105],[-188,-182],[-122,-93],[-51,-12],[-11,-14],[-77,-107],[-115,58],[-112,56],[-175,88],[-71,74],[-48,29],[-3,1],[-12,5],[-34,4],[-210,-12],[-97,-5],[-84,-25],[-192,-129],[-60,-18],[-60,67],[-151,46],[-23,-23],[-61,49],[-96,-29],[-307,-90],[-221,-24],[-34,1],[-5,-3],[-2,3],[-176,4],[-158,-41],[0,-3],[-170,-42],[-513,-134],[-75,-20],[-8,8],[-20,-5],[-9,35],[-122,126],[0,0],[-99,104],[-30,-1],[16,113],[-16,258],[9,11],[-1,1],[0,2],[47,66],[-80,33],[-239,1198],[-80,68],[52,88],[-1,3],[-9,28],[-41,7],[13,81],[-51,165],[0,2],[-4,9],[4,1],[-3,93],[-3,123],[-4,172],[-4,5],[108,28],[-40,57],[40,85],[13,26],[-15,23],[28,30],[3,50],[6,83],[-172,20],[-329,37],[-10,18],[-4,7],[-95,53],[-74,186],[-201,291],[-74,193],[2,57],[493,258],[44,38],[44,38],[16,121],[-148,116],[-92,113],[-56,255],[-161,246],[-107,224],[-572,292],[56,81],[40,168],[-1,6],[6,54],[-40,77],[35,53],[53,80],[52,148],[18,53],[201,79],[170,17],[207,-109],[257,-34],[16,4],[189,41],[105,75],[42,128],[-48,91],[-117,71],[-27,68],[-33,36],[-26,188],[-11,66],[11,30],[-3,25],[11,134],[-26,84],[114,111],[149,35],[145,-4],[102,-131],[17,-44],[75,-86],[115,-37],[190,4],[93,26],[145,55],[67,49],[12,10],[24,22],[37,298],[-16,43],[-28,71],[-278,228],[-104,85],[-129,25],[-24,2],[-38,-5],[-167,-36],[-55,14],[-117,-3],[-10,-6],[-123,-19],[-16,9],[-93,-11],[-138,75],[-47,-3],[-41,-16],[-144,72],[-36,158],[25,64],[47,29],[80,21],[22,6],[99,26],[140,0],[155,-29],[99,52],[47,10],[58,44],[198,101],[144,92],[242,-27],[57,-46],[54,-13],[155,-7],[87,6],[139,48],[8,6],[-8,90],[-116,93],[-187,92],[-79,30],[-63,82],[-30,119],[-131,77],[-18,15],[0,0],[0,0],[-55,43],[-12,81],[-42,35],[14,80],[183,204],[62,79],[25,92],[-118,226],[-156,87],[-186,68],[-58,112],[12,17],[76,107],[6,38],[15,92],[5,7],[9,55],[36,39],[-5,64],[112,64],[27,16],[178,101],[150,-32],[135,-28],[322,-247],[19,-64],[110,-96],[212,-35],[223,7],[193,58],[111,109],[68,116],[7,11],[17,68],[51,37],[147,-24],[136,-67],[63,-65],[214,-517],[96,-40],[68,65],[48,138],[5,28],[48,161],[56,86],[19,19],[1,7],[11,5],[106,106],[1,0],[15,38],[121,25],[159,2],[60,-9],[320,-46],[2,0],[104,66],[25,65],[-13,13],[-33,32],[-230,78],[-306,105],[-75,72],[-11,32],[-41,41],[-16,61],[135,150],[145,-14],[134,-94],[153,-86]],[[5893,58220],[35,-43],[262,-154],[279,-101],[106,-6],[121,30],[357,192],[69,61],[-43,211],[12,109],[-39,135],[19,43],[161,149],[76,42],[79,5],[137,-47],[46,-33],[114,-174],[51,-195],[-32,-104],[-161,-290],[-51,-171],[-1,-125],[53,-34],[369,-54],[170,-50],[100,-77],[-39,-81],[3,-72],[79,16],[243,157],[217,-4],[143,-40],[65,-80],[-26,-124],[-197,-246],[-205,-125],[-149,-273],[71,-81],[152,-34],[153,22],[157,105],[8,183],[30,78],[54,72],[100,41],[35,126],[389,71],[185,2],[1010,-132],[92,-19],[386,-154],[293,87],[339,135],[288,218],[78,22],[248,7],[89,69],[56,17],[186,3],[78,70],[154,275],[21,97],[135,93],[109,27],[142,2],[205,-141],[78,-18],[132,47],[115,119],[22,67],[-26,110],[-284,319],[-85,51],[-344,61],[2,175],[65,22],[-115,243],[-141,123],[141,74],[180,136],[199,-100],[379,-123],[124,-19],[207,15],[34,-123],[305,29],[389,144],[-48,124],[-54,9],[176,36],[-108,290],[138,33],[-32,10],[-53,78],[273,124],[360,-39],[225,-87],[91,-65],[75,-13],[41,-2],[461,135],[-229,-251],[-235,-164],[202,-290],[77,-161],[187,-129],[199,-39],[111,-45],[-104,161],[38,9],[124,-171],[325,90],[18,-30],[-231,-63],[103,-265],[111,-156],[-121,-71],[43,-149],[219,4],[-34,59],[11,100],[148,88],[-17,15],[111,80],[227,-318],[405,-278],[-198,-112],[-62,2],[56,-76],[-133,-87],[54,-251],[32,-278],[122,-179],[-80,-145],[103,-97],[179,-99],[18,14],[118,-10],[94,35],[321,191],[118,9],[121,43],[175,124],[-75,243],[43,88],[96,107],[36,21],[85,-45],[319,-10],[8,27],[153,67],[-17,12],[150,104],[-50,43],[417,244],[-93,99],[-18,64],[-62,45],[-61,14],[-295,-29],[179,195],[-123,66],[196,181],[-99,59],[-297,109],[71,74],[20,64],[-41,109],[10,67],[184,332],[51,49],[144,-57],[258,232],[-119,101],[11,15],[211,135],[91,96],[43,-21],[114,-107],[180,-52],[55,-137],[182,-186],[25,-292],[37,-32],[160,-54],[108,-73],[43,-61],[-5,-19],[-52,23],[-25,-15],[27,-54],[-19,-74],[34,-71],[96,60],[138,-16],[86,-159],[52,-196],[167,-86],[-30,-45],[222,-181],[-24,-16],[88,-59],[122,-32],[1,-24],[-108,21],[6,-81],[150,-285],[331,-35],[-72,-42],[-84,20],[26,-29],[-34,-65],[90,-327],[-7,-97],[92,-18],[119,31],[179,13],[59,-81],[115,-77],[-47,-109],[59,-111],[-37,-29],[-340,50],[-315,-14],[-109,63],[-134,-78],[-157,-57],[-292,-204],[-43,-99],[17,-71],[65,-59],[42,-20],[42,29],[49,-27],[291,-255],[45,-17],[164,109],[294,115],[53,136],[185,92],[286,-72],[420,-308],[-9,-12],[21,-15],[168,117],[206,490],[97,127],[155,100],[54,103],[42,-13],[71,143],[55,37],[68,-37],[176,104],[339,363],[87,-11],[147,42],[445,-45],[433,63],[248,-23],[223,-84],[153,-100],[514,-77],[96,-33],[219,-159],[-16,-32],[44,-49],[88,-28],[55,23],[126,-10],[3,-29],[177,-1],[51,-41],[90,-29],[121,-6],[10,68],[119,-22],[44,80],[13,-58],[121,-159],[-16,-18],[137,-282],[82,-92],[36,-147],[109,-66],[203,-61],[119,-12],[276,64],[224,28],[70,27],[-18,-29],[110,-78],[64,-85],[22,-88],[-79,-11],[64,-176],[136,-101],[50,-93],[19,-85],[-32,-34],[-76,-10],[206,-88],[98,-148],[128,-93],[133,-38],[126,74]],[[5893,58220],[25,14],[7,4],[5,11],[81,193],[8,23],[-13,91],[-4,29],[-18,51],[-58,56],[-230,90],[-33,44],[-66,13],[-30,46],[-34,17],[-105,52],[-21,78],[-35,-5],[-46,58],[35,100],[-18,82],[30,6],[-63,57],[-274,54],[-234,18],[-187,44],[-85,58],[-72,142],[-30,44],[-3,4],[-46,42],[3,22],[-4,7],[-45,0],[-24,-16],[-169,0],[-160,45],[-97,93],[-101,36],[-82,-26],[-24,24],[-197,2],[-401,140],[-358,26],[-15,24],[-37,3],[-20,20],[-20,0],[-101,106],[6,6],[-3,4],[-24,23],[-175,64],[-131,20],[-21,1],[-7,-20],[-131,-3],[-190,31],[-41,15],[-281,104],[-50,47],[17,11],[-104,82],[-3,33],[-32,7],[7,32],[-19,29],[-3,3],[-149,12],[-297,111],[-87,6],[-168,1],[-132,-19],[-135,103],[-273,124],[-101,31],[8,11],[-2,1],[21,25],[97,134],[-47,94],[-22,27],[45,54],[139,209],[164,103],[82,26],[33,15],[82,40],[3,25],[5,51],[-5,43],[-90,109],[13,27],[313,109],[40,8],[216,77],[40,28],[118,49],[86,12],[36,12],[-62,177],[-11,16],[15,8],[41,57],[-2,3],[5,1],[3,5],[197,149],[-3,2],[9,5],[618,341],[1066,372],[267,94],[41,49],[-387,205],[-58,4],[28,17],[36,147],[53,42],[41,123],[8,22],[28,137],[-9,199],[8,43],[-11,58],[-30,21],[61,26],[176,486],[-15,1],[-3,49],[19,37],[19,35],[16,9],[19,10],[-12,46],[-34,61],[24,174],[9,65],[-38,63],[54,6],[-10,49],[39,-4],[226,-20],[242,24],[118,26],[146,0],[106,10],[-37,63],[-26,43],[-27,31],[-54,52],[7,2],[-7,9],[93,434],[-11,40],[262,8],[1,58],[51,7],[8,22],[15,46],[257,2],[-36,102],[-82,268],[-41,135],[-265,413],[71,15],[113,25],[-9,15],[-58,99],[13,124],[-186,-53],[-122,471],[69,35],[28,54],[17,32],[-1,2],[-10,17],[42,41],[32,31],[50,49],[221,109],[138,113],[-2,4],[-71,67],[22,19],[-12,63],[8,8],[0,0],[-86,255],[-29,42],[189,95],[16,-16],[240,91],[-194,232],[-81,182],[256,94],[430,170],[253,-65],[102,-26],[1,-1],[9,6],[124,-89],[45,20],[113,-83],[25,3],[155,25],[81,12],[146,23],[52,15],[241,32],[16,68],[-35,66],[-12,150],[93,31],[527,225],[514,-348],[49,-33],[94,3],[7,0],[249,57],[141,-38],[282,-76],[56,-15],[263,125],[74,35],[61,29],[54,34],[-2,2],[-21,20],[13,26],[-40,15],[55,52],[41,123],[-37,19],[-124,227],[46,50],[104,252],[-47,110],[237,199],[103,60],[257,-6],[27,-16],[99,-2],[81,25],[234,-35],[133,-4],[74,101],[20,46],[-11,21],[-18,35],[469,201],[65,-2],[420,109],[152,-14],[44,0],[127,-2],[48,21],[216,168],[125,161],[50,-25],[425,330],[24,23],[98,200],[22,-8],[9,15],[72,116],[48,105],[-89,40],[17,227],[-16,52],[45,237],[3,3],[-11,41],[23,55],[110,73]],[[54154,71974],[-31,-55],[-35,-64],[-1,-2],[-4,-6],[-50,-90],[-29,-78],[-42,-118],[-4,-49],[-4,-119],[13,-151],[10,-120],[79,-126],[98,-69],[116,-125],[63,-170],[62,-144],[77,-128],[59,-98],[69,-98],[99,-74],[112,-63],[133,-27],[107,-6],[117,-11],[86,-26],[63,-26],[47,-70],[9,-37],[12,-66],[3,-8],[4,-23],[0,-7],[1,-6],[2,-11],[53,-157],[2,-16],[4,-9],[26,-142],[16,-145],[17,-142],[25,-132],[55,-85],[115,-104],[121,-46],[124,-10],[176,30],[178,66],[214,110],[170,99],[0,0],[11,14],[17,19],[10,10],[7,5],[12,8],[7,4],[15,8],[13,7],[80,46],[42,53],[-32,49],[-69,21],[-142,37],[-127,45],[-47,37],[-22,5],[-5,1],[-181,88],[-15,33],[44,113],[9,109],[0,0],[-7,21],[-52,96],[-107,147],[-36,96],[-2,6],[-13,17],[-3,3],[-72,84],[-4,13],[-2,7],[-11,43],[149,226],[263,237],[114,32],[0,0],[95,10],[172,17],[258,90],[126,14],[0,0],[207,-153],[94,-109],[-90,-373],[30,-142],[178,-234],[32,-211],[1,-8],[8,-56],[0,0],[0,-1],[0,0],[0,0],[0,-30],[-1,-15],[0,-10],[-8,-27],[-4,-17],[-3,-16],[0,0],[-102,-160],[3,-86],[58,-91],[123,-135],[98,-109],[70,-99],[71,-110],[58,-99],[43,-111],[15,-41],[9,-5],[1,0],[17,-3],[7,-2],[5,-2],[2,-4],[4,-7],[0,0],[46,-159],[-68,-125],[0,0],[0,0],[0,-1],[1,-25],[1,-5],[27,1],[2,2],[0,0],[0,0],[37,5],[19,3],[18,15],[1,12],[0,0],[0,0],[130,102],[9,7],[0,0],[0,0],[1,91],[1,149],[110,127],[39,101],[147,95],[99,63],[48,31],[50,35],[64,27],[17,9],[16,8],[25,14],[14,6],[9,2],[25,5],[11,3],[30,9],[37,0],[13,1],[15,-1],[19,0],[5,-1],[8,-1],[33,-7],[44,-9],[44,-13],[52,-19],[5,-1],[139,-28],[0,-3],[1,-26],[1,-71],[1,-7],[0,0],[4,-11],[37,-99],[355,-369],[9,-10],[69,-1],[97,-1],[12,0],[7,0],[79,-1],[82,-1],[84,-1],[80,-1],[164,-2],[108,-1],[44,-1],[40,0],[69,-1],[42,0],[17,0],[54,-1],[48,-1],[13,0],[107,-1],[72,-1],[93,-1],[74,-2],[68,-2],[8,0],[0,0],[-4,-12],[-2,-7],[5,0],[-37,-120],[-7,-3],[-1,-4],[0,0],[-423,-250],[-1,0],[-138,-114],[-57,-47],[0,0],[0,0],[-2,-10],[-13,-57],[-202,-15],[-11,-28],[-1,-4],[-24,-92],[79,-34],[125,-55],[194,-58],[28,-9],[-25,-69],[123,-53],[37,-65],[1,-1],[32,-55],[194,-73],[33,-79],[93,-52],[86,-92],[-19,-81],[26,-17],[86,15],[255,-290],[-263,-159],[0,0],[-206,-157],[-10,-41],[33,-51],[181,-36],[-40,-85],[0,0],[0,0],[0,0],[-3,0],[-56,2],[-3,-16],[-18,-31],[-6,-10],[-17,-25],[-6,-17],[2,-11],[67,3],[4,0],[25,-46],[4,-8],[1,0],[1,-3],[7,-12],[23,-13],[87,-161],[6,-8],[1,-6],[4,-8],[36,-85],[-2,-4],[4,-7],[-13,-52],[0,0],[-13,-14],[-2,-8],[-45,-44],[-21,-14],[-21,-18],[0,0],[-101,-76],[0,0],[-25,1],[-40,13],[-15,4],[-86,-87],[-121,-54],[-140,-57],[-131,-41],[-82,-42],[-13,-8],[-25,-15],[-73,-70],[-43,-85],[-7,-14],[-6,-15],[-11,-90],[25,-76],[70,-50],[109,-28],[153,-40],[163,-41],[308,-52],[136,-21],[168,-6],[182,-5],[70,-7],[72,-26],[50,-50],[133,-144],[95,-136],[77,-149],[71,-185],[68,-137],[18,-50],[2,-2],[6,-13],[6,-10],[1,-2],[6,-11],[8,-15],[5,-10],[0,-1],[0,0],[1,-3],[4,-15],[3,-15],[3,-18],[3,-18],[6,-19],[5,-61],[-10,-46],[-38,-40],[-102,-63],[-76,-47],[-33,-24],[-31,-32],[-27,-9],[-5,-3],[0,-1],[0,0],[-7,-1],[-24,-8],[-74,-3],[-29,2],[-4,0],[-6,0],[-22,2],[0,0],[-3,1],[-20,1],[-203,41],[-85,16],[-46,-9],[-35,-30],[-8,-69],[9,-48],[36,-41],[67,-23],[109,-83],[207,-144],[120,-109],[63,-85],[11,-36],[12,-16],[6,-9],[0,0],[0,0],[3,-7],[1,-3],[-1,-17],[-1,-25],[0,-7],[-3,-2],[-2,-92],[22,-89],[55,-150],[39,-76],[17,-94],[39,-193],[24,-64],[45,-47],[74,-45],[107,-64]],[[72740,56064],[422,-611],[474,-323],[92,-85],[70,-119],[3,-104],[-127,-519],[-185,-253],[-22,-169],[-45,-85],[34,-170],[-14,-175],[39,-109],[175,-193],[23,4],[563,-306],[193,-47],[274,21],[476,151],[208,94],[228,174],[142,220],[214,911],[64,87],[87,57],[302,102],[816,157],[904,38],[446,-13],[269,25],[139,-7],[310,-162],[184,-255],[387,-431],[205,-304],[522,-293],[66,-113],[214,-218],[204,-115],[212,-176],[281,-392],[417,-305],[124,-131],[447,-261],[215,-229],[353,-449],[178,-130],[378,-221],[161,-76],[321,-44],[466,-180],[729,-130],[681,-109],[647,-10],[66,-51],[23,-298],[104,-178],[193,-137],[256,-91],[125,-16],[121,42],[309,225],[319,157],[516,111],[62,-29],[15,-131],[63,-119],[118,-100],[95,-8],[382,38],[472,-48],[122,9],[215,-7],[118,21],[281,188],[519,576],[384,308],[301,118],[409,256],[171,35],[198,-45],[916,-435],[182,-157],[329,-495],[75,-75],[521,-250],[279,-55],[272,-12],[57,17],[168,111],[111,23],[398,-198],[296,-110],[410,-69],[117,-44],[117,-121],[177,-294],[215,-496],[106,-113],[104,-32],[144,11],[159,79],[159,146],[234,285],[234,466],[-14,173],[30,156],[75,152],[124,100],[136,29],[353,-124],[351,-161],[313,-242],[0,0],[0,0],[87,-306],[101,-134],[-32,-117],[0,0],[-122,-139],[0,-1],[-52,-35],[-56,-38],[-40,-25],[-18,-14],[-24,-16],[-34,-20],[0,0],[-27,-15],[-39,-25],[-137,-83],[-122,-108],[-115,-128],[-97,-89],[-9,-9],[-2,-2],[-35,-32],[-89,-107],[-43,-50],[-13,-19],[-20,-30],[-13,-19],[-19,-26],[-10,-13],[-24,-26],[0,0],[0,0],[-23,-19],[-23,-19],[-11,-7],[-33,-26],[-22,-16],[-25,-14],[-27,-19],[0,0],[-358,-132],[-388,-194],[-431,-112],[-431,-170],[-189,-230],[-31,-129],[57,-169],[176,-152],[400,-186],[314,-81],[228,-96],[159,-93],[90,-138],[-67,-124],[-179,-176],[-526,-431],[-53,-70],[-78,-201],[-19,-193],[31,-47],[393,-189],[92,-64],[358,-277],[116,-139],[59,-139],[-53,-255],[85,-447],[-55,-156],[-369,-320],[-255,-140],[-945,-279],[-176,-69],[-182,-101],[-149,-129],[-129,-198],[8,-292],[-9,-134],[30,-117],[242,-319],[-79,-189],[-23,-197],[49,-130],[18,-330],[-78,-469],[19,-404]],[[96315,38821],[-66,-23],[-129,45],[-82,-24],[3,23],[-632,72],[-204,47],[-140,83],[-72,89],[-331,122],[-483,13],[-297,-49],[-98,52],[-148,133],[-209,74],[-56,42],[-101,191],[-14,155],[-136,138],[-67,101],[-180,-128],[-223,-50],[-84,-49],[-145,175],[-19,60],[-142,-38],[12,-20],[-41,-20],[-477,-188],[-495,-155],[-17,23],[-107,-25],[-37,136],[-51,-1],[-35,81],[-45,-46],[-190,93],[-201,15],[-85,38],[-192,-4],[-318,-55],[-220,45],[-294,95],[-96,-37],[-129,-87],[-105,-189],[-84,-279],[-68,-96],[-79,-57],[-359,-166],[-241,-161],[-70,-93],[-170,-127],[-43,-73],[-15,-8],[-47,37],[-79,80],[-278,100],[-32,-6],[-67,-117],[-28,3],[-248,-182],[-180,-63],[-69,74],[-310,173],[-150,27],[-474,24],[-60,210],[8,196],[-21,26],[-161,43],[-380,36],[-12,137],[-148,97],[-89,33],[-527,-96],[-71,49],[-56,69],[49,104],[-21,92],[-44,31],[-268,71],[-111,101],[610,294],[-1576,532],[55,38],[-49,26],[35,24],[-409,198],[223,291],[9,76],[-370,131],[-91,-80],[-52,14],[-75,57],[13,90],[-34,27],[-82,-11],[-265,68],[-46,35],[-179,10],[-99,-129],[-323,-373],[-249,-68],[-401,-13],[-35,-111],[-52,-5],[-38,-82],[8,-231],[-26,-102],[-201,-296],[67,-57],[-42,-78],[110,-21],[11,15],[171,-43],[-167,-360],[106,-76],[245,-22],[20,-208],[32,1],[6,-53],[-23,-225],[220,-51],[-86,-125],[-154,-30],[-350,-24],[-736,-129],[-260,-25],[-76,10],[-200,73],[-269,36],[-271,13],[-249,-35],[-92,11],[-294,-27],[-270,38],[-76,211],[-145,147],[-84,-20],[-79,-79],[-94,163],[-85,-88],[-21,7],[-88,-67],[-280,-62],[12,-40],[-173,-45],[-154,-83],[146,-205],[265,-254],[-166,-85],[-31,17],[-83,-91],[-152,-58],[-80,90],[-26,117],[-145,-41],[-203,-4],[117,-58],[-325,43],[-18,34],[-394,4],[-445,91],[16,84],[-498,13],[-21,245],[-241,-15],[-2,34],[-242,-8],[-1,15],[-349,-15],[-4,43],[-329,-17],[-369,17],[-11,19],[-409,-119],[-442,-73],[-50,88],[-138,89],[-104,-11],[-11,65],[-302,-33],[-21,65],[-154,-38],[87,280],[-115,-5],[1,-71],[-125,-15],[-286,-114],[-194,334],[-271,-59],[-88,74],[-615,98],[59,44],[-239,63],[-76,38],[-29,14],[-13,66],[-242,-37],[-114,-17],[-201,134],[-216,102],[-351,50],[-352,84],[-215,106],[-210,-23],[-1041,18]],[[96315,38821],[28,-117],[60,-80],[427,-340],[259,-146],[412,-137],[381,-222],[230,-84],[141,-115],[17,-77],[0,0],[0,0],[-201,-188],[-1,0],[0,0],[-136,-73],[0,0],[-441,-38],[0,0],[0,0],[-3,3],[-641,601],[-86,59],[-325,112],[-239,17],[-224,-11],[-221,-28],[-159,-70],[-89,-67],[-54,-106],[6,-93],[86,-144],[101,-103],[157,-107],[428,-329],[652,-408],[40,-145],[-19,-238],[-288,7],[-486,-132],[-250,-137],[-611,-462],[-366,-358],[-542,-426],[-523,-512],[-276,-191],[-197,-81],[-509,-155],[-579,-248],[-247,-57],[-673,-84],[-138,-42],[-453,-250],[-258,-450],[-398,-472],[-151,-160],[-45,-20],[-148,-155],[4,-25],[-334,-338],[-454,-349],[-402,-218],[11,-12],[-104,-85],[-284,-141],[-355,-124],[-353,-185],[-199,-185],[-55,-87],[-283,-219],[-218,-332],[-23,-75],[105,1],[-17,-161],[21,-109],[60,-82],[157,-83],[135,-41],[157,-11],[208,30],[292,19],[169,-6],[134,-24],[155,-61],[145,-83],[96,-77],[75,-119],[40,-125],[23,-143],[-25,-144],[-70,-175],[-77,-164],[-116,-207],[-83,-163],[-119,-165],[-105,-185],[-67,-146],[-106,-182],[-193,-285],[-153,-268],[-220,-333],[-156,-230],[-95,-168],[-90,-151],[-61,-137],[-48,-150],[-49,-145],[-41,-157],[-56,-133],[-72,-147],[-80,-129],[-74,-125],[-56,-129],[-36,-149],[-16,-208],[-59,-141],[-113,-164],[-108,-144],[-116,-131],[-136,-102],[-173,-87],[-215,-88],[-231,-106],[-185,-96],[-142,-94],[-111,-110],[-87,-117],[-98,-131],[-129,-106],[-136,-102],[-134,-132],[-136,-225],[-141,-203],[-127,-149],[-140,-115],[-171,-120],[-166,-91],[-197,-92],[-210,-76],[-212,-46],[-152,-20],[-6,0],[-43,-6],[-28,-3],[-8,-1],[-25,-2],[0,0],[-575,-19],[-120,-4],[-215,-52],[-465,-316],[-477,-451],[-292,-350],[-72,-197]],[[80254,19348],[-178,48],[-20,-14],[-58,19],[7,16],[91,161],[-65,128],[37,30],[33,-22],[55,14],[68,42],[78,131],[237,243],[-55,18],[109,89],[139,193],[244,177],[-39,13],[145,75],[217,281],[-38,119],[-52,39],[60,122],[-293,-15],[-45,16],[-280,-114],[-59,71],[-17,77],[105,300],[32,-2],[7,23],[42,-7],[20,30],[264,-13],[-1,49],[25,6],[-164,95],[137,204],[-53,29],[-70,6],[-41,67],[-110,-33],[-126,42],[-141,5],[-42,42],[-120,83],[-153,29],[-162,89],[-7,35],[45,64],[-31,29],[-314,6],[-126,113],[-165,83],[-64,110],[-157,33],[-120,32],[-252,-271],[-134,-60],[-105,-18],[39,104],[-34,91],[-112,107],[-25,-14],[-131,90],[-228,-48],[-72,-79],[-148,-8],[-148,13],[-193,104],[-348,-237],[-175,-324],[14,-143],[121,-165],[-25,-60],[-381,-259],[-94,36],[-79,65],[-75,127],[3,77],[226,126],[-35,19],[28,21],[-116,44],[-58,85],[51,21],[102,302],[-66,9],[-25,280],[-67,85],[-505,-138],[-46,237],[58,12],[-70,80],[-25,77],[42,124],[-195,36],[47,313],[-127,60],[-15,-74],[-301,-30],[-57,90],[-230,-1],[-15,166],[-32,-18],[-163,78],[-60,49],[-136,-20],[-147,27],[-60,81],[86,56],[139,163],[-260,25],[-513,-25],[-311,89],[-169,23],[-931,35],[-366,77]],[[80254,19348],[17,-284],[108,-236],[252,-294],[457,-282],[135,-118],[88,-193],[-15,-178],[-86,-126],[0,0],[-98,-64],[0,0],[0,0],[-127,-32],[-170,-4],[-325,73],[-498,251],[-267,32],[-207,-24],[-247,-81],[-481,-181],[-308,-170],[-140,-103],[-172,-193],[-64,-130],[7,-147],[109,-191],[96,-90],[1103,-548],[5,-22],[990,-554],[704,-430],[94,-115],[27,-178],[-97,-352],[-340,-511],[-161,-147],[-509,-364],[-372,-269],[-447,-499],[-605,-382],[-152,-123],[-262,-299],[-261,-346],[-32,-78],[-24,-158],[26,-141],[139,-293],[204,-581],[322,-742],[598,-1277],[0,0],[0,0],[13,-38],[13,-46],[10,-40],[4,-36],[2,-11],[32,-97],[32,-120],[24,-77],[11,-28],[18,-56],[0,0],[0,0],[16,-152],[-20,-173],[-63,-327],[-21,-382],[6,-344],[44,-133],[164,-311],[50,-252],[-118,-517],[-61,-411],[1,-790],[-4,-491],[-73,-381],[131,-25],[0,-5],[-28,-518],[0,0],[43,-279],[0,0],[56,-220],[33,-128],[38,-149],[-1,0],[0,-2],[-115,-9],[-102,-9],[-35,-3],[-110,-9],[-191,-17],[-4,2],[-3,0],[-9,6],[-181,96],[-29,11],[-108,58],[-54,31],[-102,56],[-1,0],[-319,246],[-247,189],[0,0],[-130,119],[-68,60],[-98,86],[-65,64],[-12,-3],[-284,-49],[-221,-38],[-40,-28],[-187,-39],[-30,15],[-145,74],[0,0],[-193,152],[-154,144],[-64,46],[-1,1],[-313,-113],[-83,27],[-418,-120],[-209,-60],[-54,-22],[0,0],[-3,6],[-29,-8],[-119,351],[-322,67],[-2,2],[-44,7],[0,0],[-14,11],[-22,30],[-5,28],[-2,9],[-249,243],[-16,-7],[-295,222],[0,0],[-76,92],[0,0],[26,12],[-260,168],[-512,266],[-5,-6],[-6,-9],[-8,-3],[-21,-5],[-6,-2],[-16,-5],[0,0],[-4,1],[-6,8],[-2,3],[-6,6],[-213,-52],[-7,-13],[-3,-2],[0,0],[-128,-27],[-4,-1],[-22,-5],[-41,-9],[-12,71],[-2,5],[-3,10],[-5,6],[-1,9],[1,5],[-1,6],[-1,3],[-7,6],[3,1],[-223,317],[-382,-123],[-123,-40],[-137,-95],[-78,-59],[-93,-72],[0,0],[0,0],[-88,-40],[-38,72],[-42,35],[-80,33],[-22,-32],[-7,-7],[-8,-1],[-69,66],[0,0],[-181,83],[-8,4],[-35,16],[0,0],[-19,5],[-173,44],[-42,10],[-54,14],[0,0],[-23,59],[-2,5],[-49,20],[-162,-4],[-5,-1],[-3,-3],[-20,-11],[-9,-4],[-16,-3],[-18,-5],[0,0],[-75,21],[0,0],[-3,3],[-23,27],[-37,42],[-75,86],[0,0],[22,83],[15,33],[36,74],[12,7],[430,740],[0,0],[0,1],[0,0],[-96,50],[-24,-2],[-134,-89],[-112,-73],[0,0],[-121,-39],[0,0],[0,0],[-5,-1],[-18,-11],[-83,3],[-2,-1],[-4,1],[-317,10],[-18,-20],[-15,-44],[1,-16],[0,-1],[2,-38],[5,-81],[-12,-27],[-15,-33],[-50,-36],[11,-36],[0,-2],[-123,-9],[-43,7],[-81,13],[-39,7],[-12,1],[0,0],[-62,69],[-68,76],[-33,36],[31,53],[12,10],[8,5],[20,6],[49,4],[22,-2],[11,-4],[54,58],[-209,96],[-9,1],[-22,3],[-26,6],[0,0],[-107,36],[0,0],[-103,189],[-41,46],[-12,13],[-29,32],[0,0],[-15,49],[-9,33],[-1,4],[-10,19],[4,5],[0,3],[-15,53],[0,6],[8,14],[20,18],[20,13],[49,27],[24,12],[38,12],[15,-1],[10,-2],[141,-27],[30,-8],[55,-22],[87,-21],[58,126],[0,2],[1,10],[12,24],[6,6],[65,140],[-29,27],[-69,47],[-13,5],[-10,3],[-183,-58],[-15,-15],[-58,-35],[-7,-4],[0,0],[0,0],[-158,-66],[0,0],[-133,-19],[-59,5],[-31,3],[-165,13],[0,0],[-51,34],[-32,64],[-31,14],[-49,15],[-28,12],[-18,8],[-23,8],[-46,18],[-14,7],[-11,7],[-11,9],[-10,13],[-5,9],[-1,10],[6,12],[0,1],[0,35],[-11,14],[-2,9],[-2,5],[-4,5],[-7,8],[-10,10],[-4,6],[-7,12],[-2,4],[-3,7],[-4,11],[1,7],[0,8],[-5,11],[0,1],[-11,22],[-4,4],[-2,8],[1,14],[4,8],[1,2],[27,102],[-10,11],[0,5],[3,12],[15,15],[4,2],[16,62],[-1,4],[-6,15],[3,28],[8,32],[4,8],[11,14],[10,11],[21,81],[44,170],[-10,87],[-7,1],[-11,7],[-8,8],[-9,26],[-8,13],[0,12],[5,10],[12,8],[7,3],[2,1],[6,3],[-6,43],[-16,39],[-3,1],[-7,4],[-7,6],[3,9],[4,5],[-19,43],[-114,39],[-16,2],[-25,4],[-16,4],[-16,2],[-10,1],[-45,6],[-19,5],[-24,3],[-44,-27],[-19,-13],[-11,3],[-228,58],[-3,0],[-7,1],[-19,6],[-9,6],[-8,6],[-2,3],[-3,6],[-4,16],[-9,12],[-361,66],[-37,-10],[-88,-60],[-17,-12],[0,0],[-135,22],[-99,17],[-231,-40],[-270,-9],[-138,-4],[-47,23],[-24,36],[-24,35],[-18,21],[-16,21],[-6,16],[-6,39],[2,22],[6,21],[-48,134],[-458,78],[-36,46],[-1,0],[-10,7],[-13,15],[-18,30],[0,0],[-68,85],[-150,186],[-61,-10],[-126,-22],[-71,-12],[-210,-86],[-179,-15],[-77,-6],[-55,-14],[-77,-20],[-48,-3],[-21,-2],[-28,-2],[-188,53],[-65,41],[-159,315],[-157,44],[-282,17],[-39,98],[49,91],[5,100],[-32,49],[-108,67]]],"transform":{"scale":[0.000007951978314783153,0.0000073494884958849554],"translate":[5.735707976,49.4478379991]},"objects":{"cantons-lux":{"type":"GeometryCollection","geometries":[{"arcs":[[0,1,2,3,4]],"type":"Polygon","properties":{"id":"01","name":"Capellen","cx":5.963,"cy":49.64}},{"arcs":[[-3,5,6,7]],"type":"Polygon","properties":{"id":"02","name":"Esch-sur-Alzette","cx":6.026,"cy":49.522}},{"arcs":[[-2,8,9,10,-6]],"type":"Polygon","properties":{"id":"03","name":"Luxembourg","cx":6.17,"cy":49.617}},{"arcs":[[-1,11,12,13,14,-9]],"type":"Polygon","properties":{"id":"04","name":"Mersch","cx":6.117,"cy":49.755}},{"arcs":[[15,16,17,18]],"type":"Polygon","properties":{"id":"05","name":"Clervaux","cx":6.024,"cy":50.078}},{"arcs":[[-13,19,20,-17,21,22,23]],"type":"Polygon","properties":{"id":"06","name":"Diekirch","cx":6.091,"cy":49.869}},{"arcs":[[-5,24,25,-20,-12]],"type":"Polygon","properties":{"id":"07","name":"Redange","cx":5.888,"cy":49.798}},{"arcs":[[-18,-21,-26,26]],"type":"Polygon","properties":{"id":"08","name":"Wiltz","cx":5.94,"cy":49.939}},{"arcs":[[-16,27,-22]],"type":"Polygon","properties":{"id":"09","name":"Vianden","cx":6.16,"cy":49.927}},{"arcs":[[-14,-24,28,29]],"type":"Polygon","properties":{"id":"10","name":"Echternach","cx":6.361,"cy":49.794}},{"arcs":[[-10,-15,-30,30,31]],"type":"Polygon","properties":{"id":"11","name":"Grevenmacher","cx":6.35,"cy":49.677}},{"arcs":[[-7,-11,-32,32]],"type":"Polygon","properties":{"id":"12","name":"Remich","cx":6.314,"cy":49.543}}]}}}