{"type":"Topology","arcs":[[[60856,39551],[122,-190],[1051,-1282],[3,-415],[15,-79],[76,-135],[8,-1378],[826,-1121],[-11,-118],[-27,-63],[-35,-73],[-64,-92],[-50,-84],[-37,-77],[-43,-116],[-50,-272],[-18,-56],[-15,-37],[-54,-376],[-386,-155],[-161,-141],[-135,-203],[679,42],[269,-259],[612,902],[1007,1286]],[[64438,35059],[340,-218],[467,-201],[469,-404],[94,-60],[469,-471],[363,-523],[80,-580],[290,-1102],[274,-588],[159,-678]],[[67443,30234],[-45,-792],[213,-688],[-157,-396],[143,-150],[72,-221],[222,-300],[107,-337],[309,200],[442,233],[182,-100],[128,-95],[182,-344],[169,0],[-86,-341],[-274,-771],[591,-239],[-31,-187],[103,-386],[274,125],[294,133],[127,182],[101,460],[298,293],[232,195],[247,277],[474,-22],[162,455],[64,231],[130,-13],[16,-243],[12,-170],[87,-39],[67,-29],[61,-63],[10,-74],[-4,-91],[-12,-72],[-44,-93],[-18,-44],[1,-38],[13,-36],[38,-7],[41,-23],[213,-52],[84,-39],[40,-28],[24,-26],[10,-85],[18,-93],[11,-86],[19,-64],[27,-39],[56,-30],[60,-16],[64,-29],[59,-22],[57,-51],[32,-41],[50,-81],[42,-137],[20,-98],[11,-93],[80,-125],[87,-106],[89,-29],[174,19],[50,-29],[32,-67],[56,-8],[58,15],[25,-62],[-4,-90],[-139,-171],[-52,-63],[68,-361],[20,-87]],[[73825,24340],[-26,-275],[-160,-1044],[-119,-902],[-75,-296],[-131,-284],[-119,-393],[-38,-137],[34,-123],[58,-121],[58,-181],[6,-167],[37,-134],[127,-172],[93,-308],[66,4],[64,3],[105,72],[133,224],[478,-108],[61,-319],[45,-149],[61,-220],[-190,-282],[-90,-137],[-345,334],[-127,-215],[-75,-125],[-53,-679],[-80,-262],[-295,-339],[-293,-326],[-208,-349],[-63,-313],[-111,-288],[-33,-461],[205,-251],[15,-144],[-49,2],[-82,-5],[-80,-10],[-78,-22],[-78,-14],[-62,-38],[-73,-126],[-60,-104],[-47,-83],[29,-121],[-33,-112],[-381,-192],[63,-137],[-100,-145],[-131,120],[-73,-550],[77,-67],[21,-204],[102,-113],[62,-254],[116,-408],[180,-704]],[[72163,12186],[-797,773],[-606,241],[-308,-47],[-1621,-1319],[-153,-366],[-226,142],[29,176],[-379,463],[12,-117],[-657,-253],[-421,440],[-375,-19],[-75,-316],[-369,-167],[-304,-268],[-236,-27],[-351,317],[-381,103],[-463,238],[-202,103]],[[64280,12283],[240,491],[112,313],[29,126],[29,130],[-18,718],[-30,365],[166,642],[-10,-2],[-18,-4],[-174,-31],[-189,-33],[-213,-39],[-9,12],[-53,66],[-4,-5],[-50,-60],[0,0],[-136,-174],[-151,-77],[-122,-63],[-129,211],[9,378],[-49,157],[-25,-10],[-52,-20],[-160,-63],[-317,-270],[-82,-208],[0,-1],[-13,-30],[-98,-239],[-8,-20],[-194,-99],[-64,-33],[-33,213],[-12,78],[-131,851],[-899,93],[-223,607],[-436,598],[-1655,1636],[-3,0],[-249,11],[-163,-160],[-65,-63],[-1011,-994],[-243,202],[-131,114],[-144,182],[-58,74],[-13,16],[-224,291],[-186,339],[-234,427],[-168,307],[-53,84],[-34,54],[-394,487],[-46,297],[-124,794],[-909,-65],[-73,52],[-96,68],[-167,117],[-51,-30],[-173,-100],[-182,5],[-27,1],[-122,4],[-50,1],[-20,-30],[6,-39],[10,-69],[-31,-57],[40,-330],[-69,-108],[-166,-259],[-456,-560],[-29,-14],[-182,-86],[-226,-9],[-98,-4],[-36,-2],[-479,-150],[-423,-455],[-141,-216],[-24,-37],[-98,-150],[-456,256],[-328,184],[-976,547],[-164,92],[-34,35],[-106,108],[-1,6],[-96,372],[-24,234],[-245,98],[-142,109],[-166,181],[-166,264],[-384,96],[-10,-5],[-141,-78],[-446,-500],[-120,-60],[-17,-9],[-19,-57],[-7,-19],[-48,-52],[-215,-227],[-241,-229],[-133,-79],[-22,-14],[-51,-30],[-506,-384],[-17,-13],[0,0],[-42,-114]],[[45970,19139],[-192,142],[-75,-60],[-169,158]],[[45534,19379],[-348,794],[20,290],[-113,-62],[-108,162],[20,208],[182,546],[218,162],[231,23],[129,13],[29,340],[318,130],[208,240],[-3,133],[212,166],[206,161],[298,233],[105,-116],[284,-316],[293,-82],[291,270],[232,63],[160,-128],[7,-109],[755,14],[209,-178],[563,-257],[-39,146],[264,254],[461,619],[-7,373],[220,236],[1,538],[-32,123],[158,39],[-20,77],[-327,358],[111,123],[195,131],[772,123],[244,39],[33,283],[22,321],[177,-47],[213,-58],[229,-89],[119,-54],[9,30],[202,608],[18,425],[-210,336],[-50,555],[-298,885],[-53,158]],[[52344,28611],[-17,400],[178,375],[307,281],[176,459],[270,321],[199,588],[376,380],[235,-36],[184,228],[178,201],[12,125],[-91,256],[-202,293]],[[54149,32482],[308,113],[381,10],[35,368],[209,163],[1188,-111],[372,162],[96,116],[-21,370],[480,706],[72,257],[169,573],[79,358],[189,387],[204,348],[108,193],[116,881],[51,730],[211,606],[338,381],[519,273],[136,241],[339,159]],[[59728,39766],[116,-196],[330,-563],[341,218],[341,326]],[[72336,40208],[-390,-486],[-62,-202],[136,-632],[-352,-280]],[[71668,38608],[-542,42],[-416,18],[-675,29],[-121,152],[-98,114],[13,335],[-7,312],[-102,193],[-233,124],[-202,-34],[-170,-167],[-216,-166],[-135,-371],[20,-733],[-375,-246],[-273,-148],[-218,-15],[-247,309],[-139,-169],[-48,339],[-629,-102],[-148,147]],[[66707,38571],[445,795],[131,781],[-103,687],[230,590]],[[67410,41424],[84,-124],[143,-35],[175,-162],[363,83],[235,837],[90,250],[82,577],[-20,183],[-62,384],[-57,193],[7,277],[55,138],[287,-73],[149,-39],[187,132],[226,236],[374,234]],[[69728,44515],[40,-351],[67,-148],[125,-279],[452,-690],[128,121],[206,236],[66,-35],[26,-13],[64,-33],[96,53],[77,-108],[-138,-193],[38,-53],[128,-179],[102,-26],[102,236],[173,-22],[155,-16],[252,-26],[58,-7],[43,-122],[49,-191],[275,-115],[60,-26]],[[72372,42528],[-4,-425],[-49,2],[-199,-72],[-76,-36],[-134,-65],[-215,-134],[-113,-104],[72,-221],[200,-384],[296,-527],[186,-354]],[[45970,19139],[-61,-124],[-59,-185],[0,0],[0,0],[129,-134],[16,-16],[18,-5],[107,-39],[1,-1],[86,-64],[1,0],[0,-1],[59,-84],[9,-13],[33,-30],[13,-8],[44,-26],[53,-32],[1,0],[2,-2],[22,-43],[0,-1],[12,-60],[14,-67],[5,-26],[0,0],[6,-26],[9,-15],[156,-256],[1,-2],[97,-166],[11,-10],[45,-38],[0,0],[96,-57],[19,-26],[94,-260],[3,-10],[29,-60],[4,-8],[3,-2],[59,-49],[83,-70],[16,-27],[3,-8],[9,-75],[1,-4],[1,-22],[9,-15],[13,-25],[84,-156],[0,0],[0,0],[39,-94],[0,-1],[1,-5],[21,-94],[0,-3],[0,-1],[6,-87],[0,-25],[-28,-142],[-37,-89],[-14,-23],[-30,0],[-1,0],[-34,-25],[-12,-24],[-13,-78],[-8,-159],[13,-345],[0,-29],[-19,-76],[0,-13],[0,-12],[1,-28],[13,-24],[40,-10],[41,-72],[133,-236],[103,-180],[14,-24],[56,-122],[25,-64],[3,-63],[7,-30],[1,-9],[2,-2],[8,-11],[4,-6],[108,-50],[10,-32],[2,-45],[1,-29],[-3,-40],[-2,-14],[11,-29],[6,-16],[52,-68],[7,-10],[16,-11],[2,0],[40,1],[19,-3],[26,-35],[18,-100],[32,-178],[0,0],[12,-78],[31,-55],[10,-32],[0,-2],[4,-61],[5,-92],[2,-33],[16,-17],[15,-26],[43,-42],[40,-43],[37,-74],[27,-71],[13,-58],[-4,-49],[-37,-156],[0,-5],[-6,-73],[12,-77],[0,0],[0,0],[24,-83],[16,-53],[15,-62],[-45,0],[-2,0],[-4,-8],[-14,-34],[-3,-13],[-29,-151],[-26,-64],[-15,-11],[-72,33],[-28,-3],[-3,-40],[28,-140],[3,-40],[-17,-60],[-16,-57],[-10,-86],[-11,-127],[-72,17],[-78,19],[-175,44],[-91,-56],[-83,-49],[-697,-211],[-210,-63],[49,-411],[0,-1],[57,-476],[-23,-75],[-34,-110],[-27,-642],[128,-706],[15,-85],[0,0],[3,-17],[142,-487],[-269,-247],[-44,-38],[-33,-30],[-696,-621],[-194,-173],[-48,-44],[-629,382],[-284,202],[-330,382],[-331,240],[-20,15],[-44,32],[-647,89],[-59,8],[-138,78],[-1,1],[-222,321],[-137,100],[-65,46],[-15,31],[-51,145],[-523,182],[-24,-2],[-97,0],[-101,4],[-35,11],[-58,30],[-213,218],[-183,362]],[[41430,10298],[-33,192],[1,343],[-316,931],[-174,36],[-121,281],[-192,74],[-248,1162],[-247,433],[721,725],[1065,777],[829,20],[-37,385],[4,166],[80,362],[-102,400],[877,883],[280,222],[176,358],[237,297],[613,1046],[239,208],[203,-449],[249,229]],[[59728,39766],[-334,449],[-234,-91],[-205,-394],[-351,-211],[-217,5],[-136,528],[-378,282],[-437,-255],[-266,304],[-200,215],[-223,119],[-335,1],[-246,-225],[-288,-66],[-203,-271],[-292,-361],[-110,191],[-87,244],[-639,453],[-385,252],[-16,307],[40,250],[-176,58],[-60,-58],[-894,-67],[49,-261],[-53,-111],[-205,-107],[-252,-18],[-534,-520]],[[52061,40408],[-467,147],[-714,-168],[-1344,407]],[[49536,40794],[23,26],[201,236],[272,88],[96,166],[105,260],[-215,423],[-31,410],[-97,109],[-265,240],[-361,1265],[-185,26],[-207,-97],[-502,601],[113,242],[164,-94],[216,-213],[215,-67],[383,-25],[226,256],[49,-224],[196,86],[225,139],[59,75],[189,389],[495,61],[-27,125],[168,79],[-31,146],[153,49],[448,268],[672,321],[241,235],[267,260],[-81,184],[-83,188],[153,56],[11,171],[283,11],[76,-166],[174,197],[120,285],[228,94],[7,175],[17,211],[152,19],[-7,94],[159,401]],[[54000,48575],[13,8],[385,-157],[172,-131],[347,188],[6,268],[13,266],[5,295],[44,631],[305,23],[99,-554],[143,-27],[51,297],[-112,512],[264,123],[84,-203],[335,262]],[[56154,50376],[161,-327],[180,-229],[116,-144],[74,-92],[602,55],[51,-152],[179,-404],[-21,-363],[-149,-226],[64,-155],[-120,-194],[103,-166],[322,-531],[192,-503],[53,-4],[44,-2],[70,-278],[4,-69],[10,-200],[166,-44],[369,-98],[168,62],[121,173],[145,147],[202,127],[131,51],[96,-117],[145,-148],[354,148],[135,19],[185,1],[218,111],[183,40],[353,-116],[162,-81],[263,174]],[[61485,46841],[248,-28],[167,86],[342,-59],[179,0],[335,1],[252,-92],[600,42],[-204,-711],[-605,-992],[616,-11]],[[63415,45077],[-129,-261],[-230,-456],[80,-386],[-71,-228],[-67,-218],[216,-354],[-85,-348],[-88,-161],[-96,-118],[-51,-123],[-102,-197],[-168,-192],[-485,-354],[-196,-132],[-72,-98],[-120,-260],[-121,-380],[108,-143],[-46,-529],[-263,257],[-324,-500],[-249,-345]],[[40359,48820],[-282,-209],[-123,-117],[-163,-55],[-94,-105],[-236,-526],[-261,-144],[-243,-190],[-39,-214]],[[38918,47260],[-559,128],[-103,-179],[81,-266],[-353,-210],[-111,-603],[-309,-596],[-715,-315],[-165,-563],[-406,-197],[-276,-210],[-169,-328],[-196,-227],[-722,-537],[-194,-74]],[[34721,43083],[-302,-674],[43,769],[-73,48],[-35,29],[-68,58],[-29,26],[-156,122],[-187,181],[-135,153],[-161,206],[-152,208],[-34,119],[-72,277],[-25,92],[-257,-68],[-255,-101],[-665,-927],[-222,357],[-74,600]],[[31862,44558],[407,100],[2,292],[-75,187],[-91,106],[-22,26],[-98,260],[16,85],[286,694],[139,109],[178,-374],[189,177],[459,401],[-115,94],[-750,-167],[337,345],[-81,203],[183,1563],[4,243],[-246,436]],[[32584,49338],[326,34],[20,260],[461,132],[174,90],[110,57],[-59,316],[372,112],[359,225],[123,182],[22,176],[261,243],[-276,350],[60,45],[114,83],[124,94],[119,88],[124,105],[27,21],[91,83],[132,48],[82,23],[93,50],[88,38],[97,29],[70,58],[29,37],[27,50],[35,60],[64,83],[83,105],[45,69],[35,66],[58,46],[75,52],[117,88],[64,65],[40,64],[64,34],[79,49],[106,151],[119,214],[68,150],[75,136],[86,95],[33,29],[287,-233]],[[37287,53690],[60,-427],[120,-16],[147,-651],[218,-126],[257,-585],[549,311],[450,126],[294,-625],[37,-510],[135,-947],[137,84],[169,-757],[285,-512],[214,-235]],[[72163,12186],[5,-22],[10,7],[73,47],[71,47],[191,141],[263,-42],[348,-121],[234,-49],[226,121],[153,-387],[30,-176],[42,-248],[-147,-234],[-211,-335],[-82,-23],[-193,-55],[-127,95],[-184,40],[-194,-256],[-228,-251],[-487,-555],[-156,-76],[-234,-413],[-39,-193],[-65,-329],[-356,-153],[9,-412]],[[71115,8354],[0,0],[-187,-74],[-97,-82],[-16,-21],[-87,-115],[-119,-255],[-9,-18],[-81,-59],[-185,-44],[-127,-62],[-124,-40],[-270,-5],[-92,21],[-74,104],[-37,101],[-81,49],[-86,-18],[-25,-5],[-72,-91],[-33,-132],[-52,-393],[-33,-143],[0,0],[1,-21],[1,-147],[14,-143],[6,-67],[8,-36],[27,-136],[37,-73],[26,-53],[165,-201],[0,0],[1,-141],[-17,-33],[-53,-100],[-15,-30],[-92,-114],[-34,-105],[6,-24],[19,-77],[153,-213],[0,0],[13,-129],[42,-128],[425,-863],[29,-68],[40,-96],[37,-122],[7,-122],[5,-83],[-8,-147],[-69,-140],[-165,-151],[-219,-159],[-340,-151],[-254,-132],[-183,-95],[0,0],[-215,-143],[0,0],[-144,-133],[-156,-144],[-2,-2],[-58,-91],[-16,-27],[-23,-164],[0,0],[-46,-111],[-62,-104],[-44,-76],[-60,-193],[-15,-173],[-5,-67],[0,-117],[1,-131],[3,-103],[-4,-81],[-1,-1],[-62,-279],[-1,-1],[-14,-32],[-6,-15],[-2,-2],[-54,-94],[-25,-45],[-3,-4],[-2,-1],[-39,-20],[-2,-1],[-569,-292],[0,0],[-286,-125],[0,0],[0,0],[-105,5],[-1,0],[-101,25],[-246,127],[-70,53],[-112,134],[-233,286],[-91,137],[-100,232],[-106,290],[-38,126],[-34,151],[-3,53],[-3,53],[25,718],[76,769],[23,246],[-1,319],[25,183],[97,463],[8,78],[-8,107],[1,133],[-23,128],[-85,353],[-175,543],[-85,300],[-110,442],[-77,248],[-30,68],[-28,40],[-135,166],[-13,16],[0,0],[0,0],[-37,96],[-5,18],[-45,157],[-14,48],[-1,4],[0,0],[-24,68],[-20,47],[-115,223],[-63,114],[-17,32],[-95,182],[-52,79],[0,0],[-30,63],[-14,37],[-22,68],[-66,226],[-23,143],[-5,135],[-7,113],[10,118],[20,109],[10,50],[84,324],[-4,135],[-8,105],[-5,114],[-7,34],[-6,64],[-7,24],[-57,84],[-3,6],[-9,12],[-93,139],[-78,104],[-65,91],[-54,105],[-31,88],[-16,48],[-23,117],[-56,317],[-9,131],[11,145],[16,219],[43,504],[2,20],[5,38],[2,4],[8,30],[16,39],[6,10],[51,90],[5,9],[6,11],[0,0]],[[52344,28611],[-394,-49],[-410,584],[-335,175],[-513,-54],[-171,-198],[-228,76],[-365,492],[-32,515],[-29,461],[-164,124],[-1136,-390],[-122,-42],[-365,203],[-381,-144]],[[47699,30364],[240,610],[-177,202],[-3,239],[-2,158],[-100,224],[103,340],[226,83],[-138,298],[-27,441]],[[47821,32959],[-39,241],[389,-108],[134,304],[283,-106],[45,211],[138,321],[-378,290],[-158,270],[-150,258],[218,228],[70,74],[70,-64],[175,-173],[154,-145],[47,-284],[29,-177],[200,251],[102,244],[206,529],[220,253],[182,31],[206,-23],[139,417],[-149,626],[-268,425],[-120,426],[34,423],[229,324],[23,154],[447,609],[-290,503],[-33,106],[-174,317],[-445,803]],[[49357,40517],[179,277]],[[52061,40408],[404,-490],[71,-155],[159,-346],[210,-522],[216,-235],[141,39],[321,-92],[139,-73],[143,-79],[238,-50],[195,-15],[148,-18],[269,-256],[-117,-264],[66,-528],[-312,-442],[-145,-335],[340,-396],[-269,-535],[-325,-499],[73,-333],[194,-140],[398,-321],[-130,-145],[97,-91],[65,-163],[-94,-353],[-782,-727],[375,-362]],[[63415,45077],[103,214],[237,-105]],[[63755,45186],[37,11],[280,-276],[63,-210],[434,75],[299,2],[907,363],[-42,-1271],[338,104],[174,206],[120,229],[177,-215],[562,-387],[151,-85],[66,-98],[-7,-153],[-22,-45],[-49,-140],[-31,-104],[-2,-125],[9,-155],[29,-186],[28,-172],[19,-207],[9,-227],[6,-163],[-25,-166],[-37,-84],[98,-166],[64,-117]],[[66707,38571],[-572,4],[-83,-99],[-94,-82],[-89,-54],[-86,-63],[-65,-48],[-70,-73],[-60,-67],[-51,-80],[-69,-103],[-33,-63],[-7,-16],[-41,-78],[-51,-78],[-73,-112],[-73,-85],[-137,-75],[-131,-337],[598,-918],[-327,-226],[-179,-129],[-160,-164],[-127,-156],[-128,-184],[-161,-226]],[[71668,38608],[160,-303],[698,-249],[79,-162],[88,-135],[-19,-138],[-22,-95],[-14,-69]],[[72638,37457],[-59,-133],[-62,-93],[-81,-86],[-111,-106],[-45,-64],[-9,-8],[-75,-100],[-76,-71],[-96,-40],[-260,-188],[-173,-85],[-38,-16],[0,10],[-101,-16],[-110,-7],[-77,-13],[-8,-128],[-61,-9],[-159,-29],[-75,-74],[-30,-109],[-103,-141],[-95,84],[45,152],[-170,167],[-121,-386],[-190,-328],[121,-194],[42,-120],[-124,-250],[-344,-180],[-165,26],[-181,112],[-21,-168],[-244,-196],[93,-302],[116,-380],[50,-342],[121,-337],[-115,-492],[-24,-323],[109,-220],[-116,-56],[-300,-58],[-119,-103],[-244,-69],[161,-979],[48,-214],[-255,-47],[-263,79],[-199,114],[-392,-109],[-158,-253],[-124,-319],[-129,-62],[-199,36]],[[41430,10298],[-13,25],[-187,103],[-17,-50],[-39,24],[-194,155],[-86,51],[-5,18],[-137,30],[-13,5],[-110,21],[-140,30],[-5,-3],[-2,1],[-72,-28],[-78,-37],[-158,-85],[-202,-16],[-71,-5],[-22,-2],[-99,-77],[-43,-33],[-362,-155],[-437,-187],[-13,-5],[-76,-20],[-97,-26],[-78,-20],[-747,326],[-331,46],[-186,-127],[-204,-138],[-323,-151],[-374,-174],[-248,295],[20,64],[-590,712],[-34,78],[-253,555],[-100,84],[-5,4],[-10,8],[-505,422],[-102,287],[-768,2182],[1143,1979],[528,814],[249,523],[11,23],[0,0],[0,0],[-552,1596],[-36,147],[-173,698]],[[35084,20265],[137,220],[483,586],[258,164],[123,167],[168,322],[183,97],[295,344],[61,-299],[29,-226],[1229,-322],[501,-199],[337,73],[350,-161],[548,444],[361,60],[297,296],[235,198],[244,684],[-3,146],[362,349],[351,308],[144,-49],[9,-428],[132,-49],[57,104],[85,13],[133,29],[58,118],[65,180],[2,281],[-33,107],[-62,190],[-8,189],[97,2],[194,-34],[221,25],[202,30],[226,100],[244,130],[390,753],[401,801],[97,306],[341,991],[929,476],[31,-406],[126,8],[318,15],[53,4],[-57,136],[-908,1563],[12,37],[67,170],[34,96],[0,136],[-66,102],[-74,57],[-434,58],[-84,-8],[-133,81],[-168,80]],[[44274,29910],[172,346],[183,367],[154,227],[189,14],[118,9],[746,-245],[95,18],[55,10],[790,-328],[379,117],[213,-8],[331,-73]],[[32584,49338],[-154,6],[-36,46],[-90,112],[-71,87],[-62,211],[20,172],[31,199],[81,297],[8,323],[-29,272],[-35,132],[-128,102],[-158,87],[-281,154],[-290,137],[-227,257],[-378,234],[-213,168],[-155,123],[-137,64],[-143,59],[-70,34],[-114,194],[-111,173],[-78,166],[-94,246],[-107,261],[-97,231],[-5,11],[-116,238],[-131,270]],[[29214,54404],[306,109],[325,82],[302,68],[153,-277],[50,-91],[174,-112],[250,-82],[593,189],[334,284],[172,406],[-54,513],[136,389],[163,171],[673,-255],[84,176],[22,300],[-103,179],[-296,508],[-56,427],[288,596],[273,-223],[105,66],[135,284],[190,706],[274,286],[46,131],[32,297],[19,172],[97,359],[21,521],[56,154],[175,482],[107,536],[79,235],[105,233],[243,287],[369,373],[163,386],[-106,292],[-79,218],[-446,433],[-342,966],[-190,403],[-105,355],[-213,49]],[[33738,65985],[128,1028],[466,390],[1254,-967],[665,36],[126,-43],[-64,-236],[624,-837],[43,-384],[114,-71],[683,151],[186,102],[92,-221],[175,-70],[206,61],[114,197],[204,238],[290,367],[155,253],[196,322],[573,270],[345,29],[495,241],[220,-85],[134,-194],[504,-99],[82,-869],[148,237],[140,16],[117,-117]],[[42153,65730],[-64,-213],[182,-78],[-87,-303],[-60,-72],[-66,-153],[52,-68],[366,-96],[81,-293],[47,-172],[-35,-150],[-409,-196],[-189,-400],[-14,-128],[-35,-312],[149,-214],[36,-208],[-341,-97],[-7,-240],[-38,-274],[-221,-47],[-105,-440],[-335,-7],[249,-192],[325,-226],[130,-115],[120,-192],[33,-52],[22,-145],[30,-200],[-44,-400],[129,-285],[-33,-235],[-18,-466],[-100,-599],[59,-561],[178,-144],[122,-146]],[[42262,57611],[-261,-425],[-65,-382],[-383,-653],[-384,-372],[-219,-166],[-277,-210],[-346,-141],[-939,-147],[-320,-188],[-175,39],[-497,-443],[-218,-332],[-155,-369],[-243,-190],[-155,-50],[-338,108]],[[33738,65985],[-363,90],[-116,-23],[-214,-236],[-292,-101],[-502,26],[-36,735],[119,865],[-74,262],[-6,457],[-229,49],[29,171],[131,88],[-188,535],[-88,-54],[-31,84],[29,48],[20,66],[29,250],[26,121],[84,166],[80,178],[84,128],[40,73],[33,59],[139,352],[-79,495],[-224,192],[-457,181],[-448,653],[61,868],[-300,137],[-392,40],[-85,-55],[186,-160],[-160,-193],[-258,380],[-214,-130],[-120,222],[-124,-119],[-432,291],[-230,-222],[-589,343],[-196,-17],[-135,-275],[-126,234],[127,649],[35,632],[-250,-124]],[[28032,74396],[-366,-17],[-303,-10],[-47,665],[-79,264],[68,273],[-320,419],[-187,-68],[35,225],[-389,335],[114,385],[324,39],[203,299],[144,176],[64,296],[384,183],[393,37],[68,662],[-504,559],[-47,191],[247,101],[125,158],[-135,247],[1,337],[348,35],[635,1071],[-248,484],[-212,-115],[-184,162]],[[28164,81789],[51,111],[4,150],[15,327],[-60,275],[-59,300],[194,312],[34,-42],[12,-18],[42,-59],[115,-213],[291,-656],[54,-379],[564,-230],[309,205],[609,385],[575,224],[355,267],[150,-303],[-22,-503],[219,-489],[-3,-352],[131,-681],[189,-181],[187,264],[113,231],[-10,122],[-6,121],[21,87],[58,47],[80,12],[111,26],[172,32],[60,52],[72,73],[50,70],[46,104],[44,97],[17,79],[24,96],[20,117],[11,83],[60,89],[46,111],[44,94],[66,94],[28,81],[35,163],[28,157],[31,106],[43,133],[37,117],[41,102],[58,108],[44,141],[43,129],[57,94],[48,39],[93,65],[720,307],[106,45],[390,99],[528,522],[565,249],[104,-336],[292,-149],[347,-64],[381,63],[129,14],[330,251],[318,214],[145,161],[112,62]],[[38272,85213],[266,17],[223,-171],[52,56],[129,137],[313,-662],[73,-379],[140,-717],[115,-319],[152,-251],[6,-565],[283,-123],[392,-647],[388,-88],[318,-534],[232,-1163],[389,-704],[-85,-458],[60,15],[57,-103],[-4,-68],[-54,-64],[-66,-72],[-68,-64],[-29,-88],[-5,-106],[29,-114],[-1,-44],[-8,-57],[-20,-60],[0,-61],[37,-49],[21,-21],[27,-51],[10,-64],[4,-41],[3,-68],[-8,-64],[-5,-15],[-22,-72],[-19,-47],[-9,-43],[9,-72],[86,-247],[84,-189],[171,-267],[29,-382],[14,-250],[-23,-108],[-37,-156],[10,-161],[25,-238],[0,-188],[120,76],[556,419],[310,36],[126,15],[-5,250],[226,7],[65,-205]],[[43354,75561],[34,-272],[-128,-56],[258,-658],[-293,-680],[42,-282],[-263,-419],[-46,-360],[257,-73],[92,-134],[9,-107],[44,-79],[53,-55],[80,-58],[64,-57],[69,-3],[73,37],[82,45],[48,-12],[35,-157],[-217,-116],[-43,-205],[92,-283],[-382,-242],[-379,-38],[-431,-394],[-160,-274],[24,-589],[88,-430],[23,-382],[5,-195],[1,-71],[130,27],[386,-127],[86,115],[-152,-1133]],[[42935,67844],[-183,-617],[-191,-637],[-52,-178],[-91,-158],[-223,-279],[-42,-245]],[[29214,54404],[-191,334],[-192,328],[-167,272],[-164,228],[-170,250],[-159,196],[-149,140],[-164,117],[-169,134],[-106,85],[-82,74],[-132,200],[-408,-399],[-254,343],[-400,-398],[-265,186],[-361,-369],[-133,-420],[-12,-209],[-188,-171],[-916,-216],[-212,8],[-224,-146],[-153,-100],[58,-227],[-73,-24],[-359,-173],[-94,-331],[-726,290],[-76,-109],[-52,331],[-214,-56],[-285,-127],[-206,120],[-110,63],[57,221],[56,271],[-292,327],[-183,381],[-1,610],[-233,318],[-327,745],[-83,257],[-120,274],[-183,-120],[-340,-278],[-105,-86],[-218,287],[-148,120],[-126,101],[-262,194]],[[19198,58250],[39,61],[-27,54],[-112,227],[-166,-171],[-39,55],[-118,168],[-68,337],[23,151],[5,29],[-91,187],[-34,72],[-195,248],[-117,150],[-98,125],[-367,468],[-67,126],[-30,59],[4,172],[0,0],[-118,126],[-101,108],[0,0],[0,0],[-138,-178],[-254,254],[-19,19],[-79,257],[-499,-28],[-408,18],[-161,236],[-98,42],[-302,346],[-110,29],[-332,323],[-459,811],[-157,176],[0,0]],[[14505,63307],[-57,342],[390,-247],[609,389],[1091,434],[259,1152],[159,95],[217,-236],[139,85],[234,144],[96,144],[131,196],[149,95],[85,55],[137,-238],[185,171],[-62,317],[-32,178],[105,166],[60,230],[82,114],[69,203],[-16,117],[77,331],[-44,155],[22,195],[11,111],[45,97],[35,87],[23,393],[-28,201],[9,86],[-3,72],[22,92],[31,82],[10,69],[17,85],[-3,79],[-3,83],[53,231],[73,165],[93,174],[553,-593],[1230,-125],[423,195],[138,279],[-50,38],[-160,161],[-82,100],[-49,106],[-109,203],[-53,76],[64,77],[372,-347],[208,-100],[182,-88],[817,531],[494,-46],[184,287],[1029,479],[311,59],[78,-360],[532,24],[359,155],[184,207],[515,242],[426,-223],[298,-157],[169,212],[91,-69],[180,415],[71,164],[-187,212],[-6,143],[79,43],[-73,554],[-395,434],[4,384],[466,-117],[426,57],[338,783]],[[56154,50376],[-39,36],[-18,15],[-36,18],[-28,17],[-24,34],[-22,47],[-26,51],[-18,21],[-43,23],[-48,14],[-32,32],[-16,96],[-34,99],[-30,153],[-62,113],[-35,120],[-31,161],[-9,136],[-7,108],[-20,119],[6,191],[26,236],[73,194],[-107,39],[-213,110],[-58,119],[38,78],[125,139],[126,151],[34,223],[-290,363],[-168,288],[-255,244],[-267,-175],[-180,-35],[-173,-86],[-25,517],[38,136],[257,185],[205,349],[-398,354],[-92,30],[-213,384],[-71,313],[-137,108],[-45,431],[-274,590],[156,49],[119,37],[203,125],[109,142],[62,81],[17,168],[0,174],[-3,157],[-19,265],[-8,172],[12,105],[21,27],[714,508],[-90,419],[150,404],[134,-386],[102,15],[205,-84],[238,-127],[171,-238],[177,-54],[29,68],[10,23],[2,44],[9,62],[23,31],[203,-59],[326,-150],[290,-40],[262,284],[474,279],[-35,164],[685,763],[638,-51],[473,458],[1055,477]],[[60452,61577],[481,195]],[[60933,61772],[279,-71],[-206,-379],[61,-146],[144,70],[51,-157],[111,21],[258,45],[809,-246],[-9,-242],[-6,-177],[505,-136],[14,217],[218,-123],[-82,-355],[70,-301],[165,-221],[292,25],[183,-436],[485,-74],[8,-148],[281,-121],[581,187],[120,-94],[116,-90],[10,392],[313,311],[296,119],[141,-646],[223,-348],[143,-380],[180,-568]],[[66687,57700],[-399,-300],[-150,-112],[-175,-133],[-310,-326],[-70,-514],[-533,-425],[-628,-628],[50,-458],[-133,-15],[-130,35],[-244,67],[-122,6],[-149,6],[-60,-75],[-205,-257],[-47,-184],[234,-279],[-192,-604],[-231,247],[-235,23],[-121,-96],[-67,-279],[-252,-205],[-559,-453],[23,-183],[-233,-431],[-341,-127],[-454,-444],[20,-621],[-72,-433],[132,-374],[-104,-47],[51,-419],[180,-43],[-56,-285],[-58,-293],[-10,-511],[111,-258],[130,-300],[58,-598],[149,-533]],[[14505,63307],[0,0],[-805,853],[0,0],[0,0],[-93,11],[-144,18],[-42,5],[-158,19],[-143,59],[-134,55],[-334,42],[-200,26],[-80,96],[-56,67],[-9,11],[-10,13]],[[12297,64582],[329,561],[99,94],[-555,632],[665,1017],[-424,795],[198,67],[-144,429],[-152,18],[169,379],[-67,269],[11,135],[43,-20],[64,30],[83,115],[88,69],[85,88],[73,81],[94,175],[141,167],[96,113],[134,122],[99,96],[63,117],[51,161],[29,122],[46,153],[-82,83],[-247,251],[-136,28],[-266,104],[439,266],[-301,864],[-334,799],[-332,391],[43,248],[241,148],[128,333],[214,147],[161,-102],[262,-103],[401,290],[-8,92],[-11,200],[-125,226],[-121,136],[-119,426],[32,300],[-34,902],[-431,951],[-77,-39],[-380,-193],[-322,-120],[-43,146],[-36,125],[-152,119],[-175,-231],[-203,118],[-558,47],[-425,-158],[-203,224],[-247,121],[-139,-443],[-1306,680],[113,305],[43,610],[375,363],[506,-210],[173,482],[94,87],[593,-357],[103,261],[296,-55],[630,36],[14,141],[-452,308],[20,307],[-137,62],[-133,480],[-262,241],[165,284],[-147,30],[105,288],[-194,106],[-15,7]],[[10613,81719],[87,257],[345,-143],[162,-108],[335,-259],[310,-330],[175,-278],[179,-546],[188,-344],[155,-172],[309,-198],[342,-227],[323,93],[170,-144],[123,366],[666,566],[190,32],[152,-210],[232,152],[129,-10],[1,-48],[-3,-53],[-5,-26],[-5,-24],[-30,-101],[-9,-109],[0,-104],[55,-191],[11,-50],[5,-25],[4,-27],[1,-26],[-2,-26],[-10,-108],[-19,-193],[43,-154],[79,-110],[123,-53],[126,214],[79,80],[163,-104],[156,-39],[218,208],[256,520],[194,282],[259,373],[257,329],[307,394],[257,-197],[339,-146],[451,-78],[499,-241],[158,250],[320,93],[185,388],[216,140],[117,-497],[335,-52],[295,-291],[108,-280],[123,-40],[389,-817],[108,-250],[75,-753],[-46,-502],[460,-506],[223,-43],[148,-345],[274,-85],[385,339],[268,-35],[152,-34],[159,-38],[192,-44],[15,-4],[105,-139],[9,9],[99,97],[130,105],[127,133],[91,131],[57,128],[25,122],[9,185],[-40,192],[-42,176],[-54,191],[-74,200],[-88,194],[-92,171],[336,319],[202,-94],[94,-157],[170,66],[175,-24],[124,1],[130,16],[88,57],[67,88],[37,158],[1,127],[-17,122],[-45,155],[-49,159],[-163,409],[-47,100],[189,117],[172,17],[275,247],[178,88],[135,-13],[83,218],[125,134],[83,223],[181,104],[182,-20],[129,25],[484,-320],[23,-471],[272,241],[167,22],[228,287],[116,253],[133,263]],[[43354,75561],[521,463],[107,-209],[103,-61],[131,62],[368,-156],[-22,273],[44,336],[-62,345],[-52,235],[10,127],[46,242],[73,150],[94,97],[164,827],[323,-505],[48,-49],[120,92],[48,75],[215,283],[323,-162],[337,534],[388,-89],[145,366],[267,10],[176,123],[-29,208],[-237,511],[-194,185],[-144,279],[-233,966],[-269,-37],[-122,87],[-53,553],[4,195],[230,20],[-31,182],[513,98],[114,-324],[206,76],[221,547],[-211,181],[225,368],[-579,1184],[-638,46],[-37,228],[-98,726],[-325,259],[-73,176],[-89,211],[11,182],[-376,232],[-298,406],[-1,344],[299,-130],[281,-28],[-65,99],[-29,110],[6,83],[-4,293],[-17,148],[9,79],[19,81],[6,120],[7,94],[29,77],[71,97],[64,90],[68,130],[54,105],[21,102],[16,175],[32,154],[48,83],[16,13],[48,44],[27,64],[1,44],[0,62],[4,39]],[[45767,89287],[11,79],[57,149],[59,105],[63,41],[62,57],[90,168],[97,246],[30,266],[-40,274],[-44,353],[-11,36],[-21,66],[291,68],[95,-320],[271,-321],[206,510],[555,1508],[112,412],[196,521],[65,86],[597,423],[218,150],[170,-43],[229,-8],[17,-103],[13,-56],[47,-51],[61,-37],[50,-37],[11,-86],[-22,-64],[-32,-79],[-7,-104],[14,-67],[25,-41],[41,-61],[29,-40],[29,-36],[47,-53],[50,-47],[52,-44],[53,-41],[162,-116],[93,-59],[34,-29],[32,-34],[28,-41],[27,-42],[38,950],[252,427],[109,21],[579,-429],[87,244],[-356,313],[-32,269],[-112,58],[106,427],[464,42]],[[51114,95067],[66,-344],[-6,-304],[-22,-232],[68,-163],[190,-596],[47,-144],[9,-119],[-101,-469],[37,-354],[55,-282],[506,-572],[492,-743],[98,368],[39,42],[130,139],[149,160],[430,152],[364,-137],[239,146],[271,145],[22,205],[642,69],[262,389],[132,-12],[157,-242],[156,-58],[256,123],[286,-93],[464,-316],[478,-320],[138,303],[168,288],[-32,-632],[-104,-313],[-15,-328],[74,-278],[-18,-276],[188,-253],[77,-151],[-281,-263],[-321,-331],[237,-152],[122,-129],[-7,-179],[-6,-121],[-105,-401],[-235,-365],[-230,-357],[9,-423],[207,20],[87,-241],[-251,-446],[-140,-239],[4,-140],[88,-98],[179,-8],[475,-10],[10,-267],[15,-397],[243,89],[164,-76],[115,-230],[58,-283],[-135,-77],[-84,-370],[-236,-47],[-79,-106],[23,-171],[-305,-320],[169,-192],[56,-272],[-13,-788],[139,-240],[-3,-366],[-6,-606],[-36,-462],[-51,-426],[-209,-428],[-169,-98],[202,-466],[-111,-39],[108,-730],[105,-296],[-16,-290],[19,-188],[-164,-468],[169,-565],[-7,-246],[-14,-228],[6,-235],[-80,-289]],[[57221,75809],[-24,-32],[-381,-39],[-413,-50],[-441,-318],[-201,-186],[-161,-221],[-37,147],[-215,-84],[3,-225],[-202,-106],[-222,-125],[-97,137],[-147,-236],[-19,-229],[-332,267],[-77,-95],[-124,-126],[-187,394],[-42,88],[-92,192],[-43,94],[-70,0],[-199,-359],[-597,-808]],[[52901,73889],[-151,-310],[-171,-417],[-220,-296],[-109,-219],[-105,-121],[-73,-30],[-75,-32],[-100,-116],[-59,-111],[-31,-57],[-112,-154],[-174,-130],[-152,-102],[-145,-62],[-121,-127],[-107,-132],[-88,-113],[-80,-80],[-173,-105],[-42,-110],[-16,-41],[-81,-140],[-135,-90],[-149,-151],[-84,-105],[-68,-100],[-87,-130],[-114,-144],[-40,-50],[-297,-393],[-161,-80],[-78,119],[-155,83],[-500,24],[-391,59],[-412,311],[-133,41],[-225,54],[-141,-292],[-449,-391],[-170,-110],[-398,-419],[-1,-293],[-200,-61],[-241,152],[-77,-169],[-316,-178],[-244,-53],[-35,-192],[-240,-283],[-388,-169],[-189,-191],[-259,222],[-489,472],[32,67],[-114,61],[-72,-41],[-109,-82],[-320,-299],[-132,-239]],[[38272,85213],[149,210],[290,446],[296,542],[279,243],[209,-35],[233,52],[244,73],[331,134],[341,437],[514,700],[256,695],[327,284],[475,941],[260,51],[70,276],[388,216],[366,265],[219,123],[151,140],[329,-312],[274,-315],[133,-227],[109,-215],[187,388],[210,-251],[614,-531],[241,-256]],[[66687,57700],[188,-90],[23,-714],[168,-275],[164,-268],[900,482],[437,-66],[678,-147],[229,152],[6,257],[257,-14],[205,304],[109,72]],[[70051,57393],[314,-115],[292,-291],[679,573],[96,-438],[340,-594],[311,-266],[504,-583],[233,-174],[258,-7],[-86,-551],[104,-462],[238,-537]],[[73334,53948],[-412,11],[-502,-140],[-215,-60],[-224,112],[-208,90],[-57,-170],[-80,-554],[-468,59],[-210,-164],[-33,-239],[-189,40],[-129,-100],[50,-90],[-227,-93],[-363,-19],[-72,-295],[-22,-518],[498,59],[74,9],[224,-423],[274,-989],[-167,-79]],[[70876,50395],[-201,-70],[-224,-78],[-118,49],[49,273],[-163,82],[-233,-398],[-66,-117],[-216,86],[-174,36],[-118,80],[-102,105],[-82,169],[-195,89],[-213,90],[-28,-31],[-11,-42],[-14,-33],[-282,-63],[-20,92],[-43,192],[-358,-83],[-303,3],[-139,20],[-10,-241],[-149,-76],[100,-195],[-87,-117],[745,-325],[-34,-205],[-169,14],[-62,-376],[34,-72],[67,-137],[157,-127],[109,-87],[66,-53],[-135,-350],[17,-246],[-154,-336],[-84,163],[-95,-163],[-158,45],[-165,46],[-210,61],[-181,-32],[19,-113],[-86,15],[-116,-7],[-21,171],[-405,-88],[7,-154],[-233,-33],[-12,-322],[-128,45],[-116,77],[-124,-341],[-338,235],[-127,-341],[-112,58],[-264,-498],[119,-437],[55,-203],[-470,-29],[3,-164],[-98,-53],[26,-164],[-419,-147],[-323,-120],[-228,-105],[-78,-133]],[[70876,50395],[230,-488],[-158,-571],[41,-165],[75,-301],[-8,-326],[75,-115],[88,-98],[-39,-10],[-160,-54],[-61,-19],[-222,-48],[-51,-10],[-116,-34],[-259,-233],[-325,-366],[-146,-736],[-315,-186],[48,-253],[-206,-187],[-336,-155],[147,-394],[289,-119],[195,-417],[201,-471],[-135,-124]],[[72372,42528],[716,341],[-11,11],[-269,298],[38,270],[149,106],[358,-33],[-1,264],[11,28],[108,290],[232,316],[352,275],[420,511],[47,58],[140,340],[90,112],[190,634],[-77,211],[166,141],[-241,526],[131,159],[70,87],[27,710],[8,229],[9,239],[478,431],[88,79],[94,1938],[284,840]],[[75979,51939],[86,221],[48,200],[32,363],[928,118],[372,336],[210,187],[104,88],[184,-697],[-153,-526],[413,-400],[226,-122],[326,704],[182,166],[152,-54],[401,279],[337,517],[608,-156],[650,260],[124,-145],[125,-193],[216,-49],[69,-112],[-26,-150],[-5,-171],[34,-75],[62,17],[31,106],[25,172],[96,127],[154,77],[316,-13],[-39,168],[126,176],[36,204],[120,96],[536,118],[312,2],[90,59],[38,3],[110,10],[171,48],[119,24],[62,29],[39,38],[46,45],[28,82],[49,127],[38,160],[13,63],[29,117],[27,114],[81,240],[23,56],[69,171],[-94,377],[126,86],[194,96],[48,-103],[374,230],[1157,-656],[303,-426],[-103,-243],[6,-469]],[[86440,54056],[-285,31],[-329,36],[-21,-124],[-37,-226],[-325,-698],[-24,-175],[19,-23],[158,-184],[-294,-188],[-56,-23],[119,-477],[26,-107],[-195,-46],[-225,-105],[-339,-77],[-217,-146],[-133,-173],[-207,-599],[-209,-294],[-157,-172],[-315,-343],[-151,-195],[-348,-447],[-231,-317],[-103,-180],[-52,-221],[-59,-248],[-7,-532],[161,-52],[94,-52],[-32,-131],[4,-272],[286,-265],[124,144],[321,158],[304,70],[118,-65],[157,-86],[146,-156],[57,-147],[50,-190],[41,-134],[11,-123],[13,-82],[64,-115],[74,-148],[165,-709],[16,-585],[-129,-72],[-71,4],[-327,-798],[-96,-156],[-282,-354],[44,-37],[122,-99],[69,-59],[49,-47],[30,-36],[29,-37],[25,-41],[34,-68],[39,-94],[15,-50],[20,-79],[15,-255],[2,-55],[-14,-31],[-51,-51],[-7,-7],[-24,-24],[-19,-45],[-2,-18],[2,-46],[32,-98],[25,-18],[13,1],[24,8],[36,38],[44,32],[51,18],[23,1],[38,-33],[17,-42],[8,-76],[-13,-95],[-28,-99],[-11,-54],[-2,-34],[22,-50],[11,-28],[48,-40],[9,0],[19,12],[25,37],[17,39],[8,14],[36,2],[18,-28],[30,-58],[75,-66],[62,-65],[14,-50],[1,-34],[0,-38],[-20,-42],[-3,-49],[1,-29],[28,-28],[34,-20],[62,-3],[76,4],[63,4],[79,-11],[212,-83],[105,-34],[41,-38],[22,-64],[6,-29],[22,-75],[35,-60],[38,-33],[39,-20],[45,-15],[23,-9],[36,-23],[37,-34],[13,-44],[6,-28],[16,-35],[21,-38],[20,-14],[30,-9],[115,-15],[86,30],[75,69],[13,21],[6,9],[19,22],[8,9],[24,11],[6,-8],[18,-26],[18,-35],[42,-8],[47,-12],[19,-3],[56,4],[57,42],[50,10],[42,-8],[29,-27],[19,-57],[-4,-79],[-14,-62],[-3,-57],[-2,-53],[-6,-53],[-2,-38],[2,-42],[26,-28],[14,-9],[23,-2],[25,1],[17,9],[34,21],[48,3],[26,-34],[6,-32],[13,-46],[-4,-32],[10,-44],[19,-27],[29,-17],[43,-6],[40,8]],[[86918,40054],[-686,-1016],[-156,99],[-303,192],[-20,-25],[-287,81],[-103,-115],[-60,-68],[-267,-294],[-224,-298],[-273,-163],[-237,-141],[89,-88],[388,-383],[148,-153],[11,-12],[113,-181],[7,-41],[35,-199],[1,-214],[-145,-162],[-176,-170],[-354,-355],[-175,-141],[-196,-159],[-701,-474],[-121,-60],[-1866,-934],[-1857,-929],[-271,-161],[-309,-245]],[[78923,33245],[-309,846],[338,304],[486,604],[-115,220],[-188,426],[-48,134],[-14,152],[27,183],[92,227],[107,240],[55,118]],[[79354,36699],[106,168],[-214,164],[-274,436],[67,245],[31,112],[237,187],[-67,366],[-91,77],[-154,267],[-136,315],[-56,140],[-80,70],[-146,120],[-188,197],[-136,209],[-88,249],[-46,161],[-484,-40],[-480,-29],[-237,-61],[-163,-42],[-41,-168],[-131,-107],[-122,23],[-154,29],[-364,-174],[-385,-191],[-368,-56],[-302,65],[-215,116],[-175,128],[-158,149],[-245,-141],[-234,-11],[-178,198],[-152,-58],[-283,-137],[-324,-202],[-588,735]],[[70051,57393],[190,88],[-10,375],[-19,426],[237,470],[471,-112],[206,-239]],[[71126,58401],[140,82],[182,105],[-44,202],[272,71],[8,29],[75,256],[-258,-15],[-127,60],[-49,25],[140,257],[106,194],[148,310],[262,-133],[327,-52],[141,-127],[353,448],[168,136],[225,-73],[135,-479],[360,203],[102,497],[194,-113],[20,-79],[-101,-600],[216,-192],[119,-942],[242,-212],[291,-255],[281,-127],[255,-116],[204,-92],[175,0],[728,458],[591,96],[696,802],[879,342],[345,171],[198,44],[292,66],[239,54],[191,43],[73,311],[-76,307],[165,201],[348,337],[689,156],[160,112],[-7,505],[-82,74],[213,685],[157,-30],[356,-319],[184,-240],[175,-228],[46,-82],[107,-188],[501,-878],[263,-359],[77,173],[365,-50],[18,-40],[12,-22],[12,-38],[1,-39],[-4,-37],[5,-54],[20,-24],[44,2],[62,17],[33,1],[46,-27],[58,-65],[30,-73],[1,-36],[1,-13],[21,13],[373,342],[170,-81],[136,101],[120,179],[177,-88],[270,246],[203,-54],[204,132]],[[85574,60574],[138,-301],[168,-33],[4,-212],[108,-471],[328,17],[-76,-176],[119,-63],[9,-248],[423,154],[142,-2],[215,-87],[120,148],[229,-101],[211,-416],[368,-239],[-51,-95],[56,-187],[333,-333],[373,-22],[213,-182],[146,-328],[-36,-125],[-29,-321],[71,-228],[178,-376],[58,-179]],[[89392,56168],[-42,-269],[-149,-73],[-121,-127],[-145,-232],[-125,-217],[-138,-178],[-140,-76],[-142,-8],[-290,16],[-231,31],[-129,-4],[-105,-35],[-187,-221],[-306,-440],[-278,-204],[-200,-35],[-224,-40]],[[75979,51939],[-1212,591],[-79,39],[-403,869],[-733,393],[-218,117]],[[79354,36699],[-39,-33],[-69,-55],[-190,-97],[-137,-69],[-449,-100],[-179,18],[-185,36],[-173,-7],[-77,9],[-130,-298],[-219,-163],[-154,-231],[-120,-434],[-185,-223],[-135,-124],[-15,293],[-284,-3],[-2,230],[-51,117],[-89,90],[-75,107],[-59,63],[-145,15],[-154,36],[-543,7],[-633,-31],[-364,274],[-105,113],[-345,363],[-374,384],[-137,110],[-228,188],[-149,139],[-124,-289],[-399,323]],[[54000,48575],[-105,64],[-73,476],[-187,434],[-205,115],[-543,-208],[-268,2],[-268,-156],[-256,214],[-645,93],[-147,-112],[-86,61],[-257,-68],[-96,-110],[-495,-23],[-635,-123],[-548,41],[-18,377],[-68,119],[11,298],[100,209],[-135,203],[-175,503],[-32,334],[-83,92],[-65,-11],[-93,302],[-183,-150],[-410,-336],[-203,-373],[-261,256],[-125,-305]],[[47446,50793],[-350,72],[55,345],[-124,1170],[-106,746],[-145,95]],[[46776,53221],[-10,238],[234,77],[219,-55],[9,10],[17,16],[31,29],[111,57],[153,46],[119,83],[133,100],[107,111],[95,216],[51,255],[37,140],[22,143],[15,63],[6,58],[17,66],[7,30],[37,64],[21,27],[38,45],[54,39],[38,21],[30,9],[33,6],[31,24],[23,34],[30,19],[79,32],[43,-19],[53,-81],[65,-144],[83,-123],[100,293],[268,42],[-638,700],[333,429],[-42,455],[-184,-12],[54,488],[-179,307],[48,626],[956,846],[-200,351],[69,701],[-330,336],[289,398],[896,-68],[98,135],[198,271],[170,124],[-108,424],[328,72],[-124,574],[-203,78],[-87,687],[-310,341],[-254,803],[406,321],[-87,273],[-239,263],[199,978],[-264,425],[-751,13],[-22,369],[365,490],[339,102],[68,-713],[248,-310],[591,-398],[115,43],[202,90],[178,155],[77,172],[28,225],[96,107],[120,-154],[-93,-201],[154,-64],[-127,-251],[96,-147],[136,185],[145,325],[214,181],[3,186],[254,145],[119,68],[84,-341],[-134,-669],[116,20],[340,58],[136,-104],[107,219],[160,114],[-26,139],[161,62],[95,-141],[168,-247],[126,231],[241,443],[459,48],[20,306],[358,-175],[362,91],[90,376],[-190,67],[154,525]],[[55352,68158],[117,197],[355,3],[271,347],[194,265],[87,121],[207,433],[389,673],[303,545],[423,189],[123,238],[146,93],[264,-259],[265,-33],[70,-120],[83,-258],[104,-391],[-323,-393],[65,-289],[226,-346],[154,-146],[31,-68],[-83,-159],[-234,-334],[30,-536],[103,-197],[451,178],[149,15],[70,-74],[22,-128],[-273,-246],[-178,-358],[26,-121],[15,-204],[-160,-300],[-82,-214],[31,-143],[176,-441],[230,-823],[95,-279],[-49,-84],[-57,-85],[-49,-84],[-32,-83],[-40,-48],[77,-6],[238,83],[125,66],[187,3],[308,-281],[169,-324],[15,-245],[19,-304],[46,-371],[29,-229],[-7,-154],[-8,-186],[180,-264],[3,-168],[4,-254]],[[42262,57611],[602,-557],[71,-425],[245,-284],[280,-324],[345,-535],[322,-223],[184,-127],[-121,-341],[-162,-214],[66,-568],[110,-495],[271,-74],[658,429],[425,276],[205,18],[545,46],[213,-761],[158,48],[9,-206],[-199,-7],[-9,-92],[84,2],[140,-1],[72,25]],[[47446,50793],[-96,-373],[-233,-394],[-643,-520],[-232,-344],[-270,-187],[-1262,-168],[-760,539],[-466,252],[-484,113],[-353,289],[-229,-361],[-236,-402],[-177,-73],[-668,-374],[-808,-511],[-178,246],[13,18],[9,21],[7,25],[3,27],[0,29],[-2,27],[-4,29],[-10,22],[-8,97]],[[31862,44558],[-174,24],[-91,74],[-121,139],[-276,-308],[-256,-75],[-164,132],[-60,244],[-55,228],[-112,25],[-141,-20],[-70,-96],[-13,-77],[54,-95],[79,-87],[54,-279],[-123,-168],[-11,-235],[-182,-320],[-185,-81],[-154,92],[-117,168],[-146,51],[-168,281],[-122,-237],[-414,-332],[-363,-290],[2,-111],[-175,-141],[-78,206],[-675,198],[-442,4],[-133,259],[-152,15],[-248,23],[-51,-169],[-525,-21],[-504,-230],[-95,-164],[-688,528],[-686,-1000],[-607,-491],[-184,-204],[-57,61],[-96,-69],[91,-162],[-171,-157],[-175,-341]],[[22882,41350],[0,0],[0,0],[0,0],[-237,492],[-142,194],[0,0],[-186,176],[91,115],[0,0],[85,108],[0,0],[-33,88],[0,0],[-48,70],[0,0],[0,0],[-285,-290],[-63,141],[-104,237],[-134,-140],[-170,-299],[-161,-90],[-153,195],[-90,-60],[-11,-7],[0,0],[-116,262],[26,198],[1,10],[93,146],[0,0],[0,0],[-95,116],[-91,112],[-60,186],[-8,121],[-8,120],[0,0],[-39,27],[-429,289],[-364,533],[-53,122],[-6,14],[-3,6],[-63,143],[-61,334],[31,525],[-45,99],[12,126],[-93,243],[8,103],[-47,136],[173,67],[106,164],[253,143],[62,19],[256,82],[146,47],[116,-144],[151,-189],[453,-116],[101,-175],[281,-486],[11,-205],[-61,-66],[-18,-19],[97,-98],[0,0],[51,-130],[0,-1],[16,-17],[18,-20],[87,-26],[38,2],[29,25],[44,108],[4,6],[19,31],[53,85],[-1,0],[0,0],[-63,50],[20,61],[25,73],[36,323],[30,194],[197,102],[37,12],[-63,528],[447,204],[0,0],[-79,197],[27,14],[137,68],[54,152],[159,443],[211,566],[18,49],[-245,-107],[-64,499],[-67,111],[-18,30],[0,0],[-162,151],[-173,162],[0,0],[-890,-490],[-195,-107],[152,683],[3,250],[-51,9],[-1,1],[5,67],[20,94],[5,22],[0,4],[12,53],[-13,37],[0,24],[-7,94],[-5,117],[27,111],[52,157],[17,100],[24,110],[29,111],[13,30],[-7,84],[1,67],[-8,108],[5,119],[28,83],[14,32],[58,103],[25,66],[25,42],[-12,32],[0,48],[-11,66],[18,71],[-19,18],[1,20],[-20,49],[-46,88],[0,0],[-29,-8],[-67,-21],[-15,68],[-20,93],[-155,-21],[-59,-8],[-71,48],[-109,-8],[-2,0],[-28,-27],[-53,-49],[-7,37],[-74,390],[-252,387],[-101,-27],[-64,-17],[-888,-239],[-207,-38],[-332,836],[0,0],[-274,42],[-476,281],[0,0],[-82,497],[68,582],[-70,42],[0,0],[-241,-71],[-191,93],[-257,347],[-320,-157],[-148,520],[-9,33],[-60,212],[13,85],[-115,494],[-17,207],[131,526],[3,0],[96,0],[10,0],[60,130],[248,216],[0,0],[-51,100],[103,71],[125,194],[10,15],[3,3],[340,338],[67,-50],[99,-73],[57,15],[5,1],[154,-64],[23,47],[50,105],[103,127],[58,23],[1,0],[128,51],[18,24],[40,55],[0,0]],[[38918,47260],[262,-613],[84,-363],[234,-548],[138,-316],[364,-255],[129,14],[133,-271],[66,-271],[13,-609],[99,-532],[467,-458],[1268,-674],[319,54],[604,-152],[379,-234],[400,-24]],[[43877,42008],[-8,-724],[-70,-367],[-443,871],[-474,-297],[-89,-416],[-350,32],[-455,-35],[70,-572],[225,-792],[-224,-110]],[[42059,39598],[-365,120],[-513,38],[-415,31],[-383,80],[102,-514],[-193,133],[-146,101],[-269,-76],[-138,-40],[-48,-51],[56,-170],[30,-171],[10,-185],[-3,-154],[-24,-167],[-30,-154],[-39,-172],[-60,-220],[-231,-751],[-205,-827],[-133,-275],[4,-99],[-17,-102],[-2,-138],[-16,-238],[-4,-69],[0,-136],[-1,-199],[-2,-346],[4,-101],[8,-1050],[20,-243],[40,-218],[352,-870],[391,-719],[94,-159],[35,-68]],[[39968,31419],[81,-153],[84,-152],[31,-34],[67,-69],[145,-113],[147,-105]],[[40523,30793],[160,-223],[-93,-280],[-1541,-2002],[-135,-133],[-96,239]],[[38818,28394],[-936,423],[-417,741],[-480,243],[-680,275],[-232,224],[-220,124],[-464,128],[-806,1421],[-630,745],[262,257],[-89,441],[658,748],[26,242],[-26,340],[105,321],[-50,16],[-53,16],[-109,36],[-69,14],[-46,11],[-94,15],[-108,5],[-192,-11],[-327,-317],[-119,176],[4,579],[-147,72],[-374,-79],[-96,-56],[-188,-110],[-45,85],[-139,359],[-124,320],[-114,295],[-401,-215],[-125,-258]],[[31973,36020],[-81,166],[15,380],[168,382],[-369,-85],[-540,155],[-30,917],[436,753],[-101,135],[-432,-359],[-400,-97],[-177,46],[136,168],[149,14],[763,584],[148,1],[251,-261],[273,264],[-119,-214],[147,-195],[-35,-126],[75,-172],[328,188],[-78,-363],[-62,-284],[501,170],[784,828],[54,142],[144,85],[286,-321],[211,298],[35,443],[201,-74],[39,242],[107,-140],[335,248],[-186,302],[476,250],[135,-104],[539,704],[-507,1194],[-871,799]],[[49357,40517],[-1553,-1644],[-201,-65],[-507,266],[-56,209],[-96,317],[-48,430],[-93,830],[-36,318],[-15,140],[-256,-144],[-155,239],[73,314],[-337,233],[-581,136],[-375,17],[-266,-186],[-978,81]],[[52901,73889],[602,-681],[67,-209],[104,-675],[60,-167],[407,-270],[289,-528],[-83,-31],[-71,-65],[-72,-51],[-85,-55],[-64,-40],[-55,-24],[-25,-22],[-15,-20],[-19,-74],[-20,-131],[-24,-140],[-10,-124],[-11,-46],[-28,-38],[-79,-32],[-96,-18],[-126,-8],[-11,-1],[-119,-19],[-73,-24],[-12,-9],[-28,-16],[-86,-87],[-91,-147],[-66,-99],[-101,-122],[120,-122],[37,-262],[239,-125],[53,-290],[102,-202],[170,-145],[89,-118],[232,-243],[65,-68],[106,-594],[148,-105],[260,288],[136,150],[307,290],[154,9],[174,-221]],[[47821,32959],[-324,-568],[-237,-186],[-374,51],[-109,511],[-245,221],[-462,-370],[-811,-131],[-476,21],[-303,359],[60,320],[-170,-17],[-231,-250],[-128,113],[-311,-9],[-127,-81],[-131,-140],[-87,-69],[-106,-48],[-116,-11],[-37,-8],[-126,-28],[-233,-58],[-168,-4],[-231,-12],[-140,-4],[-257,21],[-139,67],[-42,-59],[-616,612],[-392,-191]],[[40752,33011],[36,294],[306,454],[494,201],[-166,548],[253,904],[339,842],[486,365],[298,437],[-4,219],[-72,444],[-90,380],[-266,99],[-207,423],[-25,219],[112,214],[-175,55],[-12,489]],[[38818,28394],[-633,-1288],[55,-131],[-26,-190],[-34,-251],[-26,-195],[-125,7],[-45,1],[-32,8],[-39,24],[-598,529],[-75,53],[-67,51],[-134,-781],[-527,-15],[-185,-137],[-65,-649],[17,-667],[-597,-26],[-422,-161],[-204,-3069],[-328,-810],[0,0]],[[34728,20697],[-14,-9],[-444,-276],[0,-1],[-27,-34],[-115,-148],[-532,-327],[-3,-2],[-146,-104],[-71,-24],[-32,-11],[-56,71],[-255,67],[-285,-160],[-52,-29],[0,0],[0,0],[-86,-93],[-161,-26],[0,0],[-577,960],[-112,342],[0,0],[-17,129],[-23,294],[4,51],[140,723],[99,314],[-30,184],[-25,70],[-21,43],[-46,93],[-7,29],[-8,316],[27,101],[4,161],[-12,78],[-40,93],[-12,50],[-35,290],[-91,142],[-46,48],[-110,77],[-28,37],[-11,25],[-7,46],[-5,32],[-22,75],[-7,25],[-30,210],[14,113],[14,123],[29,99],[23,24],[167,177],[21,102],[92,144],[12,47],[3,82],[16,49],[83,122],[80,45],[-64,333],[-39,-17],[-149,-69],[-182,273],[-17,53],[-63,196],[-9,27],[0,0],[-151,182],[1,6],[19,79],[-325,108],[-151,173],[-150,104],[-66,95],[-40,76],[-7,13],[-26,141],[-17,85],[-168,-186],[0,0],[-333,-149],[-40,-141],[-253,-94],[-286,-26],[-212,571],[-64,115],[-24,292],[-11,128],[-60,170],[199,471],[87,206],[275,570],[76,492],[38,16],[26,99],[-12,100],[-32,289],[-30,263],[-102,478],[1,1],[179,107],[215,537],[-127,34],[-57,-41],[-2,-2],[-61,66],[-383,254],[-25,-21],[-27,-22],[-18,11],[-160,133],[-89,221]],[[29039,32556],[515,286],[166,-428],[184,-285],[300,-242],[171,109],[-194,391],[468,327],[414,1099],[208,802],[77,298],[625,1107]],[[35084,20265],[-350,425],[-6,7],[0,0]],[[40523,30793],[63,38],[195,-53],[211,-22],[141,-5],[122,-19],[136,0],[129,-12],[124,-5],[122,-14],[107,-24],[110,-34],[87,-42],[322,-179],[101,-63],[95,-62],[89,-46],[105,-46],[95,-33],[100,-29],[100,-38],[114,-32],[133,-35],[131,-28],[136,-22],[128,-22],[155,-12],[152,-7],[111,-8],[137,-29]],[[29039,32556],[0,0],[-329,-335],[-145,-106],[0,0],[-170,-20],[-108,435],[-42,373],[-40,30],[-31,16],[84,216],[-19,39],[-13,28],[-115,246],[-128,-56],[-4,-2],[-86,-37],[-136,142],[-31,61],[-89,172],[-122,-34],[-91,264],[-419,845],[-220,115],[-38,-237],[-144,83],[-221,52],[-24,6],[24,307],[-189,27],[-104,122],[-199,245],[-119,374],[-93,161],[-242,158],[-475,-87],[-2,-18],[-15,-132],[-9,-5],[-191,-96],[-102,449],[-131,342],[0,0],[-18,47],[0,0],[-84,5],[-209,149],[-338,714],[-100,340],[-127,138],[-77,86],[-54,155],[-147,165],[-592,496],[-179,256],[-321,583],[83,215],[-55,45],[264,599],[214,339],[0,0],[-28,43],[44,87],[0,0],[95,189]],[[39968,31419],[79,79],[291,0],[187,205],[16,360],[-39,602],[250,346]],[[89392,56168],[376,-618],[64,-73],[-284,-676],[340,-401],[109,-72],[-438,-498],[-448,-492],[237,-85],[-259,-607],[-8,-158],[709,95],[44,-188],[215,-37],[-21,249],[255,-7],[209,-108],[-111,-268]],[[90381,52224],[-149,-491],[-225,110],[-331,-3],[-436,-47],[-380,-129],[-242,-7],[-243,29],[-228,110],[-123,-83],[-165,-118],[-164,-105],[-71,-45],[-20,-210],[120,-710],[26,-532],[109,-71],[47,-47],[15,-48],[22,-74],[2,-21],[9,-23],[46,-122],[40,-85],[21,-84],[24,-111],[4,-118],[3,-49],[3,-49],[8,-55],[18,-16],[51,-48],[78,-199],[17,-87],[18,-98],[13,-65],[92,-76],[129,36],[192,-574],[27,-390],[-118,-365],[1269,-343],[764,64],[-455,-3658]],[[90198,43217],[-1030,-302],[-461,-37],[-32,-186],[77,-76],[-114,-628],[207,-181],[37,-385],[-648,-645],[-273,-503],[-262,-249],[-220,-74],[-32,-149],[-88,31],[-39,30],[-81,61],[-118,76],[-116,59],[-47,-3],[-40,-2]],[[91072,3319],[-928,1186],[34,230],[107,717],[157,1099],[20,138],[153,-34],[31,150],[169,252],[-12,123],[-134,110],[-222,692],[-118,117],[-84,66],[-69,-149],[-56,-64],[-77,-70],[-835,644],[18,102],[-223,125],[-284,52],[-267,168],[43,282],[-271,92],[31,231],[-35,452],[-140,-102],[-275,-81],[-42,396],[-466,1186],[-582,-260],[-19,93],[-299,-285],[-93,126],[206,338],[4,324],[2,135],[282,132],[-43,203],[249,98],[248,430],[-255,185],[-404,165],[-238,-72],[-290,-303],[-200,81],[-125,50],[-410,386],[194,573],[-149,227],[-232,105],[-38,-81],[-46,-104],[-20,-81],[-9,-62],[-25,-121],[-8,-51],[-13,-105],[-65,-147],[-68,-110],[-10,-9],[-70,-90],[-39,-72],[-14,-43],[-141,91],[-321,100],[-293,-442],[-332,-46],[-210,-555],[-354,430],[-470,217],[-239,401],[-262,176],[-246,306],[-127,504],[-130,744],[141,328],[-268,274],[-185,-19],[-123,-12],[-403,89]],[[80755,15670],[7,447],[92,378],[-38,366],[-190,750],[-28,314],[-87,974],[-500,-35],[-82,-283],[-456,-351],[-25,-66],[-41,-89],[-678,547],[-82,626],[22,2137],[442,1371],[44,1027],[64,193],[-26,265],[49,295],[165,199],[183,137],[83,315],[-976,672],[-123,177],[-82,285]],[[78492,26321],[117,11],[50,-95],[472,241],[-11,324],[-68,293],[39,531],[159,332],[140,-63],[33,113]],[[79423,28008],[333,216],[123,282],[233,155],[144,215],[196,52],[-153,481],[229,434],[570,296],[368,42],[187,-90],[1000,-746],[564,345],[131,240],[555,279],[465,42],[104,-285],[111,-143],[273,-129],[286,-120],[122,-87],[76,-86],[-7,669],[105,325],[87,123],[100,142],[121,621],[325,316],[243,31],[115,145],[248,88],[-110,130],[444,320],[90,284],[275,330],[260,626],[275,275],[93,227],[355,513],[412,287]],[[88771,34853],[241,394],[134,-50],[289,-150],[262,-123],[-122,-173],[194,-52],[605,-853],[-338,-258],[-9,-93],[14,-54],[59,0],[165,204],[97,-92],[17,-128],[-49,-146],[-39,-49],[-143,21],[-130,104],[-101,-86],[18,-110],[-256,-178],[-35,185],[-176,18],[-565,-616],[-337,-374],[-214,-422],[-36,-320],[297,-451],[653,-94],[363,-243],[190,-127],[-103,331],[337,86],[347,-155],[-248,-490],[-139,-418],[40,-428],[-80,-369],[-231,-240],[-161,37],[-190,43],[-59,-104],[44,-374],[-209,-231],[7,-69],[-41,-23],[-39,27],[-72,47],[29,-94],[25,-77],[61,-99],[87,-79],[49,-28],[77,-4],[55,3],[49,-24],[77,-32],[79,-14],[56,18],[32,26],[28,38],[63,-9],[65,-29],[53,-36],[44,-16],[47,-1],[75,18],[157,132],[46,40],[37,7],[49,-28],[34,23],[6,43],[-5,25],[-4,29],[-13,19],[-39,56],[-18,71],[4,10],[7,18],[52,11],[41,30],[0,48],[-14,35],[-24,38],[-2,51],[8,58],[22,73],[10,64],[16,79],[8,21],[11,28],[29,38],[34,2],[19,-59],[34,-82],[23,-53],[45,-1],[26,44],[22,89],[135,41],[304,-8],[-30,-401],[-55,-126],[-65,-150],[55,-146],[94,46],[129,-477]],[[91261,27506],[-254,-33],[-288,-135],[67,-241],[-269,-320],[38,-201],[-178,-212],[64,-829],[-13,-215],[-188,-367],[-449,-442],[-123,-188],[-328,-78],[-222,-219],[-57,-161],[208,-102],[-190,-185],[494,-303],[-189,-243],[-185,-409],[-155,-128],[505,-743],[217,-112],[606,-536],[108,-217],[-142,-13],[-12,-425],[-39,-328],[110,-53],[-46,-247],[-118,26],[-28,-158],[-169,-173],[-103,-163],[-15,-158],[28,-356],[68,-148],[206,-199],[-122,-208],[-380,-325],[-25,-250],[71,-121],[146,-143],[525,344],[87,-223],[38,-313],[85,-361],[456,-552],[91,-195],[350,-751],[201,-319],[104,-81],[96,-99],[30,-94],[32,-69],[34,-28],[83,-186],[535,-37],[416,-216],[63,-114],[207,-79],[304,-181],[123,-147],[-78,-206],[-139,-362],[-85,-163],[4,-315],[23,-276],[26,-302],[219,-350],[473,-191],[102,-335],[98,-70],[-20,-169],[95,-98],[-15,-163],[38,-280],[124,-356],[109,-10],[3,-217],[136,-231],[373,-331],[679,40],[101,-389],[42,-163],[296,392],[73,275],[212,-85],[-1,-2],[-8,-11],[-26,-38],[0,0],[-43,-21],[-80,-40],[-33,-37],[-14,-15],[-336,-642],[0,0],[-48,-120],[-24,-101],[1,-26],[2,-82],[-41,-170],[-53,-219],[-2,-44],[-4,-97],[0,0],[16,-112],[96,-653],[0,0],[23,-302],[9,-266],[17,-79],[0,0],[-21,-3],[-116,-15],[0,0],[-4,-53],[-4,-58],[43,-131],[75,-134],[-601,139],[-1057,-124],[-375,381],[-1104,-89],[0,0],[-505,-400],[-305,-241],[-36,-36],[-82,-80],[-159,-158],[-285,-282],[-154,-242],[-97,-278],[-1,-3],[0,-1],[-149,-744],[-8,-179],[-2,-54],[-65,-148],[-26,-60],[0,0]],[[91072,3319],[-181,-151],[-55,-45],[0,0],[-17,-33],[-85,-159],[-65,-36],[-38,-21],[-136,-550],[0,0],[-2,-53],[-4,-141],[-251,-340],[-96,-204],[-81,-173],[-120,-401],[-494,-448],[-181,130],[-852,250],[11,263],[111,522],[16,453],[-211,176],[0,0],[-110,-276],[-86,-21],[-86,-12],[-29,-39],[-36,-17],[-32,-6],[-150,152],[-237,190],[-184,9],[0,0],[-58,-50],[-70,-60],[-279,20],[-66,-182],[-4,-10],[-9,-24],[-82,0],[-1581,880],[-31,17],[-328,321],[-28,196],[-611,-262],[-143,26],[-98,-15],[-5,0],[-46,-7],[-216,-213],[-315,-224],[-946,-241],[-438,13],[0,0],[-1,0],[-233,-115],[-9,-5],[-172,-10],[-139,-8],[-113,-6],[0,0],[-53,-174],[-3,-2],[-223,11],[-12,0],[0,0],[0,0],[0,0],[-64,-102],[-46,-41],[-48,-43],[-2,-40],[-12,-233],[-8,-160],[-1,-17],[-353,-883],[-71,-33],[-78,-36],[-8,-4],[-12,-6],[-7,-3],[-128,365],[53,172],[1,71],[2,102],[-13,79],[-12,73],[-36,103],[-17,51],[0,0],[-3,45],[-12,160],[-1,9],[0,0],[-272,395],[-184,260],[-1,1],[-95,136],[-3,5],[81,83],[18,18],[-120,310],[-301,-33],[-30,177],[-119,340],[0,0],[-8,125],[-138,20],[-9,-59],[-30,-191],[-589,41],[-2,0],[73,-315],[0,0],[-144,-68],[-217,187],[-34,-25],[-216,-154],[-1,0],[-28,-13],[-349,-157],[-160,286],[-94,-48],[-10,-5],[-158,-330]],[[77063,2829],[-129,111],[-75,172],[4,446],[-204,255],[77,488],[-87,819],[76,495],[152,990],[153,253],[-207,422],[422,458],[407,710],[261,207],[295,205],[842,893],[139,455],[-538,1257],[2,350],[1,271],[3,561],[468,700],[280,11],[254,162],[264,399],[355,1073],[201,346],[224,-55],[52,387]],[[90381,52224],[964,-432],[298,-154],[-16,-301],[165,-255],[376,-98],[153,-127],[340,12],[243,-15],[186,-254],[307,201],[227,119],[356,55],[521,2],[517,-74],[406,-129],[-93,-1014],[244,101],[164,7],[614,-63],[339,-128],[-58,-777],[-175,-149],[-14,-887],[34,-234],[195,64],[96,33],[175,88],[148,99],[137,82],[408,173],[177,119],[1434,1022],[200,46],[176,-105],[49,-95],[92,-136],[72,-531],[-218,-264],[-421,-317],[-193,-222],[46,-259],[374,-560],[288,-272],[176,-287],[-302,-408],[-261,27],[-267,-26],[-290,-119],[58,-225],[-153,-458],[226,66],[373,61],[131,3],[108,-5],[34,-264],[-66,-228],[266,-265],[66,156],[187,-229],[-105,-256],[-166,-41],[-4,-250],[162,-24],[-295,-673],[1,-222],[97,-130],[-52,-191],[-337,-136],[43,-155],[-92,-543],[-255,-362],[51,-165],[-95,-236],[-443,-636],[-392,-582],[-214,21],[-125,-231],[-105,-132],[-159,68],[-1,-313],[294,-400],[65,181],[77,89],[65,157],[110,126],[135,171],[227,43],[204,11],[223,-11],[75,-421],[74,-231],[52,-168],[-5,-322],[-403,-457],[-27,-186],[143,-161],[42,-155],[-201,27],[-218,146],[-331,-105],[-47,-149],[-71,-227],[-201,-234],[-13,-256],[73,-311],[-180,-379],[25,-173],[29,-613],[267,-560],[252,-99],[-1022,-2127],[-185,-206],[-103,-171],[-256,330],[-191,82],[-182,-302],[74,-250],[-53,-389],[-148,74],[-190,61],[-172,81],[-479,559],[83,286],[-310,-154],[-268,-133],[-198,-212],[-126,129],[-183,11],[-278,-69],[-322,-284],[-144,-186],[-210,-133],[47,-143],[79,-239],[182,-104],[196,-146],[148,-159],[211,32],[66,-173],[14,-291],[-31,-263],[-141,-375],[-65,-299],[-214,-369],[-51,-192],[-135,-153],[-122,-138],[-315,-236],[-216,-265],[-78,132],[-299,-336],[-192,-230],[279,-550],[-80,-411],[-228,-806],[-185,-102],[-310,419],[-331,318],[-159,416],[-149,146],[-52,129],[6,359]],[[88771,34853],[-151,213],[-459,650],[298,518],[735,-374],[409,154],[694,-138],[27,-232],[84,-24],[128,114],[40,54],[30,66],[0,104],[-69,189],[-38,90],[38,44],[39,55],[35,60],[15,59],[-2,58],[-11,45],[-9,127],[-16,39],[-20,48],[-55,30],[-43,-6],[-54,-32],[-15,-8],[-15,25],[-15,24],[-9,43],[-10,54],[-24,50],[-35,18],[-53,9],[-50,18],[-40,16],[-31,17],[-26,35],[-9,38],[-23,35],[-6,10],[-61,47],[-31,516],[166,241],[139,-159],[376,525],[26,297],[571,478],[135,522],[308,135],[-46,281],[-210,50],[33,359],[-124,38],[-102,46],[-77,311],[-184,734],[-110,79],[-231,37],[-150,235],[-120,468],[-166,266],[1,563]],[[79423,28008],[-90,662],[111,756],[34,231],[29,595],[-146,282],[155,460],[49,124],[205,112],[209,132],[-109,340],[-233,-159],[-714,1702]],[[73825,24340],[155,-46],[198,92],[517,-256],[174,-433],[317,278],[376,52],[389,321],[245,684],[58,-534],[160,-453],[91,160],[208,151],[328,116],[381,134],[-163,321],[-136,269],[308,491],[-34,228],[-27,173],[615,217],[507,16]],[[77063,2829],[-25,-74],[-143,-424],[-125,-240],[-76,-146],[0,0],[0,0],[77,-96],[-53,-137],[0,0],[-36,-94],[-63,32],[-280,154],[-114,234],[-40,61],[-200,227],[-94,44],[-42,98],[-31,29],[-98,30],[-590,119],[-78,80],[-191,313],[-190,91],[-227,9],[-16,11],[-173,423],[-203,145],[-24,45],[0,83],[7,316],[-11,131],[-17,59],[-126,213],[-77,186],[-42,416],[-10,15],[-41,60],[-73,50],[-71,116],[-41,221],[-52,51],[-105,16],[0,0],[-222,-13],[-91,-33],[0,0],[-321,-254],[-132,-52],[-1,0],[-307,-48],[-537,-84],[-90,-55],[-106,-99],[-50,-26],[-32,-17],[-79,1],[-58,89],[-45,221],[-24,309],[23,422],[16,121],[31,121],[13,56],[35,82],[19,47],[109,158],[90,132],[471,426],[48,60],[44,55],[74,157],[29,117],[-15,80],[-34,23],[-35,23],[-71,6],[0,0],[-325,-30],[-93,27],[0,0],[-2,4],[-31,87],[1,81],[0,0],[25,117],[-7,97],[-97,142],[-187,65],[-1,0],[0,0],[-170,25],[-119,18],[0,0]],[[88381,74667],[-145,-14],[-58,-71],[-63,-38],[-63,-4],[-61,6],[-72,21],[-120,72],[-48,23],[-116,-2],[-34,-34],[-84,-49],[-125,-13],[-119,-51],[-76,-52],[-97,-118],[-48,-91],[-81,-171],[-10,-36],[-32,-140],[8,-61],[10,-85],[29,-92],[-54,-78],[-217,50],[-277,-159],[-567,-22],[-1157,943],[-394,-31],[-395,363],[-165,-25],[-148,2],[-31,104],[-75,70],[-52,78],[-62,116],[-20,10],[-67,-12],[-82,19],[-87,17],[-73,29],[-112,77],[-114,41],[-75,55],[-65,62],[-89,66],[-87,75],[-111,67],[-76,64],[-120,-719],[-618,-807],[-187,32],[-142,-73],[-283,-230],[-14,119],[6,191],[38,274],[31,244],[329,601]],[[81364,75280],[-145,309],[-22,136],[-77,53],[-123,19],[-86,66],[-23,332],[-77,112],[78,147],[56,197],[-7,194],[-26,161],[-176,266],[-82,195],[-32,416],[-216,655],[116,707],[115,58],[-11,211],[-35,66],[-99,175],[65,40],[167,157],[52,21],[20,83],[-61,756],[-741,63],[-196,-185],[-133,120],[-183,44],[-278,-225],[-164,447],[-200,24],[-88,-217],[-134,-83],[-55,214],[-311,-65],[35,288],[73,171],[-12,329],[-84,70],[-5,378],[-544,145]],[[77715,82330],[-123,416],[65,565],[862,1080],[634,-48],[639,290],[565,597],[662,1271],[526,103]],[[81545,86604],[-58,-115],[23,-31],[242,-309],[78,-101],[290,-51],[245,-45],[308,-57],[211,-39],[370,145],[305,464],[276,-95],[142,82],[201,115],[274,74],[103,390],[-94,140],[-15,276],[136,123],[307,57],[389,38],[179,-45],[116,-29],[40,98],[69,166],[341,317],[23,20],[134,257],[119,662],[10,59],[100,164],[216,188],[160,25],[175,-21],[151,-21],[-69,-181],[-68,-193],[-61,-253],[-41,-206],[-59,-209],[-132,-244],[-134,-260],[-55,-240],[-11,-199],[30,-322],[129,-246],[218,-240],[160,-240],[137,-583],[-160,-214],[165,-312],[175,5],[193,3],[148,-227],[23,-96],[-13,-124],[-66,-184],[21,-732],[-90,-59],[20,-408],[0,-102],[117,-470],[179,-186],[-97,-99],[-10,-560],[79,-191],[18,-183],[9,-216],[-9,-276],[-4,-301],[-16,-124],[-21,-92],[2,-81],[30,-61],[69,-55],[90,5],[77,13],[83,0],[96,-21],[409,-201],[375,-175],[92,-35],[98,-13],[98,1],[136,3],[598,32],[221,12],[37,-161],[-167,-156],[-161,-334],[71,-345],[109,137],[185,-545],[395,-241],[281,-552],[-276,-335],[81,-285],[-380,-225],[-267,-151],[-227,-8],[14,229],[209,167],[129,101],[-68,205],[-270,-191],[-38,88],[-125,343],[-298,-158],[-159,-91],[41,-237],[-120,-46],[-189,-111],[-153,-175],[-97,-277],[-115,-40],[184,-531],[133,-206],[29,-94],[-133,-40],[-76,-53],[-140,-89],[-101,-31],[-86,-70],[-88,-99],[37,-373],[-59,-248],[-51,-270]],[[60933,61772],[279,210],[445,1059],[277,-118],[388,855],[317,162],[476,-33],[391,-27],[483,214],[-72,119],[-88,143],[-25,518],[162,326],[91,108],[113,135],[88,362],[278,506],[207,156],[212,-12],[56,321],[574,463],[278,-144],[-124,572],[-215,490],[483,192],[-142,391],[258,743],[183,253],[28,186],[-103,40],[66,443],[118,261],[200,64],[324,472],[-224,228],[-120,121],[129,227],[173,118],[268,-30],[223,-105],[74,399],[-233,316]],[[67229,72476],[65,69],[528,284],[-87,268],[900,1152],[284,-300],[329,291],[68,-393]],[[69316,73847],[-585,-499],[-454,-187],[-296,-5],[-48,-192],[95,-383],[286,-312],[307,-142],[271,-199],[242,-392],[256,-532],[310,-803],[264,-286],[-242,-363],[79,-2164],[157,-649],[391,-752],[377,361],[94,-172],[627,17],[97,-387],[408,168],[203,-261],[-175,-31],[1,-386],[-678,-16],[-449,-527],[-145,-28],[3,-307],[-166,77],[-41,-202],[-42,-540],[20,-576],[9,-170],[52,-485],[46,-218],[103,-391],[171,-253],[150,-106],[215,-354],[80,-381],[-304,-66],[70,-497],[-35,-417],[5,-502],[27,-473],[54,-463]],[[81364,75280],[-285,-199],[-257,-261],[-751,-1168],[-1123,-226],[-38,233],[-305,-306],[-353,-929],[-99,-54],[-694,-378],[-88,-48],[-104,-56],[-37,-39],[1,-29],[8,-116],[-4,-94],[-19,-41],[-20,-55],[0,-69],[18,-40],[45,-33],[43,-26],[-78,-102],[-205,-139],[-114,166],[-100,-224],[-277,-57],[-231,97],[-170,-305],[-270,136],[-106,1344],[-201,386],[111,604],[-270,253],[-336,817],[26,628],[-154,-106],[-168,-116],[-752,152],[-240,513],[62,386]],[[73829,75779],[-220,496],[-19,285],[-304,107],[-24,569],[-152,358],[242,301],[-204,933],[133,63],[173,-129],[-40,241],[-141,222],[182,160],[37,169],[-21,284],[212,319],[90,331],[170,247],[196,55],[127,36],[627,784],[-115,171],[226,73]],[[75004,81854],[189,-18],[326,-626],[925,-353],[745,1068],[526,405]],[[75004,81854],[-90,1183],[-87,164],[-289,-22],[-213,-446],[-1077,31],[-353,452],[-341,-244],[-359,-9],[-387,-73],[-199,-136],[-386,236],[-168,448],[-551,-281],[-261,-17],[22,-253],[-263,-318],[-275,345],[-311,-182],[-72,-180],[347,-360],[184,-274],[35,-121],[192,-740],[-211,-277],[-250,-501],[-275,-159],[-167,-184],[-185,163],[-198,74],[-251,22],[-46,245],[-85,49],[-34,-45],[-142,-99],[-156,-83],[-131,-286],[-355,-354],[-157,-566],[-288,-568],[-11,-275],[-311,-46],[-630,192],[-105,-74],[-12,-228]],[[66102,78057],[-144,13],[-167,-61],[-635,74],[-248,2],[-10,-33],[-93,-313],[-617,288],[-29,200],[-116,-57],[-100,80],[7,362],[-248,-381],[-149,140],[-453,-238],[-138,273]],[[62962,78406],[-193,183],[150,163],[64,224],[-21,330],[-39,603],[-7,120],[147,185],[-70,404],[-227,134],[-456,13],[-136,475],[-292,166],[-137,367],[-277,-225],[-299,45],[127,580],[-113,247],[2,309],[-249,238],[12,417],[-165,249],[-21,477],[121,57],[-45,320],[-165,134],[-198,161],[186,452],[64,158],[-166,334],[424,831],[297,199],[-144,216],[455,257],[245,22],[188,17],[256,-8],[465,-487],[152,154],[190,350],[-90,447],[-104,159],[442,459],[279,667],[-75,83],[-133,147],[-403,223],[-183,255],[-367,176],[92,285],[567,-351],[228,-108],[89,-178],[230,346],[108,-178],[352,315],[127,-209],[80,15],[127,24],[176,243],[199,-93],[342,174],[101,257],[57,670],[-56,213],[142,63],[-173,358],[-304,583],[408,1484],[-209,0],[-284,-62],[-439,-163],[-317,547],[-445,167],[-80,145],[-107,62],[-263,153],[209,370],[-627,1871],[37,239],[-368,116],[-305,239],[117,622]],[[62264,98112],[390,-213],[449,507],[279,358],[599,1053],[160,182],[283,-210],[1012,-666],[861,-507],[146,-19],[372,-102],[294,-194],[360,-513],[137,-202],[380,-557],[374,-1084],[66,-141],[227,-371],[85,-143],[121,-206],[211,-270],[15,-143],[316,-901],[155,-300],[-101,-332],[315,-191],[-10,-189],[77,-314],[125,-32],[270,544],[113,247],[258,-44],[151,-126],[178,6],[142,-55],[-88,446],[43,170],[173,-21],[124,-218],[18,-412],[108,-209],[19,-402],[313,-51],[94,-57],[112,28],[170,-278],[224,101],[386,-320],[603,-69],[495,51],[149,30],[133,31],[142,41],[153,52],[257,118],[133,67],[154,115],[109,102],[74,121],[49,95],[54,198],[99,297],[39,71],[93,65],[81,46],[132,28],[151,9],[79,-4],[121,-39],[129,-52],[113,-96],[571,-791],[375,-283],[305,17],[484,365],[122,-240],[10,-601],[-144,-650],[-71,-613],[-166,-17],[110,-259],[115,-271],[184,11],[473,-345],[172,-126],[126,-356],[76,-80],[103,-35],[134,-86],[35,-156],[5,-553],[115,-60],[185,273],[255,-77],[235,13],[127,203],[299,-129],[591,72],[372,-73],[75,-158],[140,-152],[167,-201],[-118,-322],[-66,-311],[-163,-443]],[[51114,95067],[-99,330],[98,213],[157,70],[229,-158],[100,-93],[298,-133],[243,-51],[392,-42],[447,362],[445,106],[259,-13],[291,24],[168,-245],[150,-67],[98,-271],[40,-264],[178,82],[144,-37],[137,384],[-273,157],[27,232],[-102,156],[31,182],[562,-302],[136,-138],[264,334],[-91,88],[-146,188],[-20,45],[-54,126],[-30,184],[-22,202],[8,164],[45,41],[84,20],[98,59],[48,89],[18,83],[-8,109],[-21,101],[-62,117],[-73,125],[-78,106],[-21,30],[-50,74],[-73,93],[-17,71],[-4,87],[27,83],[17,93],[-11,81],[-43,60],[567,536],[212,203],[404,179],[330,-140],[-59,-588],[119,-638],[15,-492],[190,-179],[354,271],[-8,223],[137,210],[118,185],[109,184],[133,-319],[391,299],[237,-54],[185,304],[342,269],[227,92],[35,286],[317,91],[53,-256],[-122,-346],[295,41],[646,133],[129,-132],[75,345],[178,135],[6,-170],[26,-207],[-7,-176],[-64,-129],[-88,-123],[-100,-112],[-103,-155],[-37,-137],[5,-148],[41,-139],[61,-337],[-21,-104],[-83,-130],[-97,-137],[-70,-156],[-19,-164],[18,-269],[59,82],[71,95],[100,148],[79,93],[88,71],[109,37],[85,63],[67,134],[63,165],[54,167],[84,171],[106,129],[93,83],[98,71],[109,119],[55,99],[98,151],[19,46],[191,105],[208,-129],[296,-241]],[[62962,78406],[-112,-264],[-423,-373],[-295,-194],[-466,-78],[-223,-289],[-281,15],[-320,-323],[-72,-464],[-217,29],[-196,-194],[-77,-253],[-168,-24],[-89,102],[-190,-286],[-307,-92],[-189,85],[-58,-282],[-295,-49],[-213,77],[-247,381],[-147,-198],[-346,-166],[-128,-53],[-122,-179],[-150,262],[-274,50],[-136,163]],[[67229,72476],[-212,325],[189,396],[-294,77],[-53,319],[212,234],[115,300],[-549,321],[-88,559],[146,26],[139,216],[-65,258],[-194,444],[153,10],[-3,194],[-175,81],[-317,215],[141,257],[-100,140],[-94,152],[-69,231],[-40,197],[-15,235],[25,237],[21,157]],[[73829,75779],[-465,-154],[-207,-335],[-96,-156],[-926,-682],[-654,77],[-436,-56],[-724,-534],[-822,-184],[-183,92]],[[88381,74667],[327,-219],[-83,-58],[-66,-96],[-84,-206],[-24,-153],[14,-74],[38,19],[102,-27],[120,-58],[82,-58],[35,-137],[22,-212],[-221,-193],[-126,-325],[-35,-164],[-27,-602],[-42,-244],[-82,-482],[-164,-255],[205,-205],[-263,-263],[-98,-70],[130,-100],[309,-12],[230,-91],[553,-27],[87,-91],[86,-90],[221,224],[169,49],[280,-900],[136,-393],[267,-222],[88,-258],[-9,-332],[-179,-203],[-147,-247],[-77,-212],[-2,-155],[49,-275],[-165,-139],[-172,-247],[-738,-448],[-11,-175],[-328,-243],[62,-453],[-503,-149],[-397,-151],[-256,-84],[-147,-253],[14,-299],[5,-178],[-299,-107],[-199,71],[-165,-25],[-219,-149],[-354,-241],[-230,-125],[-515,-137],[-243,-198],[-355,-282],[127,-297],[195,-191],[279,-193],[84,-261],[163,9],[-279,-679],[136,-166],[-342,-182],[224,-704]],[[12297,64582],[-301,341],[0,0],[-379,709],[-437,487],[-145,161],[0,0],[-262,551],[-292,44],[-98,316],[0,0],[0,0],[-73,-106],[-102,-148],[-679,-446],[-145,215],[-233,84],[-83,276],[-539,283],[-193,183],[-248,-277],[-236,274],[-204,290],[-247,395],[128,173],[-531,675],[-158,36],[-96,-118],[-21,-26],[-18,-21],[-536,163],[-225,-411],[-74,-210],[-257,-408],[-113,-85],[-103,-78],[-375,-448],[-71,-61],[-52,-43],[-36,-31],[-302,-216],[-119,110],[-225,-149],[-327,-218],[-69,-22],[-107,-35],[-125,-40],[-135,14],[-50,5],[-230,43],[-256,186],[-572,150],[-45,12],[0,0],[34,-195],[-65,-128],[-359,-60],[-22,-3],[-55,-10],[-9,37],[-89,351],[-163,5],[0,0],[4,84],[-35,8],[-55,14],[-2,0],[0,0],[5,352],[-169,72],[-32,12],[-118,48],[-32,13],[0,7],[-100,35],[56,531],[2,683],[0,1101],[46,574],[89,720],[-37,350],[-125,433],[-33,186],[-5,480],[16,531],[48,456],[15,241],[-12,212],[0,0],[0,0],[-14,78],[-8,39],[-18,107],[-24,167],[-24,135],[-2,15],[-4,51],[-7,56],[-10,64],[-9,52],[0,0],[0,0],[-454,1780],[-244,1034],[-155,809],[-106,409],[-20,196],[18,220],[25,109],[198,482],[199,416],[115,171],[459,533],[339,695],[282,375],[387,507],[122,204],[171,249],[233,45],[264,-351],[372,-240],[220,35],[234,-183],[291,124],[247,-54],[434,147],[344,-207],[171,-44],[134,-35],[301,-137],[86,-132],[-61,-456],[223,131],[162,11],[240,323],[342,186],[5,184],[552,247],[237,-217],[91,-83],[441,-212],[49,-280],[356,47],[140,-398],[315,-114],[187,305],[114,-147],[-100,-214],[147,-304],[-65,-163],[225,-222],[392,367],[282,329],[11,13],[261,138],[97,225],[139,-86],[152,-93],[33,-20]]],"transform":{"scale":[0.000010479814260000006,0.000005275120404204007],"translate":[6.3557918021,49.11193151980001]},"objects":{"communes_sarre":{"type":"GeometryCollection","geometries":[{"arcs":[[0,1,2,3,4,5,6,7,8,9,10]],"type":"Polygon","properties":{"id":"10041100","name":"Saarbrücken","subdivision":"Saarbrücken","cx":7.007,"cy":49.24}},{"arcs":[[11,12,13,14,15,16]],"type":"Polygon","properties":{"id":"10041511","name":"Friedrichsthal","subdivision":"Saarbrücken","cx":7.086,"cy":49.332}},{"arcs":[[-7,17,18]],"type":"Polygon","properties":{"id":"10041512","name":"Großrosseln","subdivision":"Saarbrücken","cx":6.822,"cy":49.182}},{"arcs":[[-11,19,20,21,22,23,24,25]],"type":"Polygon","properties":{"id":"10041513","name":"Heusweiler","subdivision":"Saarbrücken","cx":6.947,"cy":49.347}},{"arcs":[[26,27,28,29,30,31]],"type":"Polygon","properties":{"id":"10044111","name":"Dillingen/Saar","subdivision":"Saarlouis","cx":6.733,"cy":49.366}},{"arcs":[[-5,32,33]],"type":"Polygon","properties":{"id":"10041514","name":"Kleinblittersdorf","subdivision":"Saarbrücken","cx":7.063,"cy":49.155}},{"arcs":[[-9,34,35,36,37,-21,38]],"type":"Polygon","properties":{"id":"10041515","name":"Püttlingen","subdivision":"Saarbrücken","cx":6.898,"cy":49.292}},{"arcs":[[-1,-26,39,40,-14,41]],"type":"Polygon","properties":{"id":"10041516","name":"Quierschied","subdivision":"Saarbrücken","cx":7.029,"cy":49.324}},{"arcs":[[-10,-39,-20]],"type":"Polygon","properties":{"id":"10041517","name":"Riegelsberg","subdivision":"Saarbrücken","cx":6.943,"cy":49.309}},{"arcs":[[-2,-42,-13,42,43]],"type":"Polygon","properties":{"id":"10041518","name":"Sulzbach/Saar","subdivision":"Saarbrücken","cx":7.069,"cy":49.298}},{"arcs":[[-8,-19,44,45,46,-35]],"type":"Polygon","properties":{"id":"10041519","name":"Völklingen","subdivision":"Saarbrücken","cx":6.76,"cy":49.201}},{"arcs":[[-31,47,48,49,50,51]],"type":"Polygon","properties":{"id":"10042111","name":"Beckingen","subdivision":"Merzig-Wadern","cx":6.741,"cy":49.422}},{"arcs":[[-50,52,53,54,55,56,57]],"type":"Polygon","properties":{"id":"10042112","name":"Losheim am See","subdivision":"Merzig-Wadern","cx":6.732,"cy":49.508}},{"arcs":[[-49,58,59,60,-53]],"type":"Polygon","properties":{"id":"10042113","name":"Merzig","subdivision":"Merzig-Wadern","cx":6.627,"cy":49.447}},{"arcs":[[-24,61,62,63,64]],"type":"Polygon","properties":{"id":"10043111","name":"Eppelborn","subdivision":"Neunkirchen","cx":6.978,"cy":49.404}},{"arcs":[[-54,-61,65,66,67]],"type":"Polygon","properties":{"id":"10042114","name":"Mettlach","subdivision":"Merzig-Wadern","cx":6.551,"cy":49.508}},{"arcs":[[-57,68,69,70,71,72]],"type":"Polygon","properties":{"id":"10042116","name":"Wadern","subdivision":"Merzig-Wadern","cx":6.891,"cy":49.54}},{"arcs":[[-56,73,-69]],"type":"Polygon","properties":{"id":"10042117","name":"Weiskirchen","subdivision":"Merzig-Wadern","cx":6.809,"cy":49.551}},{"arcs":[[-25,-65,74,75,76,77,-40]],"type":"Polygon","properties":{"id":"10043112","name":"Illingen","subdivision":"Neunkirchen","cx":7.047,"cy":49.389}},{"arcs":[[-15,-41,-78,78]],"type":"Polygon","properties":{"id":"10043113","name":"Merchweiler","subdivision":"Neunkirchen","cx":7.069,"cy":49.354}},{"arcs":[[-17,79,80,81,82,83,84]],"type":"Polygon","properties":{"id":"10043114","name":"Neunkirchen/Saar","subdivision":"Neunkirchen","cx":7.193,"cy":49.347}},{"arcs":[[-76,85,86,87,88,-81,89]],"type":"Polygon","properties":{"id":"10043115","name":"Ottweiler","subdivision":"Neunkirchen","cx":7.205,"cy":49.413}},{"arcs":[[-16,-79,-77,-90,-80]],"type":"Polygon","properties":{"id":"10043116","name":"Schiffweiler","subdivision":"Neunkirchen","cx":7.121,"cy":49.367}},{"arcs":[[-12,-85,90,-43]],"type":"Polygon","properties":{"id":"10043117","name":"Spiesen-Elversberg","subdivision":"Neunkirchen","cx":7.155,"cy":49.311}},{"arcs":[[-23,91,92,93,94,-62]],"type":"Polygon","properties":{"id":"10044112","name":"Lebach","subdivision":"Saarlouis","cx":6.894,"cy":49.411}},{"arcs":[[-32,-52,95,-93,96]],"type":"Polygon","properties":{"id":"10044113","name":"Nalbach","subdivision":"Saarlouis","cx":6.802,"cy":49.392}},{"arcs":[[-30,97,98,-59,-48]],"type":"Polygon","properties":{"id":"10044114","name":"Rehlingen-Siersburg","subdivision":"Saarlouis","cx":6.631,"cy":49.375}},{"arcs":[[-28,99,100,101,102,103,104,105]],"type":"Polygon","properties":{"id":"10044115","name":"Saarlouis","subdivision":"Saarlouis","cx":6.747,"cy":49.312}},{"arcs":[[-22,-38,106,-100,-27,-97,-92]],"type":"Polygon","properties":{"id":"10044116","name":"Saarwellingen","subdivision":"Saarlouis","cx":6.841,"cy":49.353}},{"arcs":[[-51,-58,-73,107,-94,-96]],"type":"Polygon","properties":{"id":"10044117","name":"Schmelz","subdivision":"Saarlouis","cx":6.84,"cy":49.442}},{"arcs":[[-37,108,109,-101,-107]],"type":"Polygon","properties":{"id":"10044118","name":"Schwalbach","subdivision":"Saarlouis","cx":6.833,"cy":49.306}},{"arcs":[[-105,110,111,112]],"type":"Polygon","properties":{"id":"10044119","name":"Überherrn","subdivision":"Saarlouis","cx":6.706,"cy":49.261}},{"arcs":[[-46,113,-111,-104,114]],"type":"Polygon","properties":{"id":"10044120","name":"Wadgassen","subdivision":"Saarlouis","cx":6.777,"cy":49.248}},{"arcs":[[-29,-106,-113,115,-98]],"type":"Polygon","properties":{"id":"10044121","name":"Wallerfangen","subdivision":"Saarlouis","cx":6.654,"cy":49.318}},{"arcs":[[-36,-47,-115,-103,116,-109]],"type":"Polygon","properties":{"id":"10044122","name":"Bous","subdivision":"Saarlouis","cx":6.817,"cy":49.278}},{"arcs":[[-102,-110,-117]],"type":"Polygon","properties":{"id":"10044123","name":"Ensdorf","subdivision":"Saarlouis","cx":6.782,"cy":49.303}},{"arcs":[[-82,-89,117,118,119]],"type":"Polygon","properties":{"id":"10045111","name":"Bexbach","subdivision":"Saarpfalz-Kreis","cx":7.262,"cy":49.359}},{"arcs":[[120,121,122,123,124,125]],"type":"Polygon","properties":{"id":"10045112","name":"Blieskastel","subdivision":"Saarpfalz-Kreis","cx":7.252,"cy":49.224}},{"arcs":[[-121,126,127]],"type":"Polygon","properties":{"id":"10045113","name":"Gersheim","subdivision":"Saarpfalz-Kreis","cx":7.224,"cy":49.152}},{"arcs":[[-119,128,-125,129]],"type":"Polygon","properties":{"id":"10045114","name":"Homburg","subdivision":"Saarpfalz-Kreis","cx":7.346,"cy":49.328}},{"arcs":[[-83,-120,-130,-124,130]],"type":"Polygon","properties":{"id":"10045115","name":"Kirkel","subdivision":"Saarpfalz-Kreis","cx":7.254,"cy":49.294}},{"arcs":[[-4,131,-122,-128,132,-33]],"type":"Polygon","properties":{"id":"10045116","name":"Mandelbachtal","subdivision":"Saarpfalz-Kreis","cx":7.151,"cy":49.188}},{"arcs":[[-3,-44,-91,-84,-131,-123,-132]],"type":"Polygon","properties":{"id":"10045117","name":"St. Ingbert","subdivision":"Saarpfalz-Kreis","cx":7.133,"cy":49.274}},{"arcs":[[133,134,135,136]],"type":"Polygon","properties":{"id":"10046111","name":"Freisen","subdivision":"St. Wendel","cx":7.24,"cy":49.537}},{"arcs":[[-64,137,138,139,-86,-75]],"type":"Polygon","properties":{"id":"10046112","name":"Marpingen","subdivision":"St. Wendel","cx":7.062,"cy":49.447}},{"arcs":[[-135,140,141,142]],"type":"Polygon","properties":{"id":"10046113","name":"Namborn","subdivision":"St. Wendel","cx":7.165,"cy":49.518}},{"arcs":[[-136,-143,143,144,145,146]],"type":"Polygon","properties":{"id":"10046114","name":"Nohfelden","subdivision":"St. Wendel","cx":7.073,"cy":49.575}},{"arcs":[[-71,147,-146,148]],"type":"Polygon","properties":{"id":"10046115","name":"Nonnweiler","subdivision":"St. Wendel","cx":6.982,"cy":49.59}},{"arcs":[[-139,149,-144,-142,150]],"type":"Polygon","properties":{"id":"10046116","name":"Oberthal","subdivision":"St. Wendel","cx":7.097,"cy":49.522}},{"arcs":[[-87,-140,-151,-141,-134,151]],"type":"Polygon","properties":{"id":"10046117","name":"St. Wendel","subdivision":"St. Wendel","cx":7.186,"cy":49.465}},{"arcs":[[-63,-95,-108,-72,-149,-145,-150,-138]],"type":"Polygon","properties":{"id":"10046118","name":"Tholey","subdivision":"St. Wendel","cx":7.003,"cy":49.487}},{"arcs":[[-67,152]],"type":"Polygon","properties":{"id":"10042115","name":"Perl","subdivision":"Merzig-Wadern","cx":6.418,"cy":49.509}}]}}}