{"type":"Topology","arcs":[[[20725,88443],[-267,-102],[15,112],[-11,160],[31,36],[379,109],[168,200],[72,162],[75,-53],[-33,-251],[-56,-23],[66,-122],[-439,-228]],[[20931,92970],[290,-254],[-40,-33],[-93,109],[-123,-68],[-49,58],[-141,62],[-98,-78],[-65,-126],[-6,-189],[-61,29],[-138,178],[-209,-3],[-130,132],[-70,5],[-20,-64],[-43,57],[-44,-38],[-68,50],[-113,-50],[-46,37],[-132,-45],[336,261],[-35,348],[136,72],[145,288],[92,-79],[20,-65],[205,-193],[107,-147],[393,-254]],[[36510,93332],[-53,-40],[-5,-52],[139,-149],[-8,-159],[40,-70],[51,-29],[-19,-39],[59,-178],[-63,-154],[32,-19],[134,178],[83,-44],[70,94],[13,60],[86,-142],[61,8],[93,-97],[173,44],[74,26],[84,81],[281,44],[8,-42],[-21,-17],[27,-26],[-76,-9],[1,-23],[33,-11],[50,-92],[234,-206],[125,-3],[-19,-50],[37,-1],[28,-56],[-181,-94],[-169,-132],[91,-65],[-21,-37],[15,-16],[101,-42],[46,-73],[30,11],[18,-200],[-59,-286],[25,-7],[64,-195],[86,-127],[4,-85],[-85,-140],[-57,7],[-105,-45],[-14,-69],[-41,-23],[-133,4],[128,-211],[62,-182],[222,-393],[7,-112],[-222,-122],[-35,-45],[-89,-26],[-58,27],[-89,-15],[-240,-408],[-87,-88],[-87,-131],[101,-139],[-176,-174],[39,-39],[-124,-55],[-40,-50],[293,-164],[256,1],[100,-172],[30,-164],[-47,-75],[27,-26],[49,30],[45,-40],[42,-126],[-61,-342],[80,-141],[-55,-112],[120,-158],[-5,-109],[-50,-58],[-192,-73],[21,-41],[-182,-141],[49,-60],[332,-138],[-42,-95],[53,-35],[-12,-37],[18,-38],[105,-58],[23,-170],[31,-71],[71,16],[7,45],[79,35],[54,-79],[100,43],[17,39],[254,-32],[62,-208],[168,-108],[-105,-254],[114,-128],[-53,-55],[63,-50],[1,-35],[192,-10],[367,-80],[-22,-31],[-594,24],[-260,-100],[-354,-73],[-19,-64],[-23,-9],[-18,-59],[25,-14],[5,-157],[-103,-3],[-9,-22],[208,-107],[108,0],[5,-105],[32,-7],[9,-125],[-29,-18],[1,-46],[-51,-12],[-49,-142],[95,100],[58,14],[55,-50],[-44,-41],[242,-58],[10,-48],[88,-39],[101,-237],[54,-22],[149,62],[369,-579],[99,-135],[111,-97],[274,353],[158,150],[240,-129],[75,-110],[30,-129],[-62,-92],[-15,-99],[12,-61],[56,-73],[-104,-129],[-37,-113],[62,-150],[-81,-176],[36,-134],[-2,-43],[-46,-67],[22,-171],[-65,-206],[-9,-237],[44,-69],[205,-50],[101,-78],[-127,-208],[153,-127],[-26,-19],[-91,-78],[75,-106],[-25,-51],[-80,-53],[15,-94],[-63,-116],[18,-39],[70,57],[63,99],[-62,18],[136,66],[46,-182],[274,-23],[112,-151],[50,-7],[19,-73],[62,-60],[94,37],[108,-87],[-28,-66],[-137,-94],[-102,-296],[8,-36],[28,4],[73,-201],[9,-155],[-16,-129],[105,-13],[-50,-144],[-96,-111],[-126,-21],[-130,89],[-16,-176],[134,-167],[-143,-17],[-157,-90],[-187,11],[-48,-10],[25,-61],[-99,-177],[-239,-184],[31,-68],[-99,-50],[32,-57],[136,-41],[42,-62],[-218,-17],[-69,-82],[-155,158],[-75,-104],[-61,81],[-130,-131],[43,-113],[25,-18],[69,40],[15,-25],[-79,-65],[80,-139],[-291,12],[7,-55],[50,-43],[16,-245],[-135,-29],[36,-111],[72,2],[-63,-169],[21,-109],[39,-67],[51,-16],[85,-93],[61,-42],[173,-22],[169,92],[54,-53],[163,34],[158,-76],[-1,-32],[-20,-2],[-4,-103],[37,-26],[15,-198],[214,37],[53,-235],[69,-88],[421,-258],[108,10],[62,-120],[-293,-21],[-288,-223],[-4,-187],[-79,-76],[24,-28],[-72,-27],[-75,-93],[-20,13],[-26,-46],[-133,24],[-129,-44],[-33,94],[-81,84],[-121,-34],[-168,40],[-92,-50],[70,-90],[-14,-13],[117,-81],[-21,-22],[42,-37],[-14,-14],[100,-91],[-35,-11],[0,-39],[-159,-85],[-366,-99],[99,-153],[86,-149],[-39,-78],[16,-88],[93,31],[68,-31],[85,-154],[157,97],[15,-15],[-82,-131],[-8,-75],[37,-49],[-87,-108],[-138,29],[-114,-32],[222,-148],[7,-110],[196,-192],[21,-136],[121,-60],[45,-35],[12,-68],[46,-39],[-32,-128],[-152,-160],[-92,-48],[-899,21],[-903,31],[-589,18],[-27,-188],[-40,-68],[-37,-203],[-34,-68],[-41,-73],[31,-29],[-94,-202],[-6,-123],[69,-115],[26,9],[212,-197],[95,15],[119,74],[55,-97],[-65,-60],[108,-182],[55,-143],[-341,-223],[-2,-92],[48,-87],[10,-138],[48,-42],[173,-40],[100,-133],[234,-51],[35,-174],[54,-424],[159,-343],[24,-45],[28,23],[29,-31],[138,71],[136,-59],[33,-44],[49,-215],[53,-79],[255,20],[37,45],[-17,56],[82,38],[37,-9],[45,-82],[82,-9],[77,89],[13,-78],[258,-230],[233,-161],[95,-4],[53,-38],[140,60],[-16,39],[137,63],[101,-30],[41,-84],[2,-113],[60,-247],[14,-213],[138,-177],[396,-361],[127,49],[53,-21],[26,-52],[47,24],[50,-55],[39,28],[86,-69],[-5,-254],[-73,-164],[-20,-119],[29,-106],[9,-80],[49,-60],[67,-203],[17,-1],[-15,-49],[-41,-25],[9,-32],[-161,-78],[118,-138],[21,-81],[-31,-166],[21,-133],[-113,-17],[-88,29],[-14,11],[21,34],[-10,53],[-97,97],[-260,208],[-10,-52],[13,-128],[60,-146],[105,-92],[240,-82],[79,-101],[19,-123],[63,19],[46,-80],[52,5],[3,40],[268,47],[240,-7],[31,26],[-30,89],[57,-8],[45,65],[154,-13],[114,42],[62,-40],[-4,-68],[31,-50],[-97,-253],[-93,-118],[328,-256],[30,-146],[77,-94],[450,252],[215,69],[187,45],[52,-86],[135,75],[136,-27],[130,-67],[-71,-36],[31,-71],[-61,-35],[-79,20],[1,-28],[27,-14],[14,-78],[29,-9],[2,-57],[63,12],[147,-88],[-69,-134],[46,-29],[51,35],[9,-26],[-26,-33],[131,-62],[24,31],[49,-10],[-100,-404],[226,-1],[6,-26],[-30,-53],[37,-99],[-51,-25],[-2,-38],[-46,-32],[-24,-84],[-66,-84],[26,-76],[-15,-54],[35,-52],[120,-65],[111,-126],[520,-119],[117,42],[13,21],[-12,101],[-43,85],[5,59],[25,1],[18,64],[95,58],[65,101],[174,109],[76,-17],[64,-75],[86,-24],[10,-44],[30,9],[184,155],[80,-42],[-46,-115],[-124,-157],[34,-65],[72,16],[19,-68],[152,-90],[190,65],[28,-29],[104,42],[69,-16],[107,65],[165,-26],[401,59],[-5,105],[220,-64],[28,49],[48,17],[175,-36],[134,8],[31,-119],[90,-2],[12,-61],[3,-37],[-32,-19],[4,-127],[-52,-7],[-12,-184],[-21,-7],[38,-97],[75,19],[36,-22],[-10,98],[18,6],[42,-97],[137,46],[-6,35],[107,39],[56,-252],[18,1],[133,46],[34,-119],[81,28],[23,-34],[36,16],[250,181],[34,41],[-12,51],[111,41],[-32,97],[149,44],[96,-7],[22,91],[137,-45],[178,34],[72,-17],[-51,-62],[93,-80],[-40,-57],[137,-80],[114,94],[96,-65],[96,-15],[37,-52],[48,22],[37,-256],[-69,-32],[54,-342],[444,84],[120,61],[21,-16],[243,134],[96,-127],[-136,-165],[-34,-128],[18,-88],[45,3],[86,-65],[89,-7],[7,-93],[72,-54],[152,12],[15,-51],[156,2],[28,-136],[17,-61],[-94,-65],[108,-138],[-53,-194],[-39,-38],[-482,-191],[-125,-14],[6,-35],[-41,-23],[7,-100],[-63,-20],[-53,26],[24,-104],[-54,-2],[-50,-49],[-59,-135],[16,-20],[-102,-92],[-58,13],[32,-97],[102,-78],[313,-51],[10,-46],[-30,-38],[-50,-7],[11,-78],[108,-123],[50,-312],[-25,-204],[-148,-82],[-138,115],[-60,100],[-141,43],[-31,-29],[-34,-135],[-41,-50],[61,-76],[11,-75],[-74,-96],[148,-8],[-24,-208],[49,-126],[-25,-45],[-135,14],[-217,-56],[-20,-61],[-67,-46],[-68,23],[-35,-38],[-11,-129],[53,-26],[-9,-64],[111,-70],[94,-105],[12,49],[65,9],[132,-84],[135,-25],[102,-140],[10,-188],[44,-10],[24,-56],[143,-27],[106,129],[59,-8],[84,90],[118,-14],[43,65],[134,-40],[100,-72],[104,-6],[325,-92],[26,-31],[0,-95],[-41,-68],[3,-85],[-64,-31],[46,-80],[-42,-35],[-184,-58],[-195,3],[-99,50],[8,67],[-119,129],[-137,47],[-34,-31],[-45,-154],[-97,-95],[-302,88],[-87,-38],[-11,-126],[187,-162],[91,-10],[127,13],[178,78],[67,-4],[0,-50],[160,-18],[74,-54],[160,142],[56,14],[57,-36],[29,-123],[-25,-42],[-14,-306],[69,-11],[173,-164],[48,-15],[47,35],[61,-21],[85,55],[148,48],[39,-23],[76,46],[151,-150],[-23,-12],[-54,59],[-55,-15],[-17,-44],[46,-102],[-190,-35],[-130,-110],[23,-81],[-28,-26],[50,-76],[54,-62],[42,10],[10,-58],[45,-45],[99,-45],[-39,-41],[48,-57],[53,-138],[-4,-149],[30,-2],[-41,-212],[43,-132],[-56,-65],[5,-140],[89,-152],[115,-19],[69,77],[73,-24],[20,61],[67,4],[-30,47],[14,59],[52,52],[79,0],[32,39],[123,-67],[57,2],[72,-86],[163,-109],[37,61],[87,-7],[18,23],[92,-45],[60,-41],[163,-283],[39,-2],[56,74],[124,-6],[21,29],[-13,25],[34,33],[51,-8],[67,94],[100,65],[37,-47],[28,3],[2,38],[45,9],[7,50],[55,2],[30,53],[53,-25],[198,126],[55,-30],[33,48],[97,-30],[-33,39],[53,104],[106,37],[4,72],[99,-2],[42,44],[28,-19],[-13,-76],[76,-7],[40,-82],[49,-18],[-3,-50],[105,-67],[-10,-105],[132,-107],[2,-52],[111,33],[32,-49],[142,97],[20,-9],[13,-70],[36,-15],[-82,-147],[32,-42],[-43,-157],[66,-21],[-14,-69],[51,-18],[-25,-236],[225,-13],[56,92],[94,50],[78,101],[-17,-92],[12,-93],[157,-16],[74,-62],[60,80],[59,-56],[26,53],[90,-27],[198,46],[57,-5],[-12,-65],[108,35],[98,-71],[127,-167],[47,28],[262,-292],[320,-160],[-32,-91],[-26,-11],[-35,27],[-158,-31],[-58,-197],[59,-93],[93,60],[45,-28],[92,53],[151,168],[-42,103],[212,-70],[156,2],[91,-135],[97,9],[184,-72],[142,136],[56,137],[98,-28],[115,18],[65,80],[75,-109],[136,100],[19,-48],[213,72],[-30,43],[109,-3],[12,-179],[30,-91],[29,-12],[12,-90],[47,5],[15,-51],[110,-119],[89,-173],[47,-44],[3,-77],[22,-7],[22,-88],[47,9],[51,-120],[34,-2],[81,-152],[241,-116],[100,-3],[194,-181],[114,-386],[37,-364],[132,13],[102,64],[101,-67],[79,59],[19,-41],[107,-14],[103,-68],[125,-139],[128,82],[161,-86],[242,-352],[101,-66],[38,-191],[140,71],[124,121],[6,67],[111,36],[51,-61],[132,30],[158,118],[115,-109],[110,-143],[72,-172],[143,-150],[215,-480],[-83,-47],[-84,-1],[-12,-94],[-62,7],[17,-139],[65,-198],[-44,-140],[14,-218],[-41,-115],[-134,-52],[48,-58],[-30,-113],[74,-34],[94,138],[33,92],[0,67],[68,-21],[124,67],[41,127],[-27,127],[270,179],[-74,117],[83,43],[-37,69],[31,15],[35,-19],[79,-204],[145,-61],[59,-58],[22,-87],[-13,-54],[-152,-69],[67,-163],[118,-62],[30,31],[43,-47],[74,-4],[161,185],[80,-131],[44,16],[62,-86],[119,120],[19,-22],[-57,-78],[154,-216],[97,38],[105,99],[73,-104],[28,-111],[78,-95],[280,-71],[69,153],[172,157],[290,-93],[31,-24],[-2,-27],[122,82],[94,126],[173,-6],[62,-126],[-35,-88],[-177,-112],[57,-5],[79,-68],[-23,-158],[144,-238],[-1,-88],[42,-97],[322,-29],[107,99],[73,28],[41,-30],[-7,-60],[-167,-239],[157,-102],[152,-187],[1048,260],[193,-39],[192,-89],[130,17],[30,32],[84,-82],[161,-22],[125,-56],[7,-176],[91,-138],[84,-123],[39,-167],[4,-137],[45,-208],[25,-1],[17,-44],[35,3],[57,-111],[38,16],[106,-37],[61,-98],[54,26],[145,-14],[73,-56],[202,5],[-1,45],[30,21],[61,-12],[14,-28],[85,20],[107,70],[112,14],[61,106],[43,17],[94,-3],[6,-23],[80,25],[18,-47],[189,-6],[78,58],[73,-139],[42,-33],[197,-19],[127,-95],[230,40],[236,233],[33,143],[-50,113],[85,180],[-13,63],[374,99],[123,-88],[45,-70],[-19,-108],[17,-46],[-5,-127],[51,-131],[44,-60],[131,-28],[159,-270],[-118,-72],[-74,-135],[406,-231],[359,-145],[63,37],[64,-9],[124,92],[32,-34],[17,59],[193,57],[128,-42],[103,31],[3,-36],[20,-1],[162,110],[136,-76],[62,-121],[70,23],[204,-103],[191,21],[60,38],[110,151],[140,-96],[97,-26],[62,-77],[-9,-236],[-202,-100],[-31,19],[-78,-80],[-422,-226],[-4,-32],[-123,3],[86,-118],[-77,-52],[103,-52],[157,-7],[230,-197],[112,-34],[51,-121],[250,-158],[31,-167],[65,-39],[72,-24],[197,65],[220,13],[-18,-141],[71,-201],[92,-114],[133,-8],[44,-40],[50,-158],[-41,-252],[28,-102],[54,-49],[6,-62],[123,-93],[151,-17],[30,-122],[-35,-128],[26,-96],[664,-307],[363,-73],[63,18],[-9,-224],[-98,14],[-176,-56],[-126,45],[-190,-13],[-369,-106],[-33,-10],[86,-83],[121,-43],[294,54],[336,-72]],[[79622,40096],[-191,-142],[-135,-296],[-182,-234],[-32,-50],[235,-60],[223,-331],[131,-209],[87,150],[-10,116],[140,-99],[136,21],[229,-40],[67,34],[174,183],[38,-32],[20,-79],[41,-10],[19,-80],[139,-68],[-8,-19],[170,11],[106,84],[-16,-132],[60,4],[22,81],[28,8],[19,-46],[82,-30]],[[81214,38831],[-239,-112],[-275,2],[-121,40],[-185,-28],[-126,54],[-113,8],[-62,-32],[-61,-82],[-54,-3],[6,-52],[-202,-78],[-102,-56],[-92,-7],[-87,-57],[-33,-92],[-63,-26],[-23,-86],[-143,-13],[-89,-82],[-43,-100],[-43,-10],[-32,33],[-110,-38],[-80,10],[-33,-32],[-83,-8],[-30,-37],[-21,-34],[-37,10],[1,-66],[-100,-76],[-183,16],[-76,-30],[-2,-47],[-81,38],[-18,-23],[17,-27],[-22,-10],[-272,-32],[-70,22],[-47,-60],[-44,-44],[-174,-27],[-71,-75],[-2,-44],[-45,9],[-29,-95],[-82,-30],[4,-40],[-43,21],[-106,-74],[-22,-59],[-72,-37],[-17,-33],[9,-38],[-36,-19],[-15,-3],[11,36],[-16,6],[-64,-55],[-216,19],[-120,-34],[-15,48],[-88,8],[4,-60],[-55,24],[-29,-34],[-116,40],[-127,-102],[-129,-54],[-78,5],[-54,-119],[-110,-25],[-44,-118],[-256,-74],[10,-51],[-73,0],[24,-35],[-22,-21],[12,-22],[-82,-92],[-99,-34],[-86,35],[-12,-34],[68,-20],[10,-80],[-95,-29],[-27,-63],[-62,17],[-1,-67],[-51,5],[10,-51],[-90,-32],[5,-35],[-39,-73],[18,-105],[-143,-132],[-43,-102],[-113,-110],[-84,-17],[-18,-54],[-95,23],[13,-75],[-75,-58],[-53,-110],[-96,-73],[-50,-212],[-123,-90],[-67,-85],[-108,49],[-52,-102],[-7,-67],[-76,-45],[-186,-248],[-166,-45],[-60,-85],[-66,-39],[-21,-59],[-68,6],[-25,-128],[-33,-48],[-159,-85],[-102,-178],[-68,-64],[-18,-8],[-26,51],[-26,-23],[-105,6],[-100,-69],[-135,-29],[-102,11],[19,170],[-16,15],[-265,1],[-160,457],[5,299],[-67,157],[-250,-195],[-96,-4],[-218,-523],[-265,-69],[-244,-135],[-247,-188],[-21,-56],[-77,-274],[-97,-227],[-3,-90],[-278,-337],[-5,-210],[-61,79],[-123,-38],[-15,36],[14,29],[-73,52],[-2,107],[-226,42],[-20,31],[-61,1],[-34,44],[7,50],[-170,28],[-48,-147],[-45,-8],[-18,-66],[-73,-33],[-43,-92],[-36,4],[-54,-71],[-85,-365],[-27,47],[50,227],[-3,155],[212,262],[-12,38],[-311,-12],[-137,-29],[-346,-154],[-83,309],[-42,-2],[-100,93],[45,138],[77,88],[17,91],[-265,-37],[-271,44],[-240,-39],[-149,24],[3,-40],[-20,-1],[-1,242],[-110,94],[-189,-4],[-201,-70],[-107,24],[-125,97],[-70,101],[-28,117],[-70,59],[-184,-206],[-70,-148],[-153,-134],[-123,-58],[-324,140],[-254,197],[-20,161],[12,103],[-15,29],[-56,-206],[-69,54],[-84,82],[-283,159],[-178,35],[-184,-86],[-81,57],[11,59],[-81,0],[-34,59],[-142,-74],[-195,26],[-11,66],[127,292],[-199,612],[-248,218],[-1,70],[68,81],[-70,113],[44,38],[69,133],[-17,41],[10,359],[-38,22],[-26,149],[-87,75],[36,28],[-22,46],[12,44],[-108,44],[5,39],[-354,58],[-123,-45],[-309,-239],[-49,72],[-131,-162],[-138,-17],[-27,57],[-143,-2],[-61,-134],[17,-43],[-40,-18],[8,-35],[-34,-23],[-345,-105],[-231,-399],[-52,-177],[-2,-75],[-119,-193],[32,-54],[-1,-60],[-96,-87],[-176,-43],[56,-259],[-40,-53],[-6,-117],[19,-53],[25,-24],[55,86],[132,-4],[131,-210],[46,-150],[-3,-92],[48,-115],[-9,-65],[151,-256],[-187,-94],[-13,78],[-38,15],[-3,-52],[-70,-21],[33,-71],[-62,-4],[-42,121],[-67,94],[-33,-18],[48,-120],[-35,2],[-109,106],[-51,111],[18,53],[-12,41],[-38,-8],[0,-31],[-58,-3],[-44,64],[-261,62],[-209,108],[-79,114],[-74,44],[-43,-15],[-132,8],[-187,190],[-50,15],[-167,-128],[-270,-82],[-42,-44],[41,-73],[-157,-113],[-322,-202],[-115,-198],[-153,-96],[-148,-2],[-229,155],[-161,-58],[-141,-60],[-382,-243],[-47,-47],[0,-43],[-166,65],[-33,71],[-53,11],[-59,58],[-99,18],[-68,121],[41,60],[-73,59],[-329,-174],[-230,-110],[12,52],[-57,-17],[-28,32],[-160,-46],[-476,-306],[-41,-90],[15,-93],[-51,-160],[-124,-20],[-56,-127],[-13,-156],[-34,7],[-24,-89],[12,-43],[-65,-71],[-54,45],[-28,-56],[-39,12],[-164,-83],[-123,264],[-25,44],[-43,-35],[-13,40],[-18,-6],[-130,-133],[23,-29],[-227,-127],[-164,204],[188,349],[-50,35],[-146,-112],[-11,13],[272,230],[11,107],[-45,-1],[69,39],[26,123],[-42,50],[-49,-62],[-75,37],[-179,-143],[-63,-19],[39,38],[-13,28],[59,42],[-27,54],[18,56],[-73,95],[-98,-166],[-19,22],[51,72],[24,88],[-60,-4],[-17,26],[129,75],[45,58],[-74,-1],[-332,-294],[-301,-196],[-7,95],[-43,-22],[-134,-153],[-174,-45],[-150,85],[-95,-30],[-242,29],[-147,-45],[-189,13],[-215,124],[-147,137],[-135,-28],[-95,16],[-319,184],[-60,176],[60,26],[22,81],[-107,118],[-48,162],[7,57],[-37,40],[96,87],[-57,126],[-91,159],[-9,143],[-163,46],[-14,-39],[18,-61],[-89,-123],[-62,-144],[-84,30],[-5,48],[-77,41],[-152,-2],[11,-115],[-77,-8],[-21,-32],[85,-71],[-2,-28],[-82,-128],[-38,37],[-116,-11],[-9,-42],[-22,6],[6,75],[-190,92],[-205,-551],[-153,-541],[-255,7],[-20,41],[-124,-72],[-82,-20],[-19,24],[-83,-41],[-327,-342],[-75,-111],[-45,172],[-255,-37],[9,32],[-32,-10],[-10,55],[-100,-82],[-60,73],[-48,-35],[-36,82],[-211,-102],[-169,-126],[-31,67],[-119,81],[-41,-45],[-58,-74],[-37,-8],[-55,40],[-53,-120],[-41,52],[-146,-109],[-30,81],[-42,-3],[-41,57],[-345,-14],[1,167],[71,138],[-8,91],[163,198],[-34,60],[-85,29],[23,113],[-112,-84],[-77,-103],[59,-105],[-172,-1],[-6,-62],[-137,-3],[-16,43],[-139,-36],[-193,21],[-359,193],[-33,-68],[-17,-59],[-55,35],[-20,-49],[7,-150],[86,-9],[5,-43],[39,-7],[-33,-223],[31,-7],[27,-143],[-147,-105],[80,-67],[-4,-127],[95,-74],[54,-136],[-67,-71],[-61,-144],[10,-45],[69,1],[7,-53],[1,-37],[-97,-15],[-3,-52],[-89,-63],[13,-38],[-120,-89],[-174,-238],[4,-23],[61,30],[21,-109],[-156,-229],[-149,-122],[-25,-66],[-145,97],[-132,157],[-85,-126],[-11,-72],[-51,3],[-14,-86],[-30,-4],[2,-217],[-103,-242],[-70,73],[-137,-37],[-76,61],[-74,-24],[-43,27],[-111,-52],[-32,107],[-123,-14],[14,30],[-67,53],[63,111],[-45,102],[-87,-90],[-91,60],[33,68],[-1,80],[85,25],[80,-26],[-9,270],[30,16],[-49,190],[-33,-11],[0,57],[-37,-6],[-50,78],[-74,-12],[-27,59],[24,39],[-37,87],[-20,1],[-58,175],[88,38],[-5,40],[-113,10],[-43,75],[-30,-8],[1,-45],[-146,-50],[-130,-168],[-66,53],[-126,-161],[-70,-19],[-82,-73],[7,-110],[199,170],[103,-84],[-7,-71],[92,-289],[-16,-169],[13,-93],[-68,-72],[-59,-2],[-28,32],[-172,-106],[24,-66],[-167,-7],[-3,-52],[-198,57],[-13,46],[-41,-5],[-62,107],[-48,5],[-15,63],[-66,101],[-44,10],[-58,-35],[-36,62],[-46,-38],[-31,32],[-50,-23],[-28,-23],[67,-123],[-195,-143],[-141,-28],[-23,44],[76,56],[-52,80],[-89,-63],[-258,-97],[-171,-186],[-67,28],[-17,-52],[-49,53],[43,35],[-7,48],[-72,141],[-109,-57],[-43,64],[-91,-97],[-76,58],[-117,1],[-1,38],[-170,73],[-15,-47],[46,-62],[40,-149],[-64,-30],[-90,157],[-232,-281],[-19,-78],[-53,20],[-191,39],[-132,-128],[47,-57],[-51,-73],[-18,19],[-111,-102],[-314,210],[-200,-88],[-3,-54],[-49,-8],[-118,-9],[-3,45],[-82,-16],[-21,141],[-45,119],[-73,76],[-77,82],[32,50],[-19,16],[44,53],[-27,51],[43,20],[-28,44],[31,16],[-20,51],[71,46],[126,14],[-123,49],[-14,107],[-52,1],[-127,-89],[-6,80],[-79,102],[14,94],[-13,20],[128,16],[38,136],[-35,34],[-169,3],[-129,76],[177,269],[144,137],[-42,190],[95,45],[-149,219],[10,162],[-56,125],[-148,142],[-9,55],[-48,37],[-68,-26],[-35,26],[-231,144],[-55,-15],[-35,-53],[30,-86],[-59,-20],[3,-83],[84,6],[36,-164],[-73,7],[1,-23],[-188,-103],[-58,75],[15,19],[-16,24],[-25,-12],[-23,31],[8,65],[-71,60],[-91,147],[-2,113],[-74,120],[-225,-89],[-123,-116],[-38,-78],[-105,5],[254,302],[-77,74],[93,165],[17,104],[-48,10],[-17,-35],[-61,59],[38,60],[-16,86],[27,61],[-31,26],[-69,-9],[-13,23],[20,114],[-24,11],[56,105],[90,74],[-19,63],[85,85],[73,148],[33,-24],[156,14],[-66,-165],[125,-101],[67,22],[33,-77],[234,672],[-314,133],[-374,-54],[-187,101],[-222,-24],[-113,-45],[6,-88],[111,-35],[120,-120],[95,-25],[69,-106],[-92,-77],[20,-143],[-81,-363],[-146,-118],[-9,-107],[-40,-41],[32,-6],[-39,-270],[-71,-39],[-40,-71],[-57,-4],[19,-88],[-174,-22],[-23,43],[-29,-53],[-160,-12],[-74,-59],[-148,87],[-86,-94],[-8,-114],[-56,-45],[-48,163],[-35,44],[16,39],[-90,71],[-84,52],[-62,-17],[-193,32],[-101,84],[-92,29],[33,136],[110,259],[161,167],[139,93],[98,215],[175,219],[83,-2],[200,283],[41,127],[45,83],[-8,78],[187,181],[254,165],[65,66],[14,87],[-231,179],[-109,29],[-36,64],[-75,37],[-27,115],[26,229],[193,128],[18,74],[-68,128],[-8,66],[-183,108],[80,81],[151,57],[139,138],[100,150],[184,189],[27,148],[-92,4],[-109,135],[134,236],[125,293],[-300,-95],[-345,42],[-651,310],[-72,76],[-86,179],[-129,133],[-152,22],[-220,-27],[-138,-116],[-66,68],[-14,63],[-22,2],[-281,-112],[-46,-80],[15,-51],[-19,-96],[-46,24],[-218,-95],[-101,-149],[-97,-36],[-146,95],[-324,27],[-10,-127],[-145,-158],[-340,-101],[-143,-133],[-106,-50],[-119,-284],[-41,7],[-39,62],[17,44],[-120,81],[-89,34],[-34,-46],[-89,61],[-150,202],[8,17],[-258,291]],[[31858,37883],[-11,202],[41,246],[-132,303],[-19,108],[30,136],[-32,61],[37,33],[-55,160],[-11,135],[15,127],[113,309],[75,348],[250,-26],[100,153],[7,151],[-4,25],[-289,98],[-25,30],[5,40],[-218,56],[40,66],[-255,29],[9,30],[-123,52],[-173,168],[-134,69],[-137,41],[-266,-5],[-7,-25],[-158,42],[-381,392],[-75,45],[-22,49],[-64,235],[15,359],[-29,203],[2,219],[80,231],[-15,33],[49,28],[-42,151],[119,95],[-42,68],[267,78],[57,-37],[313,123],[74,91],[287,80],[100,102],[166,397],[93,-24],[66,19],[188,84],[-25,51],[68,34],[45,-99],[140,53],[331,-100],[151,-4],[120,44],[191,-26],[174,129],[43,135],[78,89],[-25,158],[106,264],[119,220],[-242,173],[-146,34],[-265,-129],[-488,-347],[-257,-86],[-167,125],[-76,16],[34,211],[58,127],[14,161],[-25,96],[-155,184],[-1,93],[-51,69],[-58,185],[-37,-3],[-16,86],[-67,55],[-15,46],[-55,202],[4,139],[-18,43],[-40,55],[-84,-71],[-45,52],[90,123],[-37,121],[90,94],[70,458],[-65,75],[-79,176],[110,237],[-19,78],[57,60],[46,138],[124,186],[30,280],[49,163],[67,206],[250,298],[-214,127],[-113,170],[-100,95],[3,82],[41,78],[45,185],[-230,-12],[-375,77],[275,69],[-102,130],[-113,87],[-62,-16],[-202,188],[-36,42],[-473,463],[243,250],[-424,399],[184,199],[244,251],[247,-226],[205,163],[24,96],[-6,73],[114,-103],[129,353],[-152,75],[-22,-44],[-231,95],[36,193],[78,191],[-35,107],[721,723],[415,377],[31,11],[115,-58],[96,88],[75,-45],[74,545],[-402,-198],[-182,-134],[-143,139],[-48,189],[-1,35],[39,43],[387,174],[250,595],[-100,382],[254,130],[62,217],[-15,3],[9,74],[-43,82],[69,64],[-32,171],[-133,106],[48,33],[-16,83],[18,12],[-20,115],[-60,88],[55,62],[-108,128],[8,32],[-30,41],[36,21],[-85,166],[93,23],[4,34],[26,9],[-31,39],[51,85],[-81,126],[-151,69],[-58,71],[-76,235],[51,52],[-29,112],[30,8],[-19,136],[-37,4],[-104,170],[31,25],[160,125],[137,-93],[16,36],[-24,14],[30,58],[66,-20],[60,55],[31,-12],[49,38],[98,-25],[29,44],[32,-6],[93,75],[135,296],[-7,53],[35,118],[-154,99],[-68,-27],[-38,42],[85,76],[-16,23],[-93,-71],[-72,101],[-31,-18],[-43,37],[-150,184],[-148,-31],[-138,129],[-66,140],[-5,152],[-53,87],[-102,10],[-155,309],[18,51],[-5,116],[20,51],[-30,2],[-134,3],[-223,122],[-8,46],[30,1],[4,77],[83,84],[-10,60],[33,51],[154,118],[64,2],[26,-42],[41,-9],[188,27],[79,-19],[152,80],[81,-26],[240,97],[188,208],[-41,67],[-75,-12],[-4,35],[-130,28],[-16,31],[111,152],[181,-53],[47,-70],[6,33],[38,3],[53,90],[-37,46],[37,98],[-16,29],[6,82],[45,20],[104,210],[50,50],[207,128],[24,24],[49,-43],[85,64],[199,-167],[261,-52],[23,-41],[263,56],[102,62],[83,-46],[152,30],[17,47],[28,-1],[12,56],[-28,251],[68,72],[73,-33],[136,48],[185,-24],[20,82],[39,-10],[10,52],[-42,10],[-2,80],[18,12],[-26,21],[98,75],[-21,78],[28,21],[-79,71],[26,32],[-249,188],[-282,293],[-78,-19],[-22,58],[10,62],[77,59],[34,81],[-24,81],[-109,13],[-209,92],[-208,-46],[-120,88],[41,103],[-112,-10],[-215,137],[-111,3],[-49,72],[-123,128],[34,56],[119,47],[115,112],[199,290],[115,222],[-2,57],[-24,29],[12,44],[232,124],[-99,47],[8,32],[131,-26],[149,88],[-16,38],[-108,-20],[-34,79],[-148,-23],[-137,37],[-53,-189],[-33,-4],[84,307],[176,154],[36,76],[2,43],[-32,9],[22,48],[-20,66],[17,22],[-50,122],[37,33],[-5,65],[45,48],[200,88],[30,151],[38,13],[-25,54],[27,6],[-15,55],[18,117],[43,5],[-16,46],[356,151],[151,30],[177,124],[34,-9],[117,144],[25,109],[-59,15],[-13,98],[-160,-18],[-78,161],[30,86],[-16,28],[-17,16],[-29,-71],[-133,74],[-76,180],[-94,119],[26,76],[-20,4],[-7,127],[-72,-11],[-31,94],[49,47],[-23,26],[24,22],[-41,39],[131,146],[-50,52],[-181,-91],[-54,17],[-182,-129],[-24,34],[30,54],[-34,64],[-113,-13],[-161,-49],[-86,-69],[-244,-106],[-26,11],[19,112],[-11,28],[-27,-7],[-30,59],[29,91],[-15,45],[52,113],[-10,103],[24,144],[27,3],[4,125],[103,77],[-80,59],[6,25],[103,122],[36,123],[113,132],[-11,28],[31,26],[105,-5],[278,197],[-86,96],[-59,-40],[-69,129],[-55,-13],[-53,87],[97,63],[-91,137],[35,95],[-51,-5],[-59,157],[208,318],[-149,146],[-366,17],[-162,60],[-139,-55],[-258,-24],[-89,12],[-23,43],[-173,-22],[-27,57],[-235,-54],[41,-147],[-216,-202],[-175,95],[-72,-39],[-59,117],[-76,-19],[-46,22],[2,40],[-154,165],[-53,109],[19,39],[-48,84],[4,110],[-107,-20],[-32,26],[-78,136],[-56,202],[181,89],[61,87],[53,8],[-3,140],[-57,185],[243,13],[232,175],[194,103],[-1,42],[-176,16],[-117,105],[-281,23],[23,187],[100,59],[8,102],[20,231],[-91,24],[-20,-36],[-55,-17],[-132,58],[-55,-5],[-27,19],[7,42],[-59,15],[-15,50],[-39,27],[5,42],[-88,-11],[1,38],[71,191],[30,221],[57,139],[169,167],[90,51],[-24,29],[3,329],[30,16],[-31,71],[61,20],[37,48],[-1,92],[52,160],[6,132],[53,123],[108,125],[62,316],[-162,217],[-62,10],[-82,-34],[-138,-125],[-59,15],[-56,-25],[-48,-11],[-60,56],[-212,-158],[-56,75],[-189,-89],[-127,-99],[-226,65],[-5,67],[-66,136],[137,163],[-81,94],[32,26],[-23,46],[-46,-8],[-102,219],[82,54],[-93,94],[24,38],[-24,14],[-3,50],[39,48],[-93,87],[96,187],[137,117],[54,127],[65,67],[368,128],[62,157],[-128,145],[-7,125],[-27,69],[-126,26],[-136,145],[-30,206],[-44,89],[-57,8],[-81,24],[-77,138],[112,277],[106,70],[128,164],[-123,167],[45,53],[-194,189],[131,191],[-70,55],[3,57],[61,-20],[24,34],[73,-53],[389,245],[35,-62],[74,51],[17,92],[119,-18],[10,52],[33,-54],[56,40],[-54,120],[163,135],[69,19],[53,-97],[68,-31],[142,61],[-17,31],[-14,28],[46,83],[-18,33],[79,151],[38,-1],[19,49],[-69,67],[12,52],[75,102],[87,51],[-94,241],[-83,-19],[-9,26],[197,51],[-12,58],[-52,54],[66,92],[-71,83],[108,115],[-63,60],[27,34],[-91,131],[-78,228],[-28,156],[-2,123],[-213,-118],[9,-38],[-293,-213],[-144,-37],[-54,81],[-128,-72],[-105,132],[-136,-96],[-30,51],[-25,-2],[-37,77],[-39,24],[-63,205],[-14,85],[43,16],[4,185],[-211,4],[-11,73],[-59,87],[-7,60],[43,16],[-3,40],[-42,27],[-53,189],[414,363],[222,98],[15,47],[-59,139],[22,99],[100,103],[-56,157],[26,179],[-38,36],[47,43],[15,54],[-60,63],[-17,66],[-76,43],[-123,202],[-117,26],[11,27],[-20,3],[-156,-18],[-93,204],[-328,-110],[-56,152],[131,131],[63,112],[-3,42],[-70,116],[-8,63],[-65,50],[-94,-38],[-39,84],[55,60],[-58,102],[14,147],[-31,123],[-59,38],[-87,191],[-159,70],[-128,12],[-120,56],[-69,70],[-64,-20],[-60,118],[194,129],[90,156],[-108,181],[0,774],[-30,11],[-81,-64],[-57,13],[-132,-54],[-128,-2],[-105,72],[-33,93],[11,92],[-5,51],[-59,87],[-186,33],[-135,141],[-131,30],[-95,72],[-162,2],[-87,32],[-30,46],[-100,16],[-8,43],[-122,70],[35,129],[-15,42],[-75,24],[-21,-29],[-243,3],[-68,110],[-30,119],[-36,24],[-85,-59],[-21,-66],[13,-29],[-54,-52],[-240,-35],[-15,-120],[-241,10],[4,-95],[57,-183],[-40,-170],[26,-146],[-102,72],[54,140],[-38,59],[-40,-9],[-95,-55],[-50,-85],[-114,-40],[-23,-72],[85,-173],[-63,62],[-127,178],[-104,82],[-222,-85],[-2,-43],[-118,-121],[-71,35],[-186,-109],[-23,43],[-141,49],[-21,40],[33,59],[-8,30],[-315,84],[-22,-49],[-62,-138],[-39,25],[-146,-74],[-46,29],[-230,-50],[-55,22],[-163,-118],[-143,-188],[-125,-104],[-274,-28],[-35,-94],[-39,7],[-37,-33],[47,-23],[3,-47],[-70,-4],[-46,-86],[-57,25],[29,41],[-63,55],[-73,-64],[-393,-1],[-230,-30],[-97,-46],[-71,140],[-130,26],[-223,-226],[4,-40],[146,-111],[24,-70],[-2,-58],[-46,-67],[-9,-170],[-40,-158],[-128,-184],[-205,-117],[-65,-112],[-1,-102],[-171,-52],[-80,113],[-10,62],[-65,113],[-79,90],[68,145],[28,121],[70,-13],[-3,55],[-73,48],[-15,73],[-50,-3],[-8,48],[-113,-68],[-208,-59],[-166,164],[-129,41],[24,31],[-14,16],[-82,-42],[-138,131],[-132,17],[-43,117],[13,4],[292,96],[87,-89],[567,363],[85,-128],[-7,-229],[38,-44],[368,60],[190,109],[203,69],[70,87],[-50,74],[109,100],[-52,60],[94,155],[10,100],[-21,13],[176,63],[60,109],[-110,125],[-93,43],[-161,-10],[-78,-59],[-51,-80],[-104,-26],[-58,40],[-34,275],[-43,-13],[-16,31],[-281,-128],[-85,131],[-102,16],[-110,-38],[-17,53],[-4,26],[210,103],[117,115],[31,86],[-93,34],[-31,54],[5,64],[75,52],[56,364],[140,64],[78,114],[1,35],[-43,39],[-337,-65],[-387,106],[-113,164],[-62,22],[-8,56],[187,79],[87,241],[89,69],[-1,37],[-43,57],[-186,37],[127,55],[31,63],[-20,139],[-99,16],[-54,95],[-7,70],[106,320],[98,178],[-39,46],[-208,52],[265,88],[95,1],[28,-51],[173,237],[144,381],[17,42],[-174,92],[-262,-10],[-3,69]],[[21163,93354],[139,20],[146,133],[47,84],[1,66],[2,81],[64,72],[11,13],[3,4],[68,77],[148,19],[46,6],[146,-15],[293,-32],[58,15],[9,2],[105,26],[403,99],[501,175],[6,2],[5,2],[19,13],[26,18],[25,17],[2,1],[0,1],[69,69],[175,47],[54,15],[86,119],[6,29],[16,78],[47,225],[75,82],[58,64],[69,40],[85,50],[70,42],[26,15],[142,-109],[2,-2],[13,-10],[97,-74],[6,-1],[41,-1],[72,95],[13,17],[35,3],[106,6],[20,-17],[91,-78],[448,-206],[84,-39],[43,36],[32,27],[2,-2],[83,-41],[197,-211],[105,-112],[32,-34],[-2,-8],[-39,-129],[85,-50],[6,-83],[3,-55],[2,-30],[1,-11],[1,-25],[61,-44],[59,-44],[80,-33],[62,-25],[17,63],[5,20],[16,59],[9,33],[3,11],[3,12],[16,59],[115,147],[49,62],[90,194],[52,111],[-63,273],[-109,110],[-11,11],[-5,5],[-8,8],[11,47],[134,259],[159,185],[97,87],[74,65],[138,43],[-81,121],[131,53],[28,92],[6,22],[6,3],[7,2],[181,79],[82,36],[11,5],[13,5],[5,2],[1,1],[-23,189],[10,-2],[23,-6],[111,-26],[142,66],[34,-53],[161,55],[8,3],[52,18],[85,97],[2,2],[10,11],[148,-58],[8,-12],[64,-82],[42,-53],[57,-74],[15,1],[37,2],[57,3],[268,15],[24,-16],[46,-28],[7,-5],[0,-35],[-1,-34],[0,-60],[290,37],[5,-1],[8,-1],[23,-4],[4,0],[4,-8],[2,-6],[5,-10],[24,-55],[277,-142],[-5,-89],[65,-54],[9,-8],[39,-7],[57,-11],[70,41],[18,-14],[16,-12],[18,-14],[6,-5],[10,-8],[220,92],[46,-76],[83,54],[91,-22],[25,-5],[0,0],[5,-2],[15,12],[63,48],[23,42],[0,17],[1,79],[62,74],[29,-17],[49,-28],[123,47],[142,55],[-73,-61],[139,-118],[81,-123],[3,-36],[5,-49],[342,51],[277,181],[47,-17],[-55,183],[59,135],[9,218],[-6,6],[-13,13],[-21,22],[-8,9],[-1,1],[10,135],[1,11],[-30,32],[25,42],[111,71],[-38,143],[31,31],[8,1],[34,6],[19,-8],[69,-31],[94,22],[110,60],[31,16],[35,19],[18,4],[30,6],[60,-8],[32,-4],[7,-1],[94,-144],[61,-93],[67,43],[5,3],[53,-62],[21,-25],[3,-3],[73,-8],[25,-3],[3,-5],[4,-10],[45,-104],[22,-26],[5,-6],[9,-9],[32,-33],[144,-150],[92,-37],[220,-69],[109,25],[95,22],[25,5],[86,-47],[9,-13],[11,-18],[4,-7],[34,-54],[21,-34],[130,42],[39,-45],[54,-62],[12,2],[-18,-34],[-137,-70],[-100,-42],[-32,-13],[0,-1],[0,-2],[-1,-14],[-87,-34],[15,-92],[124,61],[0,-1],[3,-3],[4,-5],[0,0],[0,0],[2,0],[69,-80],[0,-1],[4,-11],[2,-4],[1,-3],[2,-2],[2,-3],[0,0],[36,-45],[0,0],[0,-7],[0,-1],[-1,-5],[0,-5],[0,-4],[1,-7],[1,-2],[1,-5],[1,-1],[0,-2],[9,-25],[11,-28],[14,3],[11,4],[16,-32],[0,-1],[0,0],[1,0],[10,2],[7,2],[10,3],[13,4],[11,4],[6,2],[143,42],[1,-4],[1,1],[2,1],[5,4],[2,1],[71,64],[4,1],[77,31],[6,3],[25,10],[0,0],[0,3],[14,6],[15,6],[268,113],[32,-16],[5,-19],[71,-264],[52,-84],[66,-106],[93,-151],[4,-8],[27,-46],[0,0],[-80,-17],[0,-1],[-22,-4],[-28,-14],[-48,-22],[-9,-5],[0,0],[-15,-9],[-73,-46],[-123,-37],[-27,-40],[0,0],[0,0],[0,0],[6,-24],[5,-19],[0,0],[-3,-64],[-2,-41],[13,3],[2,-50],[23,5],[0,0],[0,0],[21,-139],[1,-10],[0,0],[0,-1],[1,-2],[2,-13],[1,0],[0,-1],[1,-2],[2,-3],[5,-5],[4,-3],[4,-2],[3,-2],[5,-1],[4,0],[18,-8],[2,-1],[3,-2],[4,-1],[4,0],[2,0],[4,0],[2,1],[19,-9],[48,-64],[0,-7],[0,-2],[0,-2],[0,-1],[1,0],[0,0],[1,-1],[1,0],[2,0],[5,-1],[3,-4],[0,-1],[-1,-1],[0,-3],[0,-1],[0,-2],[0,-2],[1,-1],[0,-2],[1,-1],[1,-1],[1,-1],[1,0],[10,-9],[27,-24],[0,0],[1,-1],[2,-1],[2,-1],[2,0],[3,-1],[5,-1],[2,0],[1,0],[2,1],[1,0],[0,1],[20,-11],[1,-1],[1,-1],[2,-1],[3,-1],[2,-1],[5,-4],[1,-1],[1,-1],[1,-1],[1,0],[1,-1],[1,0],[1,1],[1,0],[0,0],[22,-12],[-1,-2],[-1,-6],[12,-10],[5,-4],[0,0],[4,-2],[33,-15],[0,0],[6,3],[4,2],[115,-63],[0,0],[0,-2],[3,-14],[0,-1],[0,-1],[0,-1],[1,-2],[0,0],[18,-86],[0,0],[0,-2],[0,-1],[0,-1],[1,-3],[0,-2],[1,-2],[0,-1],[0,-2],[0,-1],[-1,-3],[-1,-3],[0,-2],[0,-3],[0,-8],[1,-6],[0,-2],[0,-2],[-1,-1],[-1,-5],[-1,-1],[0,-2],[0,-2],[0,-2],[0,-1],[0,-4],[-1,-1],[0,-2],[1,-1],[0,-1],[1,-2],[0,-1],[-2,-22],[0,-3],[-1,-3],[0,-2],[1,-3],[0,0],[-1,-13],[0,-2],[6,-9],[10,-15],[0,0],[0,0],[13,-54],[1,-5],[18,-24],[0,0],[10,-14],[15,-9],[5,0],[11,2],[0,0],[0,-1],[1,-1],[66,-56],[2,0],[15,6],[0,0],[0,0],[1,-1],[20,-17],[6,1],[8,2],[0,0],[0,0],[2,-3],[10,-13],[3,5],[2,3],[0,0],[0,0],[3,-3],[8,-8],[12,3],[5,-10],[5,3],[1,0],[1,1],[6,3],[0,0],[5,-13],[17,4],[2,0],[0,0],[0,0],[4,-3],[1,-3],[3,-2],[1,-1],[1,0],[1,-1],[1,1],[0,0],[1,1],[0,1],[0,1],[2,2],[10,-6],[5,-3],[3,-3],[1,-1],[1,0],[0,0],[10,-2],[26,-13],[0,-1],[0,-3],[0,-1],[-1,-2],[0,-1],[1,-2],[0,-1],[2,-2],[1,-1],[0,-1],[0,-4],[0,-1],[1,0],[0,0],[1,0],[2,0],[2,0],[1,0],[2,-2],[0,-1],[-3,-12],[10,-10],[8,-29],[2,-5],[2,-9],[9,-1],[11,-15],[3,-4],[8,-11],[6,-2],[2,0],[1,-1],[51,-87],[1,0],[0,0],[18,-31],[37,-32],[36,-23],[26,-16],[21,-13],[86,-49],[22,-4],[19,-4],[73,35],[29,-16],[2,-1],[1,-3],[0,-3],[1,-3],[2,-3],[2,-3],[2,-3],[3,-3],[6,-8],[4,-4],[3,-2],[5,-4],[2,-1],[2,-1],[3,-1],[2,-1],[2,0],[3,-1],[3,-1],[4,0],[4,0],[4,0],[11,-1],[45,-3],[3,-7],[1,0],[23,5],[37,8],[10,5],[36,18],[5,1],[8,-8],[1,0],[105,21],[60,-14],[32,-8],[0,0],[16,2],[32,-8],[43,-20],[23,-21],[5,-6],[17,-20],[15,-18],[30,-20],[30,-4],[8,0],[100,8]],[[31858,37883],[-357,-263],[-177,-451],[-53,-378],[-66,-47],[-18,33],[-21,-16],[-133,-97],[-24,-11],[44,-113],[-70,-26],[-47,-125],[-4,-142],[21,-62],[-200,-5],[-185,-50],[-221,-99],[-159,-163],[-201,77],[-16,-66],[-660,172],[-24,14],[13,62],[-186,78],[39,50],[-41,14],[-216,70],[-96,-5],[56,97],[-72,46],[-300,53],[-343,-22],[-50,-28],[-212,55],[5,-95],[-31,-109],[-379,187],[-83,32],[-163,-171],[199,-113],[72,-154],[127,-80],[47,-107],[133,-153],[-172,-160],[24,-27],[-167,-56],[-242,-16],[-101,-66],[-49,15],[-134,-86],[-128,-132],[-317,-359],[2,-151],[45,-221],[109,-377],[-30,-183],[-35,96],[-73,75],[-109,202],[7,412],[-33,42],[-153,21],[-32,61],[-34,7],[1,27],[-553,9],[-100,-40],[-90,16],[-130,-106],[-173,-90],[-132,-378],[-322,51],[-42,67],[71,213],[-16,91],[-153,-6],[26,89],[-139,21],[6,-83],[-381,-8],[-133,-117],[9,-25],[-63,-52],[9,-60],[-56,-50],[-290,-53],[-208,-108],[-83,76],[-81,4],[-202,-27],[-149,-80],[-38,-84],[-29,1],[-14,-31],[25,-156],[-44,-11],[-46,-105],[8,-227],[-111,-223],[25,-68],[123,-117],[18,-96],[-314,-101],[-95,11],[-128,243],[-128,117],[-145,59],[-105,-110],[-91,-7],[-588,350]],[[21133,33695],[-42,44],[-20,113],[-134,88],[-103,-60],[-98,-109],[-304,21],[-35,51],[-169,82],[-35,163],[-128,295],[-72,108],[-94,41],[10,-117],[-54,-78],[-73,-29],[-285,241],[-154,206],[-155,64],[-221,179],[-49,12],[-77,162],[0,127],[-138,233],[17,224],[69,15],[-29,68],[60,40],[-80,131],[20,26],[-15,33],[71,62],[-9,28],[-178,272],[-126,194],[-90,-48],[-79,58],[-48,-43],[-85,41],[-63,-59],[-228,-96],[-105,24],[-154,69],[-177,207],[-25,-17],[-35,44],[-76,-45],[-58,54],[-40,-36],[-87,75],[-44,-30],[-48,11],[-273,246],[-37,-1],[-40,56],[-27,-6],[-23,53],[-1,33],[30,14],[-11,37],[-25,-4],[-69,292],[-86,62],[2,52],[-37,1],[-14,73],[-70,-15],[-52,118],[-27,-7],[-65,112],[-25,-4],[-41,82],[15,12],[-53,71],[-94,107],[-49,19],[11,84],[-56,23],[45,130],[-29,24],[32,51],[-17,10],[24,57],[-429,-75],[-413,419],[-155,-232],[-109,-75],[-96,-114],[-239,122],[-47,94],[-18,115],[-42,65],[-292,-111],[-256,5],[-49,144],[-184,147],[-6,33],[-245,104],[4,25],[-734,243],[-202,138],[-168,186],[-84,-92],[-119,-212],[-352,128],[11,42],[-46,22],[32,121],[-29,21],[-17,63],[-158,129],[67,147],[-484,-49],[-21,237],[91,259],[-212,140],[-137,8],[-6,103],[-39,63],[-452,190],[-129,376],[-79,113],[-107,42],[-332,-125],[-12,-67],[-90,-91],[-49,26],[-105,-58],[-95,34],[2,50],[-59,86],[11,15],[-31,26],[-23,-19],[-230,318],[-100,101],[-135,125],[-173,268],[-34,81],[73,47],[-62,110],[-69,-60],[-31,93],[-171,127],[-6,234],[128,200],[-42,56],[-23,106],[-205,-82],[-39,19],[-38,-34],[-68,33],[-36,-36],[-156,48],[-12,-44],[-310,-61],[-261,10],[1,22],[-281,143],[-11,32],[-256,-65],[-11,25],[-104,2],[-160,429],[-26,223],[-51,99],[3,72],[-95,36],[-60,58],[-14,165],[12,251],[-46,176],[-19,363],[-39,146],[-90,45],[-18,43],[-107,-90],[-176,-236],[-79,-152],[-184,-180],[4,-83],[-81,-82],[-35,-148],[-89,-83],[-8,-75],[-225,-90],[-176,-15],[-120,24],[-162,-104],[-281,65],[-155,85],[-102,106],[-137,247],[-32,133],[151,105],[-92,112],[140,65],[-86,63],[171,87],[92,113],[-33,51],[75,67],[-54,25],[18,19],[-5,68],[-78,17],[48,44],[-46,34],[33,78],[-178,117],[-61,266],[-95,26],[34,333],[-73,179],[-3,118],[-26,40],[52,73],[62,1],[-39,68],[112,56],[-11,31],[110,33],[-52,2],[429,267],[-100,90],[-8,202],[28,107],[-24,151],[33,18],[-61,110],[-155,137],[-150,-49],[-385,153],[101,129],[-33,58],[21,32],[-16,20],[9,180],[-43,43],[72,20],[131,-79],[145,82],[42,61],[67,17],[122,218],[35,19],[-137,324],[-141,147],[-54,124],[163,94],[365,-255],[104,79],[49,78],[-77,70],[-35,250],[-57,145],[-195,-8],[-48,56],[-2,53],[104,173],[82,364],[-141,274],[-3,53],[138,189],[-13,148],[-194,24],[-30,-26],[-97,3],[-35,54],[-338,-31],[-318,211],[-27,159],[-73,239],[-147,120],[-84,145],[-215,72],[-62,-10],[-18,66],[-114,131],[-22,78],[-72,47],[-57,152],[-80,48],[-66,2],[-94,36],[-36,95],[-50,60],[-77,197],[-77,72],[-24,101],[-178,198],[-18,51],[-105,36],[84,82],[-13,48],[46,53],[-48,174],[-24,-29],[-116,-9],[77,22],[-18,56],[-45,44],[-51,-26],[-63,30],[-73,-53],[-82,-4],[26,34],[2,59],[-62,15],[-44,-12],[-24,-54],[-50,-24],[13,-41],[-37,-34],[21,182],[-13,10],[-107,-48],[-13,37],[-55,-10],[-142,55],[20,51],[-15,13],[-176,4],[-191,56],[-48,-28],[-81,20],[-40,49],[-95,-22],[-28,51],[-37,-1],[-16,40],[-123,29],[-35,134],[63,8],[38,43],[-22,76],[61,52],[-57,82],[217,195],[-64,89],[-31,96],[-61,-33],[-29,19],[50,56],[-72,82],[-40,-21],[-26,48],[31,49],[-52,79],[88,29],[56,58],[2,40],[32,-6],[35,78],[37,9],[-32,24],[21,34],[163,97],[129,170],[-16,50],[425,409],[232,52],[153,107],[102,17],[272,122],[20,12],[-17,95],[52,6],[-3,62],[-35,57],[7,112],[41,36],[4,42],[-203,77],[-97,8],[-23,-29],[-34,21],[26,179],[65,90],[11,92],[-208,10],[-6,65],[-46,11],[-66,169],[76,65],[64,125],[-21,33],[-103,-31],[-38,31],[23,34],[-21,36],[-141,17],[-45,121],[-150,-19],[54,260],[222,247],[96,358],[-61,99],[106,139],[59,190],[-168,183],[-178,145],[-100,44],[122,98],[-37,13],[147,305],[258,153],[101,128],[198,128],[-57,132],[181,131],[-17,172],[-32,74],[146,202],[288,222],[92,61],[124,1],[50,-126],[75,-48],[63,-105],[127,83],[-78,28],[117,18],[102,67],[118,-79],[433,164],[29,-28],[47,15],[40,49],[141,60],[135,122],[33,64],[57,3],[49,65],[46,-24],[-8,35],[43,24],[34,-21],[26,41],[117,3],[16,-30],[-13,-27],[71,-3],[36,-33],[133,3],[21,-24],[11,35],[64,-8],[46,34],[9,80],[46,3],[-17,152],[47,53],[-64,18],[24,47],[-44,43],[26,34],[-26,26],[109,54],[164,16],[42,121],[-21,110],[82,0],[46,46],[63,7],[126,131],[-33,41],[3,102],[78,29],[-46,22],[45,112],[-41,57],[19,57],[-26,41],[28,24],[5,62],[138,115],[25,81],[3,150],[26,28],[29,115],[59,59],[-32,19],[2,43],[-51,96],[-39,4],[-63,-75],[-53,49],[-21,108],[-132,60],[-423,-110],[-35,219],[-311,-149],[-23,53],[-27,-2],[-18,121],[-42,94],[-259,-11],[-76,-55],[-59,95],[191,138],[118,18],[-33,181],[78,29],[41,124],[162,-6],[171,71],[-1,55],[113,-39],[38,86],[48,-52],[123,-52],[256,21],[177,-58],[15,201],[154,26],[-8,30],[-215,-24],[-56,104],[1,96],[-5,264],[47,3],[71,110],[149,144],[-50,181],[11,42],[-40,58],[-20,84],[128,13],[4,105],[-155,-12],[8,77],[-80,10],[83,70],[-17,30],[45,101],[-36,-1],[-77,79],[-480,277],[-177,186],[-227,61],[-372,-187],[-204,-195],[-540,-180],[-193,-103],[-10,-59],[-40,-24],[-117,64],[-63,-105],[-47,24],[118,183],[77,65],[20,56],[100,39],[1070,1421],[-109,97],[170,238],[32,-21],[-13,52],[-55,132],[-13,190],[-30,276],[-125,198],[-33,144],[-15,115],[20,229],[-87,285],[48,227],[15,137],[-57,658],[-181,498],[-251,382],[-225,330],[-133,244],[-128,217],[-7,124],[17,88],[-47,61],[-34,118],[-71,92],[-23,116],[-31,49],[-22,254],[-26,77],[-110,287],[-118,147],[-53,113],[0,72],[-42,65],[9,37],[-24,8],[-46,96],[-14,104],[-121,288],[-108,124],[-146,259],[-131,99],[95,94],[38,74],[132,77],[150,210],[131,48],[255,205],[214,67],[258,-29],[135,76],[125,220],[318,170],[98,149],[-55,67],[-74,115],[-201,164],[-59,94],[-169,76],[-16,45],[-112,244],[-15,78],[-52,69],[-69,513],[-92,34],[-437,-20],[-190,31],[253,84],[91,89],[120,220],[22,194],[68,30],[48,71],[498,184],[307,216],[139,32],[50,57],[151,62],[31,68],[-6,50],[-109,111],[-4,50],[447,239],[85,5],[-9,35],[40,-7],[32,49],[114,41],[39,-34],[26,44],[141,28],[71,44],[72,105],[53,18],[100,-61],[-29,-64],[161,-85],[284,57],[355,129],[-22,405],[-55,234],[29,34],[88,17],[10,54],[82,5],[167,121],[-91,105],[-9,96],[-6,42],[-81,45],[-40,-80],[-170,68],[-314,27],[-64,121],[75,45],[107,6],[-74,150],[-94,108],[-14,93],[-83,50],[1,102],[-288,68],[-88,101],[159,46],[179,201],[123,73],[-67,152],[-52,51],[-11,78],[-55,72],[-44,114],[-54,84],[-35,-6],[-71,44],[57,193],[-19,113],[-101,41],[30,129],[-8,45],[290,206],[336,413],[-33,114],[20,-15],[156,147],[297,378],[49,116],[-99,113],[16,22],[-48,74],[16,22],[-18,45],[40,59],[-4,40],[213,222],[46,26],[436,-151],[118,85],[60,-9],[153,69],[86,-115],[100,49],[34,-2],[17,-39],[31,21],[-20,23],[63,20],[118,145],[-33,68],[280,177],[10,130],[-86,139],[-14,91],[160,182],[39,103],[-54,7],[-18,-33],[-8,142],[-75,-22],[-87,144],[-53,-18],[-51,104],[-322,175],[140,108],[-55,74],[-31,-21],[-33,52],[-85,-24],[-26,32],[-62,-59],[-56,34],[-44,-33],[-76,75],[122,33],[83,82],[55,0],[236,123],[39,-11],[148,199],[58,205],[170,-11],[273,67],[200,195],[41,158],[-116,37],[-55,69],[-86,48],[-130,35],[-16,35],[47,101],[14,136],[-14,79],[-210,493],[17,34],[-29,186],[165,-11],[85,52],[63,157],[-4,90],[-21,21],[20,2],[-14,35],[20,5],[-33,50],[39,44],[-29,43],[-32,-1],[4,62],[78,60],[65,117],[-206,207],[-97,-61],[-81,60],[-204,-90],[-8,63],[-25,-4],[-266,396],[-18,66],[-123,74],[-2,282],[62,262],[-10,138],[-29,80],[-74,43],[-57,82],[-233,11],[-88,337],[-138,224],[-283,215],[32,189],[-19,40],[-5,73],[43,-9],[-1,47],[40,1],[-6,50],[54,33],[49,13],[101,-40],[58,47],[156,-27],[13,38],[39,-41],[30,42],[26,-32],[20,43],[68,9],[68,98],[-12,72],[31,4],[17,74],[59,28],[28,84],[37,31],[-19,51],[77,99],[-38,79],[45,55],[59,-34],[54,20],[37,139],[-3,114],[83,70],[75,4],[44,79],[-32,18],[9,55],[53,68],[70,-3],[6,37],[-24,9],[23,11],[-23,12],[21,25],[-52,-1],[-2,79],[54,38],[-11,35],[74,47],[-20,56],[-231,-59],[-99,-89],[-54,20],[-64,111],[10,75],[76,74],[12,47],[-40,162],[-59,89],[125,123],[-35,79],[14,41],[75,-15],[52,35],[51,233],[10,217],[129,15],[95,-98],[157,-18],[67,-38],[171,296],[-24,26],[33,56],[-94,48],[-59,-88],[-39,27],[73,122],[83,269],[-99,61],[25,64],[-17,150],[-192,109],[1,27],[108,463],[29,-21],[93,181],[49,110],[29,152],[99,-104],[90,146],[52,-21],[141,-63],[47,31],[96,-61],[611,-5],[-24,-84],[259,-207],[75,-275],[-14,-104],[15,-122],[45,-39],[39,-139],[156,-131],[83,-209],[-69,-33],[106,-111],[0,-137],[104,71],[54,-33],[56,18],[327,218],[204,127],[207,29],[221,-83],[89,-98],[139,80],[267,271],[-5,73],[204,-62],[-2,-25],[78,-31],[27,1],[0,53],[20,-1],[10,-65],[288,-34],[8,-99],[66,28],[5,-26],[278,-26],[-5,-112],[-34,-128],[7,-145],[125,-18],[15,-57],[79,-95],[162,-47],[3,-45],[96,7],[4,-30],[137,-21],[88,-65],[36,-177],[134,-224],[-7,-246],[52,-28],[6,-40],[88,-45],[32,83],[70,17],[-3,-22],[30,-9],[14,50],[50,-5],[5,50],[296,-27],[-43,-133],[163,249],[49,167],[75,141],[76,77],[680,191],[289,139],[-130,197],[239,164],[70,82],[34,97],[16,294],[113,43],[48,78],[236,180],[79,134],[16,94],[273,401],[28,76],[4,94],[6,33],[93,-6],[44,-164],[39,-67],[230,-116],[170,33],[200,169],[118,38],[29,-31],[42,53],[62,-87],[90,-11],[35,51],[99,-24],[129,65],[103,240],[-54,32],[58,98],[-53,83],[105,19],[-57,31],[-4,51],[3,70],[48,98],[134,112],[97,136],[9,105],[-18,100],[100,109],[88,51],[18,-11],[20,-13],[5,-3],[10,-7],[36,-23],[10,-6],[15,-10],[7,-4],[41,-26],[7,-14],[3,-4],[151,-279],[196,-29],[129,-72],[9,-16],[34,-57],[89,-152],[58,-98],[41,-70],[41,-70],[272,-112],[169,-293],[-28,-44],[-51,-80],[16,-137],[1,-10],[43,-104],[105,-260],[131,-485],[15,-55],[21,-77],[168,-80],[142,-68],[137,-10],[238,-17],[-91,-162],[-164,-295],[-19,-35],[-37,-66],[-4,-16],[-30,-127],[-19,-16],[-54,-47],[-115,-32],[-28,-8],[44,-104],[190,-96],[10,-4],[14,-7],[7,-4],[243,-248],[243,-187],[110,-85],[24,-102],[10,-41],[-34,-185],[20,-125],[22,-132],[22,-134],[-171,-5],[-65,-2],[-27,-75],[-30,-83],[-33,-14],[-44,-18],[-47,-92],[-11,-22],[-15,-10],[-115,-84],[-16,27],[-1,1],[-137,-68],[5,-14],[11,-32],[75,-23],[-13,-23],[-7,-14],[49,-25],[104,-53],[2,-10],[26,-107],[11,-4],[35,-10],[7,6],[37,32],[30,-44],[13,-18],[276,-158],[-16,-132],[-25,-201],[-4,-36],[4,-24],[27,-151],[84,-41],[130,-64]],[[36510,93332],[4,0],[0,0],[0,0],[23,-6],[34,-8],[48,-2],[60,15],[89,37],[37,15],[39,15],[39,6],[26,34],[3,2],[3,1],[108,71],[4,85],[11,29],[34,-30],[0,0],[56,14],[3,0],[83,5],[162,-54],[1,0],[3,-2],[3,-2],[3,-2],[1,0],[4,-2],[3,-2],[1,-1],[3,-1],[4,-2],[0,0],[4,-2],[3,-1],[0,0],[3,-1],[3,-1],[4,-2],[5,-1],[2,-1],[3,-1],[5,-1],[6,-2],[4,-1],[3,-1],[4,-1],[5,-1],[8,-3],[0,0],[1,0],[16,-5],[5,-2],[1,0],[4,7],[5,8],[4,7],[0,0],[10,19],[47,-13],[15,-11],[19,-19],[12,-18],[3,-6],[5,-7],[15,-14],[2,-1],[60,-25],[0,0],[4,3],[68,-32],[110,125],[40,-32],[12,-13],[5,5],[3,-9],[7,-10],[3,2],[60,56],[29,-22],[0,0],[9,9],[4,4],[4,3],[21,19],[150,6],[49,-18],[62,-23],[-19,-47],[3,-9],[-1,-3],[-1,-2],[-9,-8],[-17,-45],[26,-93],[29,-56],[13,-17],[25,23],[-27,51],[-13,49],[11,2],[31,5],[58,10],[3,-38],[106,-28],[-5,-20],[-4,-16],[0,0],[5,-2],[26,-12],[76,-85],[113,-36],[5,-11],[3,-7],[9,3],[0,0],[22,9],[232,-20],[38,-3],[47,-4],[25,-41],[1,-3],[1,0],[21,-35],[1,0],[1,-3],[66,9],[-1,10],[9,2],[33,-12],[20,-16],[9,1],[45,5],[48,-14],[1,-2],[29,-58],[2,-8],[9,-22],[-43,-38],[-54,-21],[-11,-20],[-5,-1],[-8,-1],[-6,-22],[-5,-4],[-15,-14],[-7,-7],[-6,-5],[-39,-36],[107,-171],[14,-14],[34,12],[10,3],[8,-2],[28,-68],[39,-92],[-1,-1],[-1,-3],[0,0],[-4,-29],[0,0],[0,0],[0,0],[0,-8],[1,-6],[1,-4],[2,-4],[-32,-150],[-117,-67],[-33,0],[7,-15],[9,-7],[22,-18],[53,-53],[-10,-240],[63,-74],[7,-53],[8,-96],[7,-17],[3,-28],[48,-87],[4,-3],[2,-14],[0,0],[0,0],[0,0],[19,-4],[82,-73],[6,-12],[0,0],[22,-15],[77,17],[0,0],[6,26],[14,60],[20,42],[177,-59],[2,3],[8,-10],[14,-58],[-10,-56],[-23,-52],[-16,-36],[-24,-108],[-9,-32],[-123,48],[-1,-1],[-2,1],[0,0],[-111,-99],[-6,-22],[-14,-48],[0,0],[13,-72],[0,0],[44,-45],[60,-45],[2,1],[139,70],[38,20],[102,53],[51,26],[29,15],[120,63],[19,10],[7,4],[74,39],[15,0],[2,0],[107,-12],[102,-108],[4,-3],[130,-146],[0,0],[29,22],[31,23],[46,36],[4,4],[14,12],[76,-39],[2,1],[15,-10],[0,0],[20,21],[8,7],[9,4],[98,41],[6,3],[7,3],[4,0],[1,0],[40,10],[23,7],[22,11],[10,7],[40,22],[104,-11],[76,-32],[0,0],[28,39],[8,13],[2,6],[2,5],[19,8],[5,2],[14,-12],[13,-12],[3,-2],[-26,-25],[-48,-46],[0,0],[0,0],[-48,-106],[0,0],[-1,-37],[-1,-26],[0,0],[0,0],[17,-30],[0,0],[0,0],[18,-88],[15,-18],[8,7],[27,26],[170,28],[92,-23],[10,-5],[16,-7],[17,-2],[2,0],[16,-1],[134,-34],[2,-1],[33,-10],[1,-1],[1,2],[12,-3],[127,300],[3,4],[0,0],[4,9],[3,7],[22,49],[15,33],[0,0],[0,9],[25,61],[9,14],[2,5],[9,19],[4,8],[9,17],[1,3],[13,24],[6,12],[8,17],[5,8],[2,5],[2,5],[3,7],[3,9],[2,10],[1,5],[4,16],[0,0],[116,235],[26,18],[25,19],[0,0],[1,0],[6,2],[47,15],[0,0],[3,2],[2,1],[13,9],[5,4],[20,16],[9,14],[3,4],[38,19],[31,-9],[8,-4],[20,-10],[12,-6],[10,-5],[13,-7],[10,-3],[16,-4],[9,-2],[7,-1],[21,-5],[29,-7],[56,-5],[38,-4],[0,0],[2,0],[13,-1],[10,0],[9,0],[9,0],[14,1],[35,4],[10,2],[9,1],[9,1],[1,1],[2,0],[46,21],[32,4],[63,-81],[6,-19],[0,0],[9,1],[2,-2],[161,7],[13,0],[17,1],[0,-5],[1,-12],[2,-23],[1,-22],[0,0],[25,-69],[0,-51],[17,-48],[3,-28],[5,-36],[0,0],[4,-2],[65,-35],[0,0],[23,-20],[49,-43],[5,5],[46,-35],[-15,-21],[0,0],[24,-21],[79,-42],[69,-10],[0,0],[0,0],[2,-9],[0,0],[0,0],[15,0],[3,0],[3,-1],[4,0],[5,0],[17,2],[11,0],[7,-27],[0,-5],[0,-4],[1,-4],[1,-7],[2,-6],[2,-10],[0,0],[4,1],[4,-13],[2,-7],[251,5],[40,1],[5,-1],[1,0],[0,1],[1,0],[24,59],[0,1],[2,1],[1,2],[2,4],[1,3],[0,2],[0,3],[2,5],[-10,190],[-56,90],[-2,14],[0,8],[-1,0],[-23,29],[-13,17],[-1,40],[13,49],[0,0],[-11,20],[-26,49],[0,3],[1,8],[1,11],[1,9],[0,10],[1,3],[0,0],[0,0],[1,2],[12,22],[19,31],[23,40],[3,78],[0,4],[0,0],[24,42],[40,43],[37,23],[-1,3],[6,59],[105,44],[0,0],[6,1],[9,3],[0,0],[9,5],[17,8],[23,10],[58,24],[51,8],[32,4],[32,-22],[0,0],[0,0],[17,-21],[0,0],[4,-15],[2,-11],[17,-5],[0,0],[16,-24],[4,-6],[15,-5],[22,19],[100,27],[9,2],[6,5],[5,3],[40,30],[4,0],[8,0],[13,0],[33,15],[17,7],[1,0],[78,57],[0,0],[-8,23],[-14,40],[-3,11],[-7,19],[13,60],[3,16],[0,0],[14,16],[36,40],[38,110],[74,155],[-6,96],[-2,46],[-18,286],[13,35],[16,41],[0,1],[10,71],[8,68],[1,-1],[78,-75],[49,-94],[7,-13],[0,0],[38,-35],[34,-1],[1,0],[31,12],[9,3],[33,12],[9,4],[4,1],[22,7],[7,0],[8,1],[3,0],[0,0],[6,4],[8,4],[151,43],[-4,-55],[0,0],[-30,-129],[0,0],[0,0],[0,-1],[-2,-89],[0,0],[0,0],[13,3],[-2,-15],[128,73],[277,200],[1,3],[15,7],[10,5],[7,3],[-12,57],[25,8],[19,7],[37,17],[11,-3],[10,3],[28,-33],[35,-69],[76,16],[87,50],[24,45],[-7,20],[-4,4],[-33,30],[-6,-3],[-19,36],[-8,15],[0,0],[-27,32],[0,0],[-9,6],[-15,7],[-12,2],[-55,62],[-73,137],[-20,46],[-3,12],[-12,25],[-3,7],[13,28],[14,9],[0,0],[-4,6],[31,37],[0,0],[19,40],[0,0],[-4,7],[21,19],[21,12],[8,-14],[36,17],[8,-16],[0,0],[89,41],[24,10],[0,0],[10,-43],[61,22],[50,43],[11,9],[1,1],[138,84],[8,5],[17,8],[19,14],[11,5],[7,3],[15,9],[14,10],[13,9],[9,7],[14,18],[126,82],[23,-77],[-4,-4],[0,0],[7,-10],[54,-80],[1,-2],[0,0],[18,5],[30,3],[83,30],[216,-60],[12,-7],[6,-3],[4,-1],[5,-1],[60,-12],[32,-9],[9,1],[7,0],[7,1],[2,0],[15,1],[88,7],[30,-35],[7,2],[3,-9],[0,-1],[38,14],[50,18],[4,2],[95,35],[38,12],[243,-42],[61,9],[20,1],[45,2],[12,-1],[22,0],[27,1],[26,3],[51,14],[30,8],[2,1],[17,8],[-7,53],[9,2],[-18,49],[-16,13],[28,41],[12,4],[32,-19],[1,-4],[4,0],[52,-32],[3,1],[0,-4],[102,22],[65,20],[66,28],[58,-11],[9,-17],[1,-1],[35,5],[0,0],[74,-9],[5,0],[28,-5],[125,-70],[5,11],[15,-8],[0,0],[67,156],[27,60],[0,0],[7,81],[22,25],[33,16],[7,39],[31,-28],[9,-20],[-1,-40],[-14,-38],[11,-39],[81,-7],[46,-18],[46,-129],[19,-16],[54,-22],[8,1],[6,1],[14,1],[22,8],[16,6],[22,2],[52,6],[61,35],[20,5],[37,9],[17,4],[44,-75],[19,-35],[0,0],[6,-12],[3,-6],[3,-3],[0,0],[11,-19],[132,-32],[14,-54],[-2,-9],[0,-9],[2,-16],[1,-6],[5,-9],[5,-8],[7,-15],[7,-14],[14,-10],[40,2],[77,4],[67,16],[29,-7],[39,-9],[0,0],[5,5],[25,24],[11,4],[104,-26],[3,-5],[1,-7],[1,-2],[1,-1],[2,-3],[2,-2],[6,-3],[2,0],[1,0],[66,-24],[3,-1],[5,5],[13,11],[7,-1],[5,-2],[14,-3],[2,0],[5,-1],[5,-2],[7,-1],[4,-1],[34,-16],[5,-17],[-1,-2],[-1,-4],[2,-2],[2,-2],[1,0],[5,-16],[1,-18],[-2,-1],[0,0],[-2,-2],[-4,-3],[-1,-4],[0,-5],[2,-5],[3,-11],[2,-3],[3,-3],[2,0],[3,-36],[-12,-69],[-7,-33],[-3,-4],[-3,-6],[-1,-3],[-2,-14],[-1,-11],[2,-6],[0,-2],[-5,-25],[-1,-1],[-4,-6],[-1,-5],[0,-2],[3,-4],[-8,-42],[0,-1],[-1,-3],[-1,-5],[1,-4],[1,-2],[3,-8],[0,-1],[2,-4],[0,-4],[0,-3],[1,-4],[1,-3],[0,-2],[2,-4],[1,-3],[3,-4],[2,-3],[1,-2],[1,-2],[0,-4],[4,-5],[0,-15],[0,0],[-2,-5],[0,-4],[2,-4],[3,-5],[3,-4],[3,-2],[4,-3],[13,-8],[7,-3],[5,-3],[8,-5],[14,-6],[9,-6],[10,-26],[14,-14],[0,0],[48,-5],[9,-1],[17,-2],[38,7],[0,0],[46,27],[2,2],[17,14],[4,6],[53,24],[3,-2],[4,-1],[20,-20],[8,-11],[-19,-57],[-1,-2],[-4,-10],[0,-4],[0,-1],[-17,-51],[-25,9],[-16,9],[-9,3],[-40,11],[-3,0],[-5,1],[-11,-5],[-7,-5],[-14,-11],[-6,-5],[-5,-8],[-3,-5],[0,-3],[5,-21],[0,-2],[-1,-1],[2,-8],[1,-2],[2,-13],[5,-20],[0,0],[8,-13],[4,-6],[11,-18],[30,-78],[0,0],[31,-14],[0,0],[8,-2],[6,-2],[3,0],[60,-39],[-16,-24],[-3,2],[-6,1],[-14,-2],[-6,-2],[-3,-3],[-3,-3],[-9,-22],[10,-15],[19,-31],[18,-28],[0,0],[4,0],[11,-3],[23,-5],[13,-3],[35,3],[0,1],[-3,15],[15,15],[4,13],[4,11],[-2,33],[-1,15],[0,1],[0,6],[5,18],[5,9],[91,-5],[1,0],[1,0],[24,-1],[5,5],[2,0],[0,0],[0,0],[35,16],[0,0],[32,30],[39,36],[7,1],[27,-20],[0,-1],[1,0],[0,0],[-125,-302],[-3,-2],[-11,-31],[-4,-13],[-6,-34],[0,0],[21,-35],[11,-17],[7,-11],[1,-1],[0,0],[21,-8],[0,0],[5,1],[5,2],[3,1],[5,5],[1,1],[2,1],[46,1],[15,-8],[0,-2],[7,-24],[0,0],[15,-6],[13,-4],[50,-18],[5,-2],[0,0],[10,-6],[3,-2],[52,-34],[0,0],[20,-27],[2,1],[2,3],[7,12],[23,-13],[12,-14],[11,-30],[25,17],[0,0],[0,0],[27,29],[22,24],[40,39],[36,16],[110,50],[65,-129],[-1,0],[2,-3],[0,-1],[0,-2],[0,-2],[0,-4],[2,-2],[1,-5],[0,-2],[4,-28],[12,3],[6,2],[1,0],[37,11],[0,0],[1,1],[2,6],[61,21],[2,-3],[1,-1],[1,-3],[2,-1],[0,0],[4,3],[2,0],[6,2],[2,2],[2,3],[1,3],[148,-109],[76,-68],[-8,-5],[0,0],[22,-37],[0,0],[85,-91],[5,3],[72,-99],[1,-4],[1,-11],[6,-12],[4,-5],[0,0],[13,-3],[1,-1],[93,-27],[34,-143],[8,3],[1,-2],[0,0],[16,9],[60,24],[121,49],[24,-11],[91,46],[0,0],[19,-19],[44,-58],[56,-62],[0,0],[41,-31],[9,-6],[54,16],[12,11],[64,16],[82,20],[3,1],[19,-26],[29,-35],[19,-24],[38,-49],[0,0],[71,-77],[92,-100],[0,0],[30,-23],[15,-12],[32,-24],[8,-4],[52,-39],[3,-3],[1,0],[1,-1],[55,7],[32,4],[10,1],[30,3],[33,4],[0,1],[0,0],[-11,61],[-9,52],[-16,89],[0,0],[-13,114],[0,0],[8,211],[13,-4],[45,-14],[4,-1],[8,-2],[64,-21],[-2,-103],[0,0],[1,0],[21,-4],[13,-3],[-1,-24],[0,0],[62,-2],[34,-102],[3,-11],[21,3],[8,1],[137,17],[25,38],[-13,57],[0,0],[17,-4],[218,-43],[97,-55],[88,-13],[19,-1],[52,-4],[47,12],[41,10],[26,6],[125,64],[85,44],[46,-33],[115,64],[13,8],[20,13],[27,18],[143,131],[39,23],[43,25],[98,119],[28,61],[86,121],[204,-48],[7,6],[8,8],[37,34],[60,-10],[202,-198],[-49,-50],[95,-116],[77,-85],[90,-80],[94,81],[74,-53],[205,-83],[32,-81],[89,-24],[55,-63],[259,130],[39,44],[27,30],[0,0],[0,0],[38,-92],[111,-13],[100,-161],[0,0],[55,-47],[166,-142],[145,-208],[0,0],[114,-99],[4,-4],[3,-3],[22,-20],[30,-28],[77,-8],[127,-12],[51,-16],[54,-17],[60,-6],[16,-1],[55,-5],[36,-4],[0,0],[306,-249],[0,0],[60,-51],[175,-238],[127,-94],[41,-9],[115,-101],[37,-12],[62,-69],[155,-5],[190,8],[30,-75],[8,-6],[97,-74],[52,52],[0,0],[0,0],[39,-32],[45,-36],[0,0],[-2,-51],[11,-17],[26,-37],[140,-137],[37,-36],[45,-44],[74,-73],[13,-21],[34,-55],[-1,-8],[-9,-44],[26,-98],[45,-50],[14,-16],[64,50],[42,-66],[10,-16],[-14,-18],[-16,-16],[-7,-7],[-48,-15],[-1,0],[-22,-7],[-39,-37],[-19,-30],[-8,-14],[-59,19],[-2,-1],[-22,-4],[-38,21],[-25,15],[-130,-99],[-1,-1],[-4,-4],[-47,-57],[-39,-21],[19,-29],[0,0],[-95,-63],[-22,-38],[-4,0],[-37,0],[-1,0],[-50,-154],[7,-61],[44,-144],[-6,-25],[23,-62],[4,-9],[56,-152],[122,46],[98,-102],[73,-27],[91,21],[0,0],[27,-13],[-26,-170],[32,-145],[0,0],[181,-82],[104,-13],[127,-244],[78,11],[339,70],[24,5],[39,8],[96,-113],[28,-114],[2,-11],[21,14],[10,8],[1,0],[42,2],[27,-14],[22,3],[59,6],[8,-28],[5,-19],[26,6],[11,2],[0,0],[18,-26],[7,-14],[0,-6],[7,-5],[-7,-21],[4,-19],[0,-14],[5,-9],[-9,-13],[-10,-19],[-22,-30],[-5,-9],[-11,-25],[-2,-35],[3,-31],[-1,-20],[3,-24],[-5,-9],[-11,-32],[-9,-33],[-6,-29],[-20,-46],[-11,-32],[2,-34],[3,-28],[0,-7],[5,-11],[-4,-15],[0,-1],[-3,-7],[-7,-27],[-2,-20],[0,0],[20,-3],[-1,-73],[-58,-200],[74,32],[339,143],[0,0],[66,-48],[62,-44],[0,0],[0,0],[7,-8],[25,-33],[24,-146],[94,31],[-7,-14],[-81,-165],[-60,-130],[-21,-44],[-52,-20],[-10,-4],[30,-58],[0,0],[-170,-60],[24,-154],[-14,-4],[-75,-29],[-12,-57],[-13,-94],[-10,-22],[-8,-18],[24,-14],[0,0],[0,0],[-20,-25],[-7,-9],[-1,-2],[-17,-31],[-11,-8],[-14,0],[-34,7],[-6,6],[-7,5],[0,0],[-19,38],[0,0],[-37,29],[7,6],[23,19],[-4,60],[-107,142],[-39,51],[-172,34],[-58,55],[-44,42],[-56,-13],[-97,-24],[-23,-6],[-97,-42],[-40,-48],[-66,-19],[18,-40],[-3,-30],[35,-71],[-4,-37],[17,-29],[-12,-153],[23,-98],[24,-42],[1,-2],[2,-4],[21,-35],[138,-156],[164,-85],[15,-8],[0,0],[3,-35],[3,-35],[23,-55],[34,-32],[36,-34],[0,0],[-35,-43],[-1,-3],[-9,-58],[44,-76],[4,2],[34,17],[59,-57],[61,26],[65,88],[51,41],[39,-69],[24,-42],[109,85],[0,0],[18,-20],[0,0],[13,-26],[0,0],[-33,-32],[-34,-33],[71,-52],[54,-56],[90,-144],[0,0],[0,0],[0,0],[-36,-55],[-17,-26],[10,-13],[-81,-99],[-100,-175],[20,-13],[-31,-63],[122,-171],[68,-74],[226,-145],[56,-49],[20,-45],[30,-25],[48,-40],[38,-100],[129,-209],[79,-43],[32,-2],[1,0],[6,-13],[50,-100],[39,-132],[73,29],[3,1],[6,38],[1,6],[181,25],[92,-46],[35,-47],[46,-109],[76,-72],[39,-36],[72,-7],[-9,-90],[9,-2],[84,-15],[55,-24],[14,69],[84,-34],[160,-247],[34,-77],[47,10],[34,-51],[12,-17],[51,-42],[33,11],[2,0],[49,17],[43,-72],[5,-8],[7,-12],[-31,-63],[11,-5],[15,-8],[17,-109],[41,-127],[64,5],[1,0],[54,31],[126,98],[0,0],[34,-64],[61,-39],[7,-3],[10,6],[9,6],[146,-74],[23,-19],[1,0],[22,12],[48,-10],[-81,-157],[-69,-31],[0,0],[39,-140],[11,-77],[12,-85],[5,-29],[-10,-29],[-14,-5],[-29,-143],[-105,-167],[-33,-60],[-76,-138],[23,-50],[4,-37],[9,-85],[24,-34],[81,-167],[109,8],[96,27],[16,41],[127,44],[0,0],[64,54],[6,-25],[10,-41],[3,-4],[15,-22],[25,-28],[57,-30],[58,-51],[123,-31],[-7,-23],[0,-2],[58,-53],[0,0],[3,-8],[24,-58],[6,-15],[69,-80],[57,20],[15,5],[25,-97],[-31,-13],[-31,-36],[-7,-14],[-1,-24],[-4,-14],[-35,-42],[-8,-30],[-64,-51],[-9,-8],[-11,-29],[-5,-35],[-5,-34],[11,-61],[3,-7],[8,-22],[2,-9],[3,-14],[4,-7],[11,-11],[41,-23],[18,-14],[35,-41],[13,-85],[4,-15],[16,-27],[4,-23],[-1,-47],[-11,-29],[4,-93],[2,-8],[18,-27],[8,-13],[9,-20],[12,-54],[-38,-92],[-53,-211],[-2,-15],[9,-86],[6,-38],[1,0],[42,-100],[220,-281],[61,8],[33,27],[0,0],[19,9],[109,47],[97,-20],[22,-21],[12,3],[27,7],[56,31],[1,0],[202,96],[44,43],[10,10],[1,0],[169,81],[5,3],[2,-2],[133,-125],[66,-204],[14,-43],[210,-466],[0,0],[-4,-7],[-95,-153],[-201,-238],[-435,-579],[292,-638],[39,-83],[192,-124],[4,-2],[2,-2],[38,-24],[96,-162],[14,-23],[224,-208],[-7,-19],[94,-86],[142,51],[124,44],[77,40],[71,37],[126,-13],[285,-96],[29,6],[37,8],[29,6],[5,1],[167,55],[138,45],[16,10],[38,22],[8,1],[27,1],[77,5],[60,25],[30,11],[27,8],[1,0],[2,0],[53,-8],[42,-6],[5,-2],[52,-9],[2,-5],[33,-15],[74,-45],[15,-7],[6,15],[72,-31],[4,-7],[70,-106],[81,-64],[23,-8],[13,-3],[38,-2],[37,0],[9,1],[199,-53],[20,-43],[6,-9],[24,-13],[53,-30],[84,-93],[1,-1],[52,-22],[23,-3],[246,-26],[17,-9],[7,-4],[127,-71],[125,-112],[108,-58],[240,-112],[18,13],[74,50],[265,182],[13,8],[16,12],[103,72],[-54,142],[-1,5],[-6,25],[-49,207],[10,187],[13,32],[9,22],[-21,140],[0,0],[-19,120],[80,19],[265,61],[32,15],[35,16],[66,-13],[30,-5],[27,-6],[5,38],[3,25],[6,17],[7,17],[-1,12],[-11,41],[1,11],[11,1],[27,-9],[6,3],[10,18],[11,45],[1,3],[6,10],[1,3],[1,0],[17,0],[-6,18],[-6,15],[-9,24],[0,0],[0,1],[-5,22],[3,22],[0,1],[14,46],[1,14],[-5,17],[-10,21],[-14,21],[-15,13],[-17,12],[-5,8],[-6,5],[-1,9],[-2,27],[-2,18],[0,1],[-3,9],[-12,16],[-5,23],[0,0],[-12,52],[-7,29],[-10,10],[-7,1],[-15,0],[-1,0],[-6,3],[-3,3],[-20,20],[-2,5],[-4,8],[1,4],[1,12],[-1,8],[0,14],[-4,9],[-41,15],[-2,1],[-3,3],[-1,1],[0,3],[-3,9],[-1,18],[-9,19],[-22,35],[-5,7],[-39,53],[-51,69],[-16,21],[-15,3],[-5,7],[0,8],[0,4],[0,4],[7,22],[0,8],[-5,101],[3,47],[5,22],[5,7],[13,8],[11,0],[6,6],[14,26],[10,42],[1,7],[-2,26],[-1,0],[0,1],[-8,27],[0,2],[0,0],[-15,28],[0,0],[0,0],[-32,45],[-5,7],[-3,5],[-1,6],[0,1],[-3,23],[-2,2],[-6,8],[-31,20],[-23,14],[-1,1],[-1,2],[-11,18],[-2,3],[-35,76],[-8,7],[-36,17],[0,0],[-17,11],[-5,3],[-36,49],[-1,0],[-59,75],[-4,4],[-2,8],[0,0],[-2,8],[-5,19],[-5,18],[0,0],[-8,13],[-1,0],[0,0],[-20,10],[-17,7],[-5,3],[-13,8],[-3,4],[-23,25],[0,0],[0,0],[-33,19],[0,0],[-41,11],[-7,2],[-6,5],[-49,39],[0,0],[0,0],[23,54],[23,36],[16,33],[0,1],[6,3],[193,113],[19,8],[9,4],[50,24],[92,67],[82,66],[18,15],[3,6],[7,16],[7,3],[45,17],[170,147],[54,22],[4,2],[146,-28],[63,-77],[63,-53],[54,-32],[94,-29],[9,-68],[36,-109],[1,-2],[40,-31],[13,-11],[63,-27],[371,-159],[126,-54],[173,-75],[37,44],[10,11],[53,63],[162,133],[182,44],[14,0],[37,1],[86,3],[69,25],[11,4],[174,164],[63,76],[27,31],[-16,97],[12,16],[-4,21],[-2,11],[6,7],[2,2],[19,0],[46,-2],[10,0],[70,-1],[66,29],[19,9],[64,-35],[36,-19],[28,-16],[346,19],[47,-232],[18,-87],[150,-142],[13,-16],[20,-24],[64,-90],[89,-125],[71,-99],[86,-85],[4,-5],[23,-22],[54,-53],[50,-33],[93,-59],[385,290],[25,19],[62,47],[95,-3],[1,0],[630,-479],[166,-175],[85,-177],[342,-27],[50,-249],[5,-23],[13,-62],[24,9],[74,29],[3,6],[37,70],[5,9],[0,0],[31,61],[121,79],[61,18],[20,6],[9,3],[19,-46],[-3,-110],[49,-62],[46,18],[57,23],[52,51],[1,0],[18,17],[2,2],[20,-20],[4,-3],[81,11],[72,10],[66,9],[7,1],[4,1],[-64,-188],[12,-107],[7,-210],[-11,-38],[-11,-37],[-43,-91],[-91,-143],[0,0],[-3,-4],[-2,-2],[-19,-27],[-2,-3],[-6,-11],[-4,-9],[0,-1],[-2,-11],[-1,-6],[-16,-147],[-6,-64],[-4,-43],[3,-38],[21,-93],[9,-34],[6,-14],[12,-26],[20,-30],[25,-27],[30,-30],[35,-41],[4,-4],[1,-1],[22,-25],[2,-7],[2,-19],[3,-10],[2,-33],[3,-31],[2,-39],[-32,-95],[-4,-14],[-8,-32],[-4,-35],[3,-33],[2,-39],[9,-42],[25,-66],[8,-20],[6,-11],[11,-18],[0,0],[20,-24],[36,-53],[7,-9],[24,-33],[43,-66],[8,-13],[9,-20],[0,0],[1,-1],[5,-14],[17,-46],[2,-5],[14,-29],[0,0],[0,0],[5,-4],[51,-49],[11,-11],[11,-20],[30,-73],[42,-129],[32,-88],[67,-159],[32,-103],[9,-37],[-1,-39],[3,-32],[-2,-22],[-38,-136],[-9,-53],[0,-93],[-8,-72],[-29,-225],[-10,-210],[1,-16],[1,-15],[13,-44],[15,-37],[40,-85],[38,-68],[35,-40],[88,-83],[43,-40],[27,-15],[94,-37],[38,-7],[1,0],[40,-2],[0,0],[0,0],[108,36],[1,0],[216,86],[1,0],[15,6],[1,0],[1,2],[9,13],[21,27],[0,1],[3,4],[5,10],[0,0],[24,81],[0,0],[2,24],[-1,30],[0,39],[-1,34],[3,19],[5,51],[23,57],[17,22],[23,30],[18,33],[0,0],[9,48],[6,7],[22,27],[1,1],[59,42],[55,39],[0,0],[82,41],[0,0],[70,28],[96,39],[130,44],[83,47],[63,44],[26,41],[3,42],[-2,25],[-2,35],[-15,36],[-15,28],[-10,20],[-163,253],[-16,37],[-5,38],[0,0],[-58,62],[-7,23],[-2,7],[13,30],[35,34],[6,8],[20,29],[6,10],[0,41],[0,0],[-63,59],[-10,16],[-14,21],[-11,40],[-2,10],[-3,20],[-5,42],[-1,43],[0,6],[0,0],[13,41],[20,115],[12,39],[27,27],[10,1],[33,5],[31,-14],[14,-29],[28,-31],[35,-6],[103,2],[47,11],[48,18],[71,13],[31,17],[3,6],[45,74],[34,34],[6,6],[37,24],[71,21],[0,1],[0,0],[45,-6],[65,-7],[0,0],[0,0],[71,-19],[37,-41],[3,-29],[-9,-34],[-1,-24],[12,-25],[1,-1],[0,0],[35,-8],[124,9],[0,0],[27,-2],[13,-7],[13,-7],[6,-23],[-11,-34],[-28,-46],[-17,-16],[-18,-18],[-179,-124],[-35,-39],[-41,-46],[-8,-14],[-13,-24],[-5,-16],[-12,-36],[-6,-35],[-9,-123],[9,-91],[18,-64],[22,-26],[30,-1],[12,5],[19,8],[40,29],[35,16],[204,24],[117,15],[1,0],[50,15],[122,74],[0,0],[35,9],[84,4],[0,0],[40,-4],[20,-15],[16,-65],[27,-34],[28,-14],[15,-18],[4,-4],[16,-122],[30,-54],[47,-63],[7,-17],[4,-38],[-3,-92],[0,-25],[9,-13],[78,-42],[66,-124],[6,-3],[86,-3],[73,-26],[72,-92],[30,-24],[225,-34],[37,-9],[12,-8],[16,-29],[36,-13],[76,-66],[15,-18],[44,-69],[106,-45],[24,-9],[14,28],[0,0],[20,39],[-29,29],[0,0],[0,0],[29,42],[48,70],[54,125],[9,21],[61,97],[3,1],[36,14],[61,-83],[133,45],[11,4],[0,0],[82,45],[13,7],[83,-54],[55,20],[0,0],[-28,92],[1,0],[224,-12],[11,56],[4,17],[53,-6],[3,-36],[45,-100],[11,-52],[115,10],[46,-91],[-7,-5],[-31,-24],[1,-1],[36,-40],[1,-1],[70,-76],[103,-115],[0,0],[1,-3],[4,-46],[1,-14],[0,0],[7,-15],[14,-30],[4,-21],[5,-23],[-1,-30],[0,-21],[-20,-50],[48,-107],[3,1],[5,2],[3,1],[30,11],[27,9],[134,258],[0,5],[4,47],[4,68],[1,12],[18,13],[18,12],[24,29],[0,0],[0,0],[5,0],[84,-3],[2,1],[20,50],[0,0],[43,2],[53,3],[65,3],[4,1],[89,34],[0,0],[0,0],[167,-4],[360,70],[120,66],[82,62],[18,2],[2,0],[37,5],[55,-8],[232,77],[11,-58],[125,-94],[12,-5],[602,-257],[31,0],[4,7],[1,3],[25,53],[106,-6],[27,18],[22,15],[0,-1],[70,-2],[90,-56],[58,-44],[12,2],[13,5],[11,11],[33,4],[33,6],[42,80],[0,0],[80,-51],[-6,-132],[-42,-153],[-4,-77],[324,-73],[69,-38],[188,131],[46,117],[31,51],[37,59],[95,100],[2,41],[0,15],[0,0],[52,161],[15,6],[24,11],[33,47],[6,9],[0,0],[21,13],[69,44],[0,0],[10,18],[25,43],[1,16],[2,52],[57,218],[0,0],[1,1],[37,81],[58,71],[109,83],[61,46],[31,23],[13,11],[116,70],[193,117],[420,26],[143,-111],[403,36],[229,-41],[-29,39],[-16,39],[1,17],[2,15],[0,0],[44,5],[8,0],[0,0],[-6,24],[-4,78],[-9,88],[0,0],[-36,191],[-6,32],[0,1],[1,28],[1,13],[20,64],[16,49],[-1,24],[0,8],[9,29],[18,36],[128,187],[5,5],[13,10],[31,12],[16,6],[0,0],[10,11],[3,4],[0,0],[0,0],[4,19],[-2,17],[-1,7],[-2,3],[-8,11],[-81,75],[-13,21],[-2,4],[-8,28],[-23,131],[1,5],[3,30],[0,30],[0,16],[-4,21],[-2,8],[0,2],[0,30],[3,15],[4,24],[1,25],[1,14],[-2,25],[0,14],[14,7],[10,5],[27,12],[228,71],[235,73],[56,8],[37,7],[165,36],[181,41],[475,103],[227,49],[549,118],[675,144],[46,9],[0,0],[-2,-13],[-2,-15],[0,0],[-14,-26],[-15,-24],[0,0],[-64,-37],[-60,-29],[-2,0],[-42,-38],[-55,-6],[-17,-7],[-19,-7],[-34,-21],[-7,-6],[-21,-20],[-8,-28],[0,-27],[12,-48],[1,-23],[11,-23],[53,-43],[1,-1],[10,-3],[39,-12],[19,-18],[46,-71],[3,-8],[17,-41],[0,-3],[6,-38],[2,-36],[-8,-33],[-19,-32],[-25,-23],[-7,-6],[-2,-2],[0,0],[-115,-63],[-127,-41],[-18,-16],[-1,-24],[6,-26],[-11,-59],[2,-24],[21,-30],[17,-10],[23,-13],[91,-24],[0,0],[43,0],[56,11],[26,14],[10,5],[7,5],[34,23],[0,0],[68,79],[2,1],[22,35],[0,0],[66,54],[39,17],[33,0],[2,0],[19,-9],[12,-5],[0,0],[72,-45],[0,-1],[16,-7],[12,-6],[0,0],[1,0],[88,-30],[22,-21],[28,-48],[20,-20],[14,-20],[18,-43],[0,0],[11,-28],[13,-34],[74,-11],[62,25],[0,0],[130,83],[27,32],[18,35],[39,73],[120,44],[67,21],[173,11],[182,55],[0,0],[1,0],[306,-7],[9,0],[0,-8],[9,0],[0,-16],[43,10],[56,14],[1,-10],[1,0],[3,-42],[-10,-47],[0,-1],[0,0],[-46,-191],[17,-135],[8,-70],[0,-1],[58,-174],[17,-49],[10,-28],[16,-47],[4,2],[51,28],[327,-58],[-12,-137],[-3,-38],[-4,-50],[-103,-42],[-34,-24],[0,0],[0,0],[-126,-134],[-2,-2],[-4,-4],[-33,-40],[-47,-77],[-40,-64],[-2,-3],[9,-14],[11,-20],[32,-30],[0,0],[0,0],[-11,-13],[-6,-7],[-33,-41],[0,0],[0,0],[-197,52],[-7,-47],[-12,-76],[-9,-61],[0,-2],[18,-136],[121,-22],[90,-17],[46,-22],[34,-44],[0,0],[63,-120],[28,-100],[35,-60],[1,-27],[92,-164],[0,0],[0,0],[0,0],[69,-204],[1,-1],[223,3],[140,-82],[27,-57],[94,-191],[45,-129],[0,0],[43,-132],[0,0],[-14,-96],[40,-121],[56,-99],[3,-7],[11,-21],[2,-5],[4,-8],[24,-12],[-8,-30],[24,-39],[41,-15],[0,0],[72,0],[29,-67],[13,-19],[0,0],[-13,-126],[-15,-149],[331,-37],[1,0],[-77,-156],[173,-139],[150,-147],[190,-144],[216,-127],[112,-73],[159,-102],[15,-10],[6,0],[150,-23],[51,-4],[244,43],[140,25],[263,46],[320,56],[126,22],[10,0],[48,2],[0,0],[1,-1],[181,-108],[0,0],[63,-63],[91,-94],[360,-240],[2,0],[102,-9],[230,-22],[54,-50],[-18,-64],[27,-102],[2,-31],[-4,-78],[-12,-81],[0,0],[-4,-29],[0,0],[72,-105],[3,-291],[-52,-203],[162,-52],[159,-268],[-116,-229],[-344,-500],[13,-24],[-14,-64],[-40,-37],[-83,-69],[-153,-45],[-88,-132],[-53,-25],[-8,-75],[-178,-219],[-16,-61],[16,-54],[-157,-78],[-8,-21],[34,-22],[-30,-154],[191,-224],[-247,-248],[-13,-121],[-244,-208],[-46,-229],[-271,-326],[-52,-143],[88,-21],[92,-104],[-6,-130],[-234,-346],[-119,-324],[-101,-190],[170,-140],[-35,-42],[-73,-77],[-59,-168],[-62,-243],[-247,-163],[-82,35],[-39,-16],[-141,-178],[-49,-119],[-177,-193],[-142,-80],[-79,-107],[-14,-70],[104,-17],[19,-65],[-67,-84],[-13,-72],[150,-30],[-251,-84],[-309,-41],[-187,-92],[-111,60],[-154,476],[-112,135],[-91,9],[-76,-192],[-53,-54],[-103,57],[-73,100],[-67,10],[-450,68],[-103,62],[-71,88],[-327,159],[-67,35],[-62,89],[-24,107],[52,111],[-94,77],[-37,87],[7,59],[-46,63],[-173,45],[-344,-42],[-249,103],[-116,-17],[-79,122],[11,84],[-65,70],[-293,-218],[-189,-4],[-298,-167],[-270,-29],[-310,-92],[-199,34],[-466,-193],[-131,-177],[-233,-66],[-218,-18],[-389,59],[-40,71],[-85,64],[-115,2],[-135,160],[-136,-176],[-158,-92],[-227,-234],[-252,27],[-139,-39],[-76,-57],[-176,-218],[-512,339],[-242,223],[4,172],[-582,-6],[10,180],[17,-5],[36,166],[51,112],[-8,50],[-98,83],[128,249],[0,58],[-107,79],[-593,107],[-329,251],[-175,69],[-169,-34],[-185,213],[-221,110],[-5,-56],[-206,102],[-115,1],[-558,-273],[-413,-155],[-256,463],[-290,374],[-293,-79],[-92,56],[-11,280],[16,62],[-180,109],[-60,106],[-109,85],[-429,-143],[-35,-83],[-20,59],[38,113],[-8,33],[-1135,-77],[-66,66],[-98,3],[-17,152],[10,42],[57,49],[20,211],[-93,136],[7,37],[-62,39],[5,42],[-29,22],[-53,-17],[-14,115],[71,42],[-55,57],[5,42],[55,62],[-14,36],[16,28],[-72,88],[-36,96],[41,51],[-9,33],[-135,25],[-97,-38],[-60,130],[112,60],[37,110],[73,90],[-92,80],[-15,74],[-113,-13],[-99,51],[-67,80],[-91,178],[41,97],[-92,307],[13,115],[35,57],[-141,117],[-26,326],[65,44],[210,41],[148,-29],[69,98],[148,102],[-246,219],[-122,-37],[-171,13],[-47,245],[-139,89],[-29,-101],[-260,-288],[-249,-117],[-32,-5],[-291,298],[-296,-426],[6,-77],[45,-113],[9,-168],[116,-147],[54,-131],[176,-251],[-213,-216],[-12,-152],[-71,-98],[-149,-113],[-116,-137],[-24,16],[-278,-394],[-96,-129],[48,-108],[16,-124],[-111,-109],[41,-123],[-125,-87],[7,-170],[-52,-37],[33,-67],[155,-25],[70,-69],[-1,-100],[-79,-67],[24,-78],[-220,-150],[-11,-27],[21,-66],[-55,-84],[50,-63],[-8,-20],[-119,-142],[-111,82],[-29,-58],[-100,-88],[43,-191],[-22,-26],[-36,15],[-21,69],[-80,25],[61,-59],[4,-45],[-45,-45],[58,-84],[-61,-42],[-36,9],[-21,57],[-12,-22],[15,-22],[-45,-6],[-35,-136],[11,-68],[53,-84],[2,-80],[89,4],[24,-25],[6,-82],[94,-12],[-5,-26],[-83,-16],[-11,-42],[-33,-7],[11,-60],[94,65],[43,-71],[95,-39],[-7,-58],[-28,-12],[-65,5],[-34,65],[-70,-44],[100,-55],[-96,-14],[-15,-91],[27,-40],[89,62],[34,-48],[-90,-48],[-197,67],[-33,-83],[-133,-146],[7,-155],[66,-115],[71,-219],[44,-250],[-229,0],[-260,91],[-120,32],[-168,-67],[-189,15],[-77,72],[-307,-9],[-93,114],[-50,8],[-70,-41],[-7,-82],[-45,-29],[46,-3],[-46,-59],[45,-13],[-15,-11],[8,-51],[-44,18],[2,-30],[-44,-37],[74,-74],[-61,-200],[27,-15],[-32,-39],[14,-55],[-102,-210],[-39,2],[-20,-76],[-31,-33],[-9,-65],[-101,-20],[36,-92],[-57,35],[-37,-45],[-1,-55],[65,-19],[-11,-74],[47,-45],[-41,-55],[5,-80],[-60,10],[-65,-56],[12,-39],[-70,-8],[-21,-21],[8,-49],[-35,13],[-4,-41],[-32,10],[-17,-74],[-107,-50],[-102,8],[-48,-59],[-141,-57],[-52,31],[5,31],[-45,57],[-92,58],[-27,78],[-177,27],[-32,42],[12,83],[-26,93],[-34,41],[-105,-9],[-92,-239],[7,-250],[-63,-138],[87,-51],[130,23],[336,-36],[32,-74],[-138,-119],[44,-41],[95,33],[71,-62],[42,-97],[24,-143],[64,-117],[96,-357],[-362,-599],[757,-210],[274,86],[180,-16],[351,-222],[160,-37],[200,-130],[679,-217],[61,-94],[138,-59],[28,-154],[25,-14],[165,48],[159,-160],[228,58],[-74,-228],[6,-96],[260,-58],[50,-103],[-137,68],[18,-153],[40,-105],[-88,-104],[5,-38],[307,20],[151,41],[361,169],[274,61],[261,-67],[231,-5],[57,-41],[11,-253],[130,-136],[-99,-125],[58,-62],[-4,-27],[-58,22],[-305,-181],[-95,-49],[-177,-5],[-36,34],[-22,-2],[7,-26],[-63,14],[11,-139],[-212,20],[-187,185],[-326,-92],[-113,24],[-107,-48],[-27,-33],[7,-285],[84,-287],[19,-212],[-89,-196],[-77,-278],[-97,-164],[194,-321],[68,-64],[279,112],[309,-20],[320,-72],[209,-118],[110,-65],[-15,-72],[53,-148],[-12,-22],[-398,-184],[-57,36],[-330,-234],[49,-223],[-26,-130],[48,7],[111,-80],[86,-180],[118,-165],[52,39],[248,322],[451,183],[221,59],[66,-10],[68,88],[133,64],[191,-5],[350,123],[-183,257],[65,133],[-48,55],[56,144],[277,264],[202,7],[104,46],[116,142],[167,100],[-19,171],[-146,306],[-16,114],[-44,49],[-11,56],[45,123],[101,148],[-86,85],[167,129],[55,79],[54,-20],[39,6],[-4,21],[55,-10],[16,28],[12,-28],[81,17],[11,-27],[68,-14],[14,-62],[66,-17],[383,-30],[26,24],[75,-30],[107,5],[-93,143],[-33,100],[63,8],[32,38],[57,-6],[97,89],[204,83],[17,-45],[46,24],[9,-48],[183,-211],[20,-154],[104,-116],[-62,-156],[-164,-2],[-84,-77],[37,-82],[-85,-42],[176,-82],[123,-168],[88,-62],[245,-74],[118,57],[88,-23],[191,-150],[51,-108],[30,-147],[124,-66],[113,170],[-170,206],[-24,125],[171,83],[225,-87],[102,-156],[213,-227],[206,-195],[90,-43],[325,167],[109,73],[25,56],[46,-100],[71,-23],[57,-73],[-105,-8],[-130,-94],[-178,-68],[-115,-128],[-113,-180],[88,-21],[69,-159],[81,-46],[-31,-23],[192,-26],[15,-67],[91,-5],[62,-344],[223,155],[115,119],[304,-237],[330,-27],[132,-207],[17,-105],[-36,-322],[31,-99],[52,-64],[142,-38],[144,-301],[95,-131],[108,-320],[107,-95],[144,-8],[-66,-101],[-25,-123],[-71,-85],[-104,-74],[-84,-109],[-299,-181],[-90,-118],[-68,-243],[-55,-387],[-75,-213],[-25,-356],[-27,10],[-220,-303],[-125,-234],[-121,-309],[-115,-97],[-128,-17],[-32,-193],[86,-8],[-3,-49],[-93,13],[-21,-49],[-31,-259],[55,-149],[-30,-68],[-28,-101],[-123,-97],[-15,-143],[-267,17],[-79,50],[-137,-21],[-167,-168],[187,-208],[36,-346],[323,-489],[-79,-45],[41,-14],[124,51],[65,-54],[58,-284],[59,-136],[-2,-105],[145,-42],[72,30],[31,-25],[275,-24],[138,-73],[783,-4],[-41,-102],[-323,-399],[-19,-218],[-202,-216],[-196,-47],[-27,-119],[34,-124],[-184,-165],[-51,-97],[-313,4],[-221,-92],[309,-69],[146,-81],[191,-50],[-45,-166],[-61,-103],[5,-80],[-23,-81],[-226,-120],[-18,-76],[45,-244],[-104,-130],[11,-55],[-116,-42],[-84,-140],[-1,-67],[-251,-213],[26,-244],[182,-92],[111,-102],[21,-67],[-85,-79],[-237,-89],[-467,-579],[-80,-249],[-96,-76],[-107,-211],[-193,-114],[-48,-102],[-4,-57],[-80,-125],[-200,-194],[-33,-178],[-71,-113],[-176,-35],[-441,39],[-322,-217],[-44,-152],[-49,-64],[4,-247],[-107,-176],[-555,-268],[-94,-129],[-27,-78],[-22,-61],[-207,28],[-305,133],[-99,65],[-33,67],[-10,-118],[-73,-108],[16,-101],[-31,-15],[-47,33],[-405,46],[-92,133],[-180,44],[-120,280],[-334,64],[-596,-379],[-242,-91],[-155,108],[-212,242],[-93,58]],[[81214,38831],[74,-68],[-16,-26],[108,-132],[-252,-243],[237,-68],[53,-98],[136,1],[-4,-62],[-105,-61],[122,-58],[94,7],[12,-81],[-90,8],[-195,128],[-10,-52],[-25,-6],[-179,96],[-170,-44],[-33,32],[-94,-46],[59,-46],[-23,-16],[-123,53],[-301,19],[-94,168],[-30,75],[10,24],[-21,-9],[23,-68],[-49,-115],[-83,50],[-50,-8],[24,61],[-7,85],[-49,90],[-31,-65],[-101,-76],[11,-298],[78,-60],[53,-96],[-27,-113],[-4,-230],[146,-91],[297,-29],[116,-68],[285,-55],[70,-65],[6,-20],[-72,-51],[5,-267],[57,-196],[-151,-95],[-169,-306],[27,-152],[-13,-94],[-157,-262],[-60,-256],[-87,-92],[108,-154],[72,-27],[0,-85],[-60,-59],[-9,-57],[45,-27],[18,-31],[-13,-122],[63,-54],[67,-34],[-20,-49],[-8,-49],[-130,-40],[-192,-127],[-167,-464],[76,-274],[-19,-254],[-28,-183],[-152,-192],[186,-254],[-59,-39],[-58,-62],[-211,-63],[-125,-267],[50,-28],[51,-93],[82,5],[107,-90],[35,-67],[93,-9],[24,-133],[118,7],[148,-147],[37,-202],[141,-304],[-43,-97],[-80,25],[25,-76],[-45,-52],[-167,-77],[-168,-136],[-63,-141],[-149,-173],[-99,-211],[-72,-93],[-95,-229],[-257,-190],[93,-84],[430,-142],[124,4],[142,-79],[10,-48],[94,-48],[1,-33],[82,20],[114,-60],[62,9],[63,-59],[121,-225],[18,-96],[-14,-82],[117,-87],[161,-56],[476,-8],[138,-66],[143,0],[148,13],[92,57],[202,6],[387,215],[196,279],[197,-28],[104,-73],[212,-62],[43,-178],[-144,-55],[14,-63],[-27,-266],[-127,-42],[8,-175],[203,-43],[326,18],[-12,-181],[-61,-156],[251,-161],[10,-241],[48,-58],[-28,-18],[-38,-207],[-86,-134],[-17,-109],[-284,-29],[-65,-48],[-262,-71],[-66,-70],[-93,-34],[38,-97],[-59,-126],[126,-129],[50,-117],[-123,-72],[-45,-100],[-126,-47],[-166,-214],[-168,-331],[-19,-113],[71,-125],[-50,-121],[-36,-23],[-27,-46],[-135,-123],[-91,6],[-138,-56],[-13,-172],[-40,-94],[-112,-20],[-61,-72],[-21,-176],[-69,-60],[0,-190],[-107,-100],[-111,-51],[19,-88],[-33,-173],[53,-280],[-132,-74],[-30,-251],[10,-165],[-51,-152],[-62,-61],[-43,-217],[-89,-259],[-117,-75],[-167,-170],[9,-95],[73,-129],[-173,-197],[-174,-84],[-11,-67],[-81,-72],[104,-159],[-77,-182],[-101,-84],[-134,-204],[-163,-57],[-135,-214],[-214,-12],[-23,-56],[8,-117],[-72,-191],[-53,-66],[-5,-45],[54,-163],[-206,-87],[86,-285],[-11,-54],[-22,-49],[-115,-75],[-30,-136],[-110,-123],[-31,-65],[-14,-204],[-143,-229],[-71,-195],[-69,-51],[-102,9],[-69,-265],[-10,-120],[121,-64],[157,-152],[153,-239],[520,-15],[12,-203],[-21,-186],[-262,-760],[-173,-30],[-56,-83],[-66,-119],[-18,-138],[-163,-240],[-87,-237],[-143,-256],[-51,-77],[-63,4],[-58,-76],[-33,-183],[-147,-140],[-371,-110],[-41,-85],[-166,-152],[-69,-106],[3,-324],[-255,-135],[49,-120],[-62,-188],[32,-115],[-173,-52],[-160,-397],[-69,-95],[-23,-99],[-71,-83],[39,-80],[148,-146],[41,-90],[-99,-34],[-76,-88],[-77,-123],[111,-57],[-164,-156],[-5,-57],[-225,-339],[-63,-38],[-92,10],[-142,-39],[-106,-66],[-148,-195],[-43,-148],[-84,-147],[0,-40],[-40,-22],[-248,-23],[-207,-152],[-34,-108],[-243,-225],[-103,24],[-116,114],[-65,17],[-329,-173],[-26,-23],[-17,-87],[21,-138],[-29,-126],[33,-66],[-18,-104],[57,-156],[-120,-165],[71,-219],[-53,-29],[-5,-95],[-116,-23],[4,-137],[-192,-69],[-105,-101],[-7,-162],[-65,-28],[-3,-53],[-31,-35],[31,-49],[-29,-248],[-96,-97],[5,-45],[34,-87],[-108,-178],[11,-111],[34,-86],[-92,-80],[-4,-80],[-49,-33],[-49,-172],[18,-51],[56,-32],[51,-125],[-3,-58],[-53,-34],[10,-40],[41,-78],[87,-65],[11,-98],[-40,-107],[51,-53],[1,-63],[-59,-134],[-152,-153],[-276,-348],[112,3],[12,-53],[58,-58],[78,48],[116,-22],[118,23],[40,-98],[0,-177],[62,-156],[-88,-174],[-290,-173],[-50,-64],[54,-206],[-307,-221],[-356,-178],[-120,-21],[44,-207],[-26,-78],[15,-79],[335,-12],[97,-133],[-78,-88],[-111,-33],[34,-247],[108,-169],[-46,-37],[6,-238],[-28,-103],[17,-64],[67,-34],[86,11],[165,-270],[131,-31],[-46,-46],[16,-26],[-44,-97],[41,-48],[58,-218],[-116,-160],[-88,-53],[-269,-26],[-151,-166],[-93,-145],[-87,-64],[-30,-245],[-37,-101],[-272,37],[-131,-110],[-210,-9],[-64,-76],[-94,-52],[-264,15],[-153,-128],[-192,-216],[-246,82],[-188,-99],[-112,117],[-137,-15],[-124,-167],[-81,-198],[-358,-218],[-11,-67],[-100,83],[4,65],[-139,158],[-217,78],[4,84],[-115,32],[-85,87],[-76,22],[-119,102],[-15,85],[-263,113],[-27,39],[-117,205],[-11,35],[21,19],[60,84],[38,190],[31,40],[-12,96],[-67,104],[50,29],[-22,39],[-55,-24],[-59,33],[-111,226],[-85,95],[-171,-20],[-281,59],[-129,47],[-8,43],[-71,-8],[-22,213],[-116,54],[-168,50],[-51,-42],[-268,63],[-45,72],[-165,50],[-159,-51],[27,46],[-37,119],[17,92],[-75,-31],[-168,72],[-14,103],[-30,37],[-170,45],[-56,48],[-8,42],[-329,159],[-138,98],[-31,94],[-112,59],[-18,101],[-73,57],[-247,71],[-202,174],[-59,31],[-18,68],[-86,35],[-48,10],[-101,121],[-229,-20],[-170,145],[-175,50],[-111,113],[-58,101],[-125,27],[-147,163],[-188,38],[-161,129],[-53,53],[-162,291],[97,456],[-79,25],[-11,15],[24,39],[-177,20],[-79,62],[-64,123],[-83,84],[64,157],[-97,105],[-220,25],[-128,59],[-221,257],[-67,151],[-113,161],[-6,118],[-119,56],[-104,-24],[-221,-85],[-196,-21],[17,-49],[-81,-5],[-148,-82],[-24,-56],[-231,-129],[-314,-120],[-208,-218],[-58,-130],[-55,-216],[-43,-75],[-226,-415],[8,-217],[-286,-147],[-16,-26],[21,-171],[-19,-126],[-72,-31],[-40,-21],[-109,21],[-110,-63],[-559,-82],[-592,-205],[-907,-597],[-152,307],[37,23],[118,-18],[-27,46],[14,63],[-26,38],[-49,-25],[-126,14],[-252,198],[-118,129],[-145,355],[-83,44],[161,378],[108,29],[-83,135],[59,51],[-143,68],[6,59],[-44,50],[-215,-16],[-142,135],[7,27],[-22,14],[20,151],[-45,62],[-67,32],[17,46],[-110,81],[-44,57],[8,57],[-19,46],[-168,194],[18,29],[-61,178],[3,64],[-26,19],[8,62],[-102,53],[-79,-28],[-157,26],[-261,-61],[-103,33],[-254,-4],[-39,87],[13,159],[-13,50],[-55,58],[-17,196],[-219,101],[-187,12],[-101,116],[-39,109],[25,64],[-76,24],[-137,-101],[-225,-28],[-508,227],[-40,-73],[-85,4],[-38,-180],[-55,-17],[-96,75],[-46,0],[-102,-77],[-144,-55],[-131,-135],[-209,8],[-169,76],[-194,-129],[-133,-183],[-34,-86],[-193,83],[-187,-40],[-158,48],[-83,-8],[-203,182],[-267,129],[-192,5],[-427,-113],[-65,-79],[-457,-346],[-443,-391],[-287,22],[-152,-132],[-3,-202],[-23,-34],[-684,162],[-18,-81],[-67,-67],[-31,-101],[-56,-49],[-335,92],[5,186],[104,200],[-3,185],[-41,67],[38,177],[-272,71],[-125,-33],[-23,98],[31,69],[1,74],[-195,105],[-145,25],[-50,-33],[-155,130],[-12,58],[-62,-41],[-47,-98],[-188,-120],[-103,30],[-111,-24],[-54,45],[-16,75],[-39,-15],[-106,140],[7,44],[-37,40],[-20,46],[0,296],[-22,44],[-125,153],[-50,-82],[-1,-117],[-37,37],[-152,30],[-22,160],[26,79],[255,137],[200,12],[68,26],[-29,120],[41,48],[8,54],[-118,83],[-152,292],[102,305],[-33,161],[-81,-11],[-170,113],[-10,53],[17,57],[-16,125],[15,97],[85,153],[39,165],[-7,60],[-144,145],[-184,331],[-148,22],[-157,70],[-40,87],[-97,70],[-132,-1],[17,41],[65,35],[-76,151],[-302,-195],[-143,-45],[-66,10],[-132,-123],[-83,-163],[-77,-69],[-3,-59],[-417,142],[-443,-88],[-168,-41],[-280,168],[-37,-11],[-97,-92],[-503,-280],[-528,-244],[-315,-322],[-60,-254],[51,-120],[-4,-69],[-263,52],[-9,-246],[-206,19],[-26,-188],[160,-142],[38,38],[85,-47],[-69,-129],[-27,-6],[-19,-91],[-84,-76],[-120,-189],[61,-155],[-142,44],[-106,75],[-56,-112],[-41,-153],[-29,14],[-89,-183],[39,-14],[-12,-47],[86,-89],[-148,-192],[-109,-97],[-100,49],[-93,2],[-43,72],[-97,-55],[-35,41],[-101,-80],[-74,89],[-122,-112],[-76,91],[-31,4],[-151,-38],[-42,37],[-179,-38],[3,-85],[-72,-459],[-235,-133],[-76,-81],[7,-53],[-18,-32],[-229,-276],[-107,-35],[-51,-52],[-64,40],[-368,35],[-75,-49],[-51,72],[-205,27],[143,208],[-14,126],[49,5],[26,94],[120,134],[24,91],[-24,8],[9,50],[12,52],[144,45],[16,39],[151,116],[7,102],[52,5],[8,72],[34,3],[94,145],[73,-3],[75,144],[106,89],[33,74],[16,81],[-60,25],[12,112],[-337,136],[16,141],[-89,234],[-31,-26],[-8,25],[-82,19],[-27,-46],[-145,14],[-44,-45],[-50,20],[-104,-143],[-56,48],[-185,-161],[-221,-187],[14,-13],[-18,-29],[-77,-81],[31,-19],[-40,-88],[-53,-35],[73,-108],[-10,-17],[29,-61],[-32,-161],[34,-9],[19,-178],[-61,8],[-11,-35],[2,-117],[-46,-210],[27,-159],[-118,-34],[-264,-5],[-270,-105],[-228,-321],[-32,-126],[17,-45],[88,-47],[49,-224],[-243,-194],[-210,-80],[1,192],[-58,73],[-53,-3],[-21,71],[12,55],[-107,54],[-21,76],[-66,58],[-30,96],[-83,-16],[-107,65],[-51,329],[-152,50],[-84,16],[-168,-62],[-11,158],[-28,78],[-124,51],[36,48],[-59,155],[42,15],[20,54],[-93,104],[-1,38],[-25,-4],[3,50],[-46,77],[20,129],[-41,106],[14,52],[173,52],[-25,213],[-177,-47],[-79,31],[-27,67],[16,129],[-13,142],[-110,-7],[-83,-218],[-23,-196],[20,-91],[-15,-79],[-141,-211],[-167,-192],[-33,12],[-75,-47],[-27,69],[-184,13],[-273,-67],[-1,-25],[-151,-98],[16,-93],[-112,-40],[32,-226],[-148,-96],[-18,34],[-29,-7],[16,95],[-24,3],[-15,46],[-38,-21],[-66,43],[-85,4],[-104,-41],[-29,114],[-116,-27],[-146,69],[-10,45],[51,45],[-69,106],[30,61],[-40,86],[16,30],[-74,53],[-22,96],[-42,-6],[111,142],[-43,139],[-74,39],[-85,123],[24,31],[-6,91],[-66,120],[11,126],[-31,82],[205,175],[41,6],[123,124],[-11,35],[28,39],[150,126],[-45,99],[58,99],[50,150],[-11,255],[-27,44],[-96,39],[-132,111],[-32,46],[-13,93],[43,210],[-73,283],[-91,139],[-87,306],[-55,77],[-100,4],[-12,116],[60,381],[-34,126],[-64,-136],[-164,-70],[-220,-1],[-3,270],[-89,26],[-69,141],[-406,275],[-65,82],[-4,60],[-77,136],[-156,127],[-168,-45],[-327,-178],[-70,-92],[-163,-7],[7,169],[-20,175],[16,87],[24,39],[-153,141],[-16,76],[17,54],[-32,9],[-27,103],[9,102],[-82,-34],[-26,19],[-139,231],[-370,78],[-6,150],[-64,165],[9,204],[-29,79],[-70,-35],[-94,-103],[-83,4],[-81,48],[-100,129],[-24,70],[-29,-17],[-65,80],[-225,65],[6,-160],[-69,-15],[-127,168],[-67,-27],[-39,134],[-37,-9],[-28,36],[-76,-29],[-34,67],[-132,3],[-34,70],[-158,-119],[-14,-217],[41,-6],[29,-119],[106,-87],[27,-73],[101,-139],[4,-28],[-100,-61],[22,-113],[-116,15],[-304,158],[-35,41],[-34,112],[39,63],[-60,80],[27,56],[-61,67],[-68,-44],[-50,94],[-74,21],[-41,69],[-40,-3],[-104,-100],[-21,13],[27,71],[-180,150],[58,92],[113,70],[20,82],[-31,11],[17,67],[93,-12],[24,-116],[61,48],[-17,130],[-26,19],[62,189],[-69,53],[16,27],[-14,73],[210,138],[-7,55],[231,217],[56,0],[90,111],[90,-21],[25,-44],[321,34],[32,58],[44,-54],[122,62],[46,98],[-88,71],[24,91],[-89,34],[15,124],[-28,51],[-189,-32],[8,-35],[-36,17],[-22,50],[22,57],[-49,52],[-34,-4],[-39,67],[-40,-8],[29,51],[-50,29],[52,80],[38,-44],[9,52],[92,84],[-33,34],[59,251],[111,28],[112,172],[-13,26],[141,-4],[165,195],[15,22],[-11,73],[-73,20],[74,374],[272,-5],[28,90],[9,219],[-149,8],[131,199],[-30,116],[7,100],[34,183],[48,80],[13,196],[-11,86],[-32,-2],[-81,119],[-1,192],[-40,101],[-97,212],[277,55],[133,151],[8,65],[155,212],[233,135],[333,-57],[27,56],[45,-44],[98,6],[45,-32],[243,91],[130,-63],[139,1],[13,242],[-39,56],[13,35],[-20,145],[-81,49],[-121,215],[-122,216],[15,14],[-69,174],[-11,138],[-41,91],[-64,45],[-43,87],[-114,65],[-40,49],[-7,55],[-212,154],[-131,148],[-144,111],[-153,209],[-199,168],[-179,-77],[-76,-129],[-121,-82],[-39,2],[-493,350],[-519,215],[-21,36],[-20,-22],[-55,25],[-181,135],[43,240],[81,236],[188,209],[60,104],[31,144],[-4,85],[71,433],[-287,183],[-95,178],[-627,452],[-524,478],[-100,-171],[-170,-90],[-202,-180],[-62,-130],[-141,-153],[-169,-277],[17,102],[-17,125],[-48,90],[-401,478],[-170,260],[-465,549],[-163,89],[-359,607],[-241,158],[-8,110],[-64,57],[-31,134],[-45,87],[-115,249],[-140,119],[-83,125],[39,228],[-105,179],[52,145],[98,161],[-180,107],[-556,86],[-121,88],[-143,176],[-43,19],[-242,-40],[-57,43],[-52,-6],[-33,39],[-94,-18],[7,54],[-41,-40],[-134,13],[-202,-94],[-15,-109],[-182,-197],[-95,87],[-32,-14],[-140,98],[-68,-186],[-143,-87],[-84,-86],[-67,-134],[-231,-315],[-207,-136],[-393,-136],[-104,-88],[-13,91],[-67,170],[-112,154],[-93,71],[-45,159],[9,162],[26,44],[-18,35],[147,164],[45,88],[-111,107],[-47,169],[-31,38],[16,97],[35,48],[-13,46],[128,187],[72,154],[111,-35],[207,259],[-47,39],[182,197],[-12,67],[242,168],[-47,47],[-461,123],[-688,42],[-92,-27],[-494,490],[292,105],[182,-88],[106,41],[97,46],[132,176],[49,-12],[80,-78],[41,29],[60,77],[-45,112],[259,148],[160,251],[115,119],[149,34],[114,96],[24,38],[-14,31],[15,52],[84,128],[153,29],[114,-35],[212,69],[96,77],[94,124],[201,59]]],"transform":{"scale":[0.000027514705138051384,0.000018040780402804008],"translate":[4.8885820004,47.8130509995]},"objects":{"depts-lor":{"type":"GeometryCollection","geometries":[{"arcs":[[[0]],[[1]],[[2,3,4,5,6]]],"type":"MultiPolygon","properties":{"id":"FRF31","name":"Meurthe-et-Moselle","cx":6.1,"cy":48.704}},{"arcs":[[-6,7,8],[-1],[-2]],"type":"Polygon","properties":{"id":"FRF32","name":"Meuse","cx":5.381,"cy":48.991}},{"arcs":[[-3,9]],"type":"Polygon","properties":{"id":"FRF33","name":"Moselle","cx":6.556,"cy":48.998}},{"arcs":[[-5,10,-8]],"type":"Polygon","properties":{"id":"FRF34","name":"Vosges","cx":6.322,"cy":48.18}}]}}}