{"type":"FeatureCollection", "features": [
{"type":"Feature","geometry":{"type":"Polygon","coordinates":[[[6.9443,49.3777],[6.9408,49.3763],[6.9399,49.3774],[6.9371,49.3767],[6.9383,49.374],[6.9378,49.3724],[6.9363,49.3726],[6.9352,49.3755],[6.932,49.3754],[6.9316,49.3721],[6.9315,49.3705],[6.9314,49.3691],[6.9313,49.3677],[6.9277,49.3667],[6.9259,49.3674],[6.9218,49.3682],[6.9217,49.3682],[6.92,49.3661],[6.9201,49.3656],[6.9185,49.3655],[6.9183,49.3643],[6.9183,49.3634],[6.9159,49.3629],[6.9146,49.3614],[6.9128,49.3604],[6.912,49.3613],[6.909,49.3612],[6.9089,49.3603],[6.9073,49.36],[6.9082,49.359],[6.909,49.358],[6.9062,49.3567],[6.9037,49.3554],[6.8967,49.3537],[6.892,49.3523],[6.8904,49.3521],[6.8907,49.3513],[6.8889,49.3509],[6.8892,49.3502],[6.884,49.3499],[6.8821,49.3478],[6.8814,49.3474],[6.8791,49.3467],[6.877,49.3463],[6.8765,49.3474],[6.8741,49.3461],[6.8701,49.3462],[6.8679,49.3466],[6.8656,49.3477],[6.8639,49.3482],[6.8627,49.3469],[6.868,49.3438],[6.8701,49.3443],[6.8721,49.3441],[6.8759,49.3375],[6.8786,49.3362],[6.8796,49.3356],[6.88,49.3335],[6.8822,49.3312],[6.8811,49.3298],[6.8801,49.329],[6.8773,49.3285],[6.8752,49.3273],[6.8749,49.3271],[6.873,49.3257],[6.8777,49.3214],[6.8795,49.3198],[6.8799,49.3192],[6.8829,49.3165],[6.8782,49.3133],[6.878,49.3125],[6.8756,49.3108],[6.8752,49.3086],[6.8765,49.3063],[6.8793,49.3041],[6.8809,49.3008],[6.8794,49.2986],[6.8772,49.2987],[6.8753,49.2985],[6.873,49.2972],[6.8709,49.2944],[6.8698,49.2931],[6.8677,49.2918],[6.8674,49.2927],[6.8669,49.2942],[6.8653,49.295],[6.8635,49.2959],[6.8627,49.2963],[6.862,49.2959],[6.8597,49.2947],[6.8613,49.2933],[6.8629,49.2919],[6.8669,49.2903],[6.8655,49.2887],[6.865,49.2875],[6.862,49.2881],[6.8606,49.2865],[6.8565,49.2871],[6.8569,49.2858],[6.8572,49.2835],[6.8587,49.2819],[6.8563,49.2815],[6.8552,49.2797],[6.8563,49.2785],[6.8563,49.2776],[6.8563,49.2764],[6.8582,49.2753],[6.8557,49.2721],[6.8522,49.2725],[6.85,49.2725],[6.846,49.2719],[6.8377,49.2736],[6.8371,49.2736],[6.8361,49.2735],[6.8283,49.2748],[6.8271,49.2747],[6.8251,49.2747],[6.8235,49.2735],[6.8216,49.2715],[6.8198,49.2697],[6.8215,49.2693],[6.8229,49.2689],[6.8238,49.2689],[6.8284,49.2686],[6.8291,49.2683],[6.8298,49.2678],[6.8298,49.267],[6.8295,49.2665],[6.8288,49.2656],[6.8286,49.2654],[6.8382,49.2572],[6.8387,49.2565],[6.8382,49.2565],[6.8349,49.2564],[6.8335,49.2563],[6.8332,49.2585],[6.8235,49.256],[6.8199,49.2507],[6.8189,49.2491],[6.8147,49.2449],[6.8106,49.2409],[6.808,49.2402],[6.8057,49.2397],[6.8036,49.2396],[6.8012,49.2394],[6.7992,49.2396],[6.7982,49.2396],[6.7983,49.2386],[6.7989,49.2376],[6.7993,49.237],[6.7993,49.2355],[6.7986,49.2346],[6.798,49.234],[6.7966,49.2338],[6.7957,49.2338],[6.7951,49.2332],[6.7937,49.2335],[6.7936,49.2357],[6.7921,49.236],[6.7884,49.2344],[6.7846,49.2325],[6.7847,49.2317],[6.7821,49.2281],[6.7796,49.2271],[6.7765,49.2255],[6.7727,49.2252],[6.767,49.2229],[6.7633,49.2237],[6.7598,49.2233],[6.7545,49.2244],[6.7417,49.2261],[6.7414,49.2273],[6.7407,49.2289],[6.7376,49.227],[6.7357,49.2265],[6.734,49.2248],[6.7327,49.2239],[6.73,49.2231],[6.7249,49.22],[6.7235,49.2188],[6.7253,49.2152],[6.7257,49.2144],[6.7314,49.206],[6.7313,49.2058],[6.7287,49.2031],[6.7232,49.1988],[6.7112,49.1883],[6.7193,49.1768],[6.7203,49.1753],[6.7256,49.1731],[6.7257,49.173],[6.7258,49.173],[6.7268,49.1726],[6.7295,49.1697],[6.7298,49.1692],[6.736,49.1655],[6.7358,49.1651],[6.7384,49.1636],[6.7423,49.1645],[6.7457,49.1653],[6.7478,49.166],[6.7498,49.1667],[6.7533,49.1665],[6.7611,49.1647],[6.7619,49.1649],[6.7629,49.165],[6.7637,49.1651],[6.7639,49.1651],[6.7684,49.1661],[6.7722,49.1669],[6.7727,49.1671],[6.7737,49.1675],[6.7739,49.1675],[6.7747,49.1675],[6.7768,49.1676],[6.7785,49.1681],[6.7793,49.1683],[6.78,49.1684],[6.7801,49.1684],[6.7816,49.1683],[6.7827,49.1682],[6.7829,49.1681],[6.7843,49.168],[6.7844,49.1679],[6.7853,49.1676],[6.7873,49.1668],[6.7877,49.1667],[6.7879,49.1669],[6.7898,49.1664],[6.79,49.1663],[6.7919,49.1643],[6.7941,49.1632],[6.7947,49.163],[6.7951,49.163],[6.7962,49.163],[6.7972,49.163],[6.7974,49.163],[6.8029,49.162],[6.8034,49.1612],[6.8036,49.1611],[6.8043,49.1608],[6.8057,49.1603],[6.808,49.1586],[6.8081,49.1586],[6.8095,49.1582],[6.8101,49.1582],[6.8169,49.1577],[6.8174,49.1575],[6.8176,49.1574],[6.821,49.1562],[6.8245,49.1542],[6.8275,49.1531],[6.8341,49.1511],[6.8346,49.1513],[6.8366,49.1522],[6.8439,49.1555],[6.8442,49.1557],[6.8447,49.1559],[6.8475,49.1572],[6.846,49.1597],[6.846,49.1598],[6.8458,49.1603],[6.8445,49.164],[6.8448,49.1674],[6.8451,49.168],[6.8454,49.1684],[6.8448,49.1709],[6.8443,49.173],[6.8465,49.1734],[6.8538,49.1745],[6.8546,49.1747],[6.8556,49.175],[6.8574,49.1748],[6.8582,49.1747],[6.859,49.1746],[6.8591,49.1753],[6.8592,49.1757],[6.8594,49.176],[6.8596,49.1764],[6.8595,49.1766],[6.8592,49.1773],[6.8593,49.1775],[6.8596,49.1775],[6.8603,49.1774],[6.8605,49.1774],[6.8608,49.1778],[6.8611,49.1785],[6.8611,49.1786],[6.8612,49.1788],[6.8613,49.1788],[6.8618,49.1788],[6.8616,49.1792],[6.8614,49.1794],[6.8612,49.1799],[6.8611,49.1803],[6.8611,49.1807],[6.8615,49.1815],[6.8616,49.1818],[6.8614,49.1821],[6.8611,49.1825],[6.8607,49.1829],[6.8603,49.1831],[6.8599,49.1833],[6.8597,49.1834],[6.8596,49.1835],[6.8595,49.1837],[6.8595,49.1842],[6.8594,49.1845],[6.8593,49.1847],[6.859,49.185],[6.8589,49.1854],[6.8585,49.1863],[6.8584,49.1869],[6.8581,49.187],[6.8579,49.1871],[6.8575,49.1871],[6.8573,49.1871],[6.8572,49.1872],[6.8567,49.1875],[6.8566,49.1876],[6.8565,49.1878],[6.8565,49.188],[6.8565,49.1882],[6.8565,49.1884],[6.8564,49.1886],[6.8553,49.1889],[6.8552,49.1889],[6.8551,49.189],[6.855,49.1892],[6.855,49.1895],[6.8548,49.1898],[6.8542,49.1905],[6.854,49.1906],[6.8529,49.1916],[6.8515,49.1928],[6.8511,49.1932],[6.8507,49.1932],[6.8506,49.1934],[6.8505,49.1935],[6.8505,49.1936],[6.8507,49.194],[6.8507,49.1942],[6.8506,49.196],[6.8507,49.1969],[6.8508,49.1973],[6.851,49.1974],[6.8513,49.1975],[6.8516,49.1975],[6.8518,49.1977],[6.8522,49.1981],[6.8525,49.1989],[6.8525,49.199],[6.8524,49.1995],[6.8522,49.2],[6.8518,49.2005],[6.8509,49.2013],[6.8507,49.2015],[6.8506,49.2017],[6.8505,49.2021],[6.8503,49.2023],[6.8495,49.2026],[6.8488,49.2029],[6.8485,49.2033],[6.8484,49.2033],[6.8475,49.2047],[6.8473,49.2048],[6.8462,49.2051],[6.8458,49.2053],[6.8457,49.2054],[6.8446,49.2062],[6.8446,49.2063],[6.843,49.2076],[6.8429,49.2077],[6.8428,49.2078],[6.8428,49.208],[6.8426,49.2083],[6.8425,49.2086],[6.8423,49.2089],[6.8417,49.209],[6.8412,49.2092],[6.8411,49.2092],[6.8408,49.2094],[6.8407,49.2094],[6.84,49.2099],[6.8391,49.2102],[6.838,49.2104],[6.8378,49.2105],[6.8376,49.2106],[6.8363,49.2113],[6.8369,49.2122],[6.8376,49.2129],[6.838,49.2135],[6.8382,49.2136],[6.8435,49.2156],[6.844,49.2157],[6.8442,49.2158],[6.8456,49.2162],[6.8482,49.2174],[6.8504,49.2186],[6.8509,49.2189],[6.851,49.219],[6.8512,49.2193],[6.8514,49.2194],[6.8526,49.2197],[6.8573,49.2223],[6.8588,49.2227],[6.8589,49.2228],[6.8629,49.2222],[6.8646,49.2209],[6.8664,49.2199],[6.8679,49.2193],[6.8704,49.2188],[6.8707,49.2176],[6.8717,49.2156],[6.8728,49.215],[6.8732,49.2148],[6.8749,49.2143],[6.8851,49.2115],[6.8886,49.2105],[6.8933,49.2091],[6.8944,49.2099],[6.8946,49.2101],[6.8961,49.2113],[6.9005,49.2137],[6.9055,49.2145],[6.9059,49.2145],[6.9069,49.2145],[6.9093,49.2145],[6.9112,49.215],[6.9115,49.2151],[6.9163,49.218],[6.918,49.2194],[6.9188,49.2199],[6.9184,49.2217],[6.9187,49.222],[6.9186,49.2224],[6.9185,49.2226],[6.9187,49.2227],[6.9192,49.2227],[6.9205,49.2227],[6.9208,49.2227],[6.9227,49.2227],[6.9245,49.2232],[6.9251,49.2233],[6.9268,49.2227],[6.9278,49.2224],[6.9286,49.2221],[6.9381,49.2224],[6.9394,49.2183],[6.9399,49.2167],[6.944,49.2141],[6.9444,49.2138],[6.9449,49.2134],[6.9467,49.2118],[6.9491,49.2095],[6.9511,49.2077],[6.9534,49.2062],[6.9536,49.2061],[6.9542,49.2057],[6.9557,49.2048],[6.9571,49.2042],[6.9596,49.2031],[6.9702,49.2083],[6.9709,49.2087],[6.9726,49.2095],[6.9752,49.2095],[6.9926,49.2008],[6.9971,49.1977],[6.9995,49.1945],[7.0089,49.194],[7.0103,49.1895],[7.0104,49.1891],[7.0108,49.188],[7.0114,49.1881],[7.0134,49.1886],[7.0135,49.1888],[7.0146,49.19],[7.0147,49.1902],[7.0156,49.1913],[7.0189,49.1927],[7.0206,49.193],[7.0211,49.1931],[7.0214,49.1932],[7.0219,49.1924],[7.0218,49.1904],[7.0231,49.1893],[7.0244,49.1896],[7.026,49.19],[7.0274,49.1909],[7.0279,49.1912],[7.028,49.1913],[7.0285,49.1909],[7.0286,49.1908],[7.0309,49.191],[7.0329,49.1912],[7.0347,49.1914],[7.0349,49.1914],[7.035,49.1914],[7.0332,49.188],[7.0335,49.1861],[7.0337,49.1823],[7.0334,49.1816],[7.0331,49.181],[7.032,49.1793],[7.0294,49.1767],[7.0293,49.1766],[7.0288,49.1761],[7.0287,49.1761],[7.0286,49.1759],[7.0285,49.1757],[7.0284,49.1755],[7.0284,49.1754],[7.0279,49.1727],[7.0278,49.1716],[7.0276,49.1708],[7.0277,49.1701],[7.0283,49.1685],[7.0286,49.1678],[7.0287,49.1676],[7.0291,49.1671],[7.0296,49.1666],[7.0303,49.1661],[7.0311,49.1655],[7.0321,49.1648],[7.0322,49.1647],[7.0328,49.1643],[7.0329,49.1641],[7.033,49.1638],[7.033,49.1636],[7.0331,49.163],[7.0332,49.1625],[7.0332,49.1618],[7.0323,49.16],[7.0322,49.1598],[7.032,49.1592],[7.0319,49.1586],[7.032,49.158],[7.032,49.1573],[7.0323,49.1565],[7.033,49.1553],[7.0332,49.155],[7.0333,49.1548],[7.0337,49.1544],[7.0342,49.154],[7.0352,49.1531],[7.0354,49.1529],[7.036,49.1523],[7.0372,49.1511],[7.0374,49.1509],[7.0377,49.1505],[7.0379,49.1502],[7.0383,49.1494],[7.0384,49.1493],[7.0388,49.1488],[7.0389,49.1487],[7.0403,49.1479],[7.0406,49.1476],[7.0409,49.1473],[7.0417,49.146],[7.0429,49.1436],[7.0438,49.1421],[7.0456,49.1392],[7.0465,49.1373],[7.0467,49.1367],[7.0467,49.136],[7.0468,49.1354],[7.0467,49.135],[7.0457,49.1325],[7.0455,49.1316],[7.0455,49.1299],[7.0452,49.1286],[7.0444,49.1245],[7.0442,49.1208],[7.0442,49.1205],[7.0442,49.1202],[7.0446,49.1194],[7.045,49.1187],[7.0461,49.1172],[7.0471,49.116],[7.0481,49.1153],[7.0505,49.1137],[7.0517,49.113],[7.0524,49.1128],[7.055,49.1121],[7.0561,49.112],[7.0572,49.1119],[7.0602,49.1126],[7.0662,49.1141],[7.0666,49.1142],[7.0666,49.1143],[7.0669,49.1145],[7.0675,49.115],[7.0676,49.1151],[7.0677,49.1153],[7.0684,49.1167],[7.0684,49.1172],[7.0684,49.1177],[7.0684,49.1184],[7.0684,49.119],[7.0684,49.1194],[7.0686,49.1203],[7.0692,49.1213],[7.0697,49.1217],[7.0703,49.1223],[7.0708,49.1228],[7.071,49.1237],[7.0712,49.1238],[7.0718,49.1243],[7.0735,49.1251],[7.075,49.1258],[7.0772,49.1266],[7.0792,49.1271],[7.0818,49.1278],[7.0854,49.1285],[7.0877,49.1294],[7.0894,49.1302],[7.0901,49.1309],[7.0902,49.1317],[7.0902,49.1321],[7.0901,49.1328],[7.0897,49.1334],[7.0893,49.1339],[7.089,49.1343],[7.0845,49.1388],[7.0841,49.1395],[7.0839,49.1402],[7.0823,49.1413],[7.0821,49.1417],[7.0821,49.1419],[7.0824,49.1424],[7.0834,49.143],[7.0836,49.1432],[7.0841,49.1437],[7.0843,49.1439],[7.0843,49.1446],[7.0825,49.1457],[7.0823,49.146],[7.0819,49.1463],[7.0816,49.1471],[7.0815,49.1472],[7.0815,49.1476],[7.0813,49.1483],[7.0813,49.1491],[7.0813,49.1492],[7.0816,49.15],[7.0822,49.1521],[7.0825,49.1528],[7.0833,49.1532],[7.0835,49.1533],[7.0844,49.1534],[7.0853,49.1531],[7.0857,49.1526],[7.0865,49.152],[7.0874,49.1519],[7.0903,49.1519],[7.0915,49.1521],[7.0929,49.1525],[7.0948,49.1527],[7.0957,49.153],[7.0958,49.1531],[7.097,49.1545],[7.0979,49.1551],[7.0981,49.1552],[7.0991,49.1556],[7.1011,49.156],[7.101,49.1582],[7.1047,49.159],[7.1054,49.1607],[7.1058,49.1617],[7.1082,49.1639],[7.1099,49.1643],[7.115,49.1672],[7.1174,49.1686],[7.1194,49.1699],[7.1213,49.1697],[7.1227,49.1692],[7.1247,49.1695],[7.1255,49.1696],[7.1278,49.1714],[7.1293,49.1726],[7.1289,49.1739],[7.1285,49.1749],[7.1269,49.1769],[7.1246,49.1763],[7.1221,49.1765],[7.1185,49.1772],[7.1157,49.1774],[7.1137,49.1766],[7.113,49.1764],[7.1122,49.1761],[7.1121,49.1761],[7.112,49.1762],[7.1102,49.1799],[7.1089,49.1821],[7.1083,49.1834],[7.1072,49.184],[7.107,49.1851],[7.1062,49.1854],[7.107,49.1883],[7.1083,49.1877],[7.1094,49.1885],[7.1087,49.1892],[7.1127,49.1902],[7.1131,49.1908],[7.1128,49.1914],[7.1133,49.1919],[7.1139,49.1924],[7.1146,49.1931],[7.1153,49.1933],[7.1161,49.1934],[7.1169,49.1935],[7.1178,49.1935],[7.1186,49.1936],[7.1191,49.1936],[7.119,49.1943],[7.1168,49.1956],[7.1172,49.1981],[7.1183,49.1996],[7.119,49.2012],[7.1212,49.2031],[7.1243,49.2048],[7.1273,49.2066],[7.1282,49.208],[7.1287,49.2116],[7.1295,49.2122],[7.1309,49.2133],[7.1345,49.2116],[7.1354,49.2123],[7.1374,49.2138],[7.1368,49.215],[7.1363,49.2157],[7.1357,49.2174],[7.1306,49.218],[7.1293,49.2168],[7.1282,49.2164],[7.1275,49.2164],[7.1268,49.2164],[7.1258,49.218],[7.1245,49.2189],[7.1241,49.2196],[7.124,49.2205],[7.1234,49.2215],[7.1228,49.2221],[7.1225,49.2228],[7.1229,49.2235],[7.1241,49.2256],[7.1255,49.2271],[7.1263,49.2286],[7.1275,49.2334],[7.1292,49.2389],[7.1295,49.2403],[7.1293,49.2408],[7.1285,49.2427],[7.1291,49.243],[7.1305,49.2439],[7.1306,49.2444],[7.1303,49.2447],[7.1297,49.2446],[7.1291,49.2447],[7.1288,49.245],[7.1283,49.2452],[7.1264,49.2451],[7.1255,49.2453],[7.1246,49.2458],[7.1238,49.2465],[7.1236,49.247],[7.1234,49.2475],[7.123,49.2482],[7.1225,49.2486],[7.1221,49.2488],[7.1215,49.2491],[7.1209,49.2492],[7.1202,49.2494],[7.1196,49.2495],[7.119,49.2496],[7.1188,49.2498],[7.1186,49.2502],[7.1184,49.2506],[7.1183,49.2511],[7.1181,49.2516],[7.1179,49.2517],[7.1175,49.2518],[7.1166,49.2521],[7.1144,49.2523],[7.1139,49.2524],[7.1135,49.2525],[7.1134,49.2527],[7.1134,49.2529],[7.1136,49.2531],[7.114,49.2536],[7.1142,49.254],[7.1142,49.2545],[7.1141,49.2548],[7.1135,49.2552],[7.1128,49.2553],[7.1118,49.2555],[7.1117,49.2564],[7.1116,49.2577],[7.1102,49.2578],[7.1095,49.2566],[7.1078,49.2542],[7.1029,49.2543],[7.1003,49.2528],[7.0978,49.2518],[7.0947,49.2502],[7.0937,49.2478],[7.0923,49.2469],[7.0892,49.2462],[7.0864,49.2455],[7.0853,49.2475],[7.0856,49.2485],[7.0794,49.2498],[7.0823,49.2538],[7.0832,49.2556],[7.0814,49.2556],[7.0795,49.2575],[7.0782,49.258],[7.0763,49.2585],[7.0716,49.2573],[7.0684,49.2562],[7.0673,49.258],[7.065,49.2596],[7.0642,49.2607],[7.0627,49.2615],[7.0643,49.2636],[7.0621,49.2672],[7.0626,49.2714],[7.0647,49.2712],[7.066,49.2716],[7.0673,49.2732],[7.069,49.2746],[7.0731,49.2752],[7.0752,49.2745],[7.0779,49.2741],[7.0806,49.2744],[7.0801,49.2755],[7.0784,49.2807],[7.081,49.281],[7.0822,49.2816],[7.0854,49.2819],[7.0866,49.2822],[7.0854,49.2833],[7.0857,49.285],[7.0869,49.2876],[7.0856,49.2894],[7.0851,49.2912],[7.0839,49.2932],[7.0829,49.2948],[7.0855,49.2959],[7.0857,49.2967],[7.0876,49.2962],[7.0893,49.296],[7.0929,49.297],[7.0942,49.2983],[7.0938,49.2989],[7.0925,49.2999],[7.0945,49.3017],[7.0958,49.3037],[7.0975,49.3028],[7.0971,49.302],[7.0981,49.3016],[7.0991,49.3023],[7.0995,49.3029],[7.1002,49.3033],[7.1019,49.3034],[7.1025,49.3035],[7.1026,49.3042],[7.1034,49.3042],[7.1046,49.3043],[7.1057,49.3044],[7.1057,49.3043],[7.106,49.3044],[7.1079,49.3048],[7.1106,49.3058],[7.1116,49.306],[7.1124,49.3064],[7.1132,49.3069],[7.1133,49.307],[7.1137,49.3073],[7.1149,49.3079],[7.1158,49.3083],[7.1164,49.3088],[7.117,49.3095],[7.1172,49.3099],[7.1174,49.3104],[7.1176,49.3111],[7.1167,49.3118],[7.1158,49.3127],[7.1085,49.314],[7.1069,49.3156],[7.1106,49.3171],[7.1091,49.3204],[7.1098,49.3215],[7.1139,49.324],[7.1119,49.3259],[7.1088,49.3287],[7.1067,49.3307],[7.106,49.3319],[7.1071,49.3324],[7.1094,49.3331],[7.1108,49.3335],[7.1116,49.3337],[7.1137,49.334],[7.1142,49.334],[7.1142,49.3363],[7.1136,49.3364],[7.1107,49.337],[7.1102,49.338],[7.1098,49.3387],[7.1091,49.3387],[7.1065,49.3388],[7.1049,49.3389],[7.1031,49.339],[7.102,49.3378],[7.1009,49.3379],[7.0996,49.3389],[7.0992,49.3392],[7.1006,49.3402],[7.0998,49.3407],[7.0988,49.3405],[7.0982,49.3406],[7.0979,49.3407],[7.0972,49.3409],[7.095,49.3396],[7.0937,49.339],[7.089,49.3426],[7.0877,49.3441],[7.0869,49.3449],[7.0865,49.3468],[7.0826,49.3455],[7.0802,49.3443],[7.0783,49.3436],[7.0767,49.3438],[7.0737,49.3442],[7.0731,49.3434],[7.0731,49.342],[7.0737,49.341],[7.0743,49.3389],[7.0745,49.338],[7.0737,49.3349],[7.0727,49.3336],[7.0703,49.3292],[7.0665,49.3288],[7.0646,49.3296],[7.0631,49.3298],[7.0622,49.3304],[7.0616,49.3311],[7.0605,49.3319],[7.0609,49.3324],[7.0612,49.3333],[7.0611,49.3341],[7.061,49.3353],[7.0608,49.3364],[7.0605,49.3373],[7.0602,49.3383],[7.0601,49.3391],[7.0602,49.3398],[7.0605,49.3403],[7.061,49.3411],[7.0612,49.3413],[7.0613,49.3421],[7.0606,49.3426],[7.059,49.3431],[7.0531,49.3451],[7.0513,49.3462],[7.05,49.345],[7.0482,49.344],[7.0447,49.3434],[7.0451,49.3501],[7.0356,49.3482],[7.0325,49.3482],[7.0279,49.3478],[7.0273,49.3489],[7.0243,49.3504],[7.0239,49.3503],[7.0214,49.3508],[7.0204,49.3497],[7.0139,49.3498],[7.0203,49.355],[7.0224,49.3588],[7.0161,49.3585],[7.0135,49.359],[7.01,49.359],[7.0081,49.359],[7.0045,49.3593],[7.0027,49.3589],[7.0001,49.359],[6.9974,49.3581],[6.9957,49.3585],[6.992,49.3591],[6.9901,49.3589],[6.9878,49.3583],[6.9858,49.3583],[6.9844,49.3582],[6.9807,49.3575],[6.9792,49.3582],[6.9782,49.3589],[6.9768,49.3586],[6.9747,49.3579],[6.9732,49.3571],[6.9719,49.3562],[6.9702,49.3559],[6.9663,49.3564],[6.9646,49.3567],[6.9645,49.3577],[6.9644,49.3581],[6.9637,49.3595],[6.9632,49.3596],[6.9627,49.3596],[6.9606,49.3622],[6.9573,49.365],[6.9562,49.3659],[6.9574,49.3669],[6.9568,49.3677],[6.9583,49.3689],[6.9586,49.3709],[6.9567,49.373],[6.9562,49.3738],[6.9498,49.3735],[6.9491,49.374],[6.9478,49.3747],[6.946,49.3759],[6.9443,49.3777]]]},"properties":{"id":"DEC01","name":"Regionalverband Saarbücken","territoire":"Sarre","sigle":"SL","pays":"Allemagne","cx":6.973,"cy":49.279}},
{"type":"Feature","geometry":{"type":"Polygon","coordinates":[[[6.9102,49.5017],[6.9164,49.506],[6.9185,49.5079],[6.9193,49.5079],[6.9197,49.5074],[6.9207,49.5064],[6.9211,49.5059],[6.9231,49.5038],[6.9244,49.5045],[6.9252,49.505],[6.9287,49.5036],[6.9289,49.5048],[6.9304,49.506],[6.9314,49.5053],[6.9337,49.506],[6.9359,49.5065],[6.9358,49.5077],[6.9381,49.5081],[6.9385,49.5074],[6.9402,49.5085],[6.9423,49.5095],[6.9469,49.5112],[6.9512,49.5115],[6.9552,49.5117],[6.9555,49.5118],[6.9563,49.5134],[6.9562,49.5146],[6.9564,49.5158],[6.9564,49.5171],[6.9547,49.5201],[6.9564,49.5225],[6.9562,49.5235],[6.9564,49.5251],[6.9553,49.5266],[6.9541,49.5305],[6.9553,49.5307],[6.9532,49.5331],[6.955,49.5337],[6.9571,49.5359],[6.9577,49.5382],[6.9581,49.5406],[6.9581,49.5438],[6.9581,49.5457],[6.9567,49.547],[6.9568,49.5512],[6.9562,49.5526],[6.9545,49.5536],[6.9577,49.5553],[6.9574,49.5562],[6.9583,49.5567],[6.9607,49.557],[6.9616,49.559],[6.963,49.5594],[6.9624,49.5609],[6.9612,49.5621],[6.9595,49.5625],[6.9569,49.562],[6.9568,49.5641],[6.9567,49.5655],[6.9517,49.5655],[6.9498,49.5656],[6.9489,49.5661],[6.9489,49.5668],[6.9503,49.5681],[6.953,49.5705],[6.9521,49.5717],[6.9499,49.5716],[6.9498,49.5739],[6.9522,49.5757],[6.9547,49.5777],[6.9558,49.5798],[6.9558,49.5804],[6.9559,49.5814],[6.9546,49.582],[6.9521,49.5828],[6.9555,49.5846],[6.9584,49.586],[6.9576,49.5868],[6.9557,49.5881],[6.9559,49.5896],[6.9551,49.591],[6.9552,49.5928],[6.9563,49.5944],[6.9567,49.5978],[6.9549,49.5962],[6.9535,49.5946],[6.9484,49.5963],[6.9436,49.598],[6.9406,49.5985],[6.9379,49.5978],[6.9363,49.5981],[6.9346,49.5994],[6.9332,49.5995],[6.9305,49.5974],[6.9238,49.5971],[6.9235,49.596],[6.9207,49.5952],[6.9182,49.5944],[6.9144,49.5952],[6.9099,49.5944],[6.9083,49.5935],[6.9069,49.5928],[6.9065,49.5926],[6.9055,49.5906],[6.9003,49.5945],[6.895,49.5976],[6.8945,49.599],[6.8941,49.6009],[6.8952,49.6034],[6.895,49.604],[6.8946,49.6048],[6.8926,49.6079],[6.8919,49.6088],[6.8921,49.61],[6.8921,49.6116],[6.8915,49.6134],[6.8866,49.6132],[6.8855,49.6109],[6.8867,49.6106],[6.887,49.6092],[6.8907,49.6076],[6.8898,49.6063],[6.8837,49.6085],[6.8826,49.6084],[6.88,49.6062],[6.8796,49.6012],[6.8793,49.6014],[6.879,49.6016],[6.8787,49.6018],[6.8783,49.6019],[6.8773,49.6023],[6.8756,49.6029],[6.8751,49.6031],[6.8745,49.6033],[6.874,49.6036],[6.8735,49.6038],[6.8732,49.604],[6.8729,49.6042],[6.8725,49.6046],[6.8722,49.6048],[6.8721,49.6051],[6.8721,49.6057],[6.8725,49.6061],[6.8727,49.6064],[6.8726,49.6069],[6.8721,49.6071],[6.8714,49.6073],[6.8709,49.6076],[6.8708,49.6078],[6.8706,49.6084],[6.8682,49.6084],[6.8664,49.6087],[6.8642,49.6079],[6.8579,49.6056],[6.8572,49.6052],[6.8552,49.6024],[6.854,49.6003],[6.8482,49.5923],[6.846,49.5896],[6.8432,49.5913],[6.8422,49.593],[6.8391,49.5926],[6.8393,49.5923],[6.8395,49.5921],[6.8399,49.5902],[6.8403,49.5888],[6.84,49.5874],[6.839,49.5861],[6.8381,49.5852],[6.8374,49.5849],[6.8368,49.5847],[6.8361,49.5841],[6.8355,49.5834],[6.8354,49.5829],[6.8329,49.5843],[6.8265,49.5871],[6.8243,49.5884],[6.8223,49.5864],[6.8212,49.5875],[6.8198,49.5887],[6.8169,49.5904],[6.8134,49.592],[6.8119,49.5913],[6.8096,49.5906],[6.8057,49.5892],[6.8017,49.5881],[6.8009,49.5866],[6.7982,49.5863],[6.7932,49.5814],[6.7898,49.5799],[6.7871,49.5762],[6.7817,49.5725],[6.7782,49.5702],[6.7747,49.5695],[6.7721,49.5691],[6.7697,49.5689],[6.7675,49.569],[6.7646,49.5678],[6.7615,49.5649],[6.7584,49.5625],[6.7569,49.5614],[6.7557,49.5611],[6.7542,49.5603],[6.7509,49.5591],[6.7474,49.5578],[6.746,49.5577],[6.7421,49.5574],[6.7384,49.5577],[6.7354,49.5585],[6.7343,49.5603],[6.7283,49.559],[6.7228,49.5562],[6.7187,49.5557],[6.7176,49.5555],[6.7101,49.5539],[6.7091,49.5535],[6.7086,49.5533],[6.708,49.5528],[6.7075,49.5521],[6.7071,49.5514],[6.7065,49.5508],[6.706,49.5503],[6.7056,49.5497],[6.7052,49.549],[6.7049,49.5484],[6.7046,49.5476],[6.7042,49.5467],[6.7039,49.5463],[6.7032,49.5458],[6.7028,49.5453],[6.7023,49.5447],[6.7017,49.5442],[6.7015,49.5438],[6.7013,49.5432],[6.7011,49.5427],[6.7009,49.5423],[6.7004,49.5417],[6.7,49.5412],[6.6994,49.5408],[6.6987,49.5404],[6.6981,49.5402],[6.6963,49.54],[6.6951,49.5399],[6.6942,49.5398],[6.6936,49.5396],[6.6934,49.5391],[6.6935,49.5385],[6.6936,49.5378],[6.6924,49.5366],[6.6904,49.5352],[6.6885,49.5362],[6.6871,49.5397],[6.6871,49.5416],[6.6848,49.5442],[6.6851,49.5468],[6.6835,49.5484],[6.6798,49.547],[6.6737,49.5458],[6.6674,49.5438],[6.6641,49.5427],[6.6582,49.5439],[6.6576,49.5459],[6.6546,49.5494],[6.6534,49.5505],[6.653,49.5508],[6.6528,49.5509],[6.6525,49.5512],[6.6504,49.5495],[6.6511,49.5479],[6.6517,49.5465],[6.6515,49.5448],[6.6515,49.544],[6.651,49.5434],[6.6496,49.542],[6.6483,49.5407],[6.646,49.5391],[6.6442,49.539],[6.6413,49.5378],[6.6411,49.5402],[6.636,49.5419],[6.6347,49.5418],[6.6328,49.5419],[6.6309,49.5414],[6.63,49.5402],[6.6287,49.5395],[6.6278,49.5383],[6.6264,49.5384],[6.6246,49.5379],[6.6217,49.5366],[6.6199,49.5365],[6.6179,49.5359],[6.6184,49.5354],[6.6201,49.5332],[6.6206,49.5324],[6.6211,49.5316],[6.6212,49.5309],[6.6212,49.5303],[6.6208,49.5294],[6.6201,49.529],[6.6192,49.5287],[6.6179,49.5286],[6.6166,49.5286],[6.6147,49.5287],[6.6129,49.5283],[6.612,49.5292],[6.6098,49.5297],[6.6063,49.528],[6.6073,49.5271],[6.6082,49.5261],[6.609,49.525],[6.6096,49.524],[6.61,49.5231],[6.6104,49.5221],[6.6103,49.5211],[6.6101,49.5204],[6.6095,49.5198],[6.6085,49.5191],[6.6072,49.5184],[6.6058,49.5178],[6.6048,49.5173],[6.6047,49.5173],[6.6036,49.518],[6.6034,49.518],[6.6014,49.5182],[6.5997,49.5184],[6.5981,49.5186],[6.5953,49.5188],[6.5913,49.517],[6.5884,49.5175],[6.5869,49.5193],[6.5845,49.5195],[6.5797,49.5222],[6.5802,49.5248],[6.5794,49.5288],[6.5783,49.5301],[6.5742,49.5344],[6.5729,49.5346],[6.5718,49.5361],[6.5687,49.5377],[6.5652,49.5379],[6.564,49.5406],[6.5617,49.5398],[6.5598,49.5378],[6.5564,49.5373],[6.5548,49.536],[6.5495,49.5372],[6.5448,49.5376],[6.5412,49.5384],[6.5386,49.5395],[6.5353,49.5374],[6.5326,49.5356],[6.5299,49.5337],[6.5279,49.5322],[6.5252,49.5294],[6.5229,49.5283],[6.5213,49.5285],[6.5196,49.5291],[6.5188,49.5287],[6.5174,49.5275],[6.5161,49.5278],[6.5153,49.5284],[6.5149,49.5292],[6.5151,49.5302],[6.5152,49.5308],[6.5152,49.5309],[6.5152,49.5311],[6.5151,49.5312],[6.5151,49.5314],[6.515,49.5316],[6.5144,49.5326],[6.5144,49.5332],[6.5145,49.5337],[6.5148,49.5343],[6.5149,49.5344],[6.5149,49.5345],[6.5149,49.5348],[6.5149,49.5351],[6.5136,49.5351],[6.5111,49.5343],[6.5096,49.5354],[6.5076,49.5353],[6.5006,49.5323],[6.4993,49.5304],[6.4975,49.5311],[6.4941,49.5306],[6.4905,49.5318],[6.4873,49.5329],[6.4857,49.5338],[6.4837,49.5356],[6.4818,49.5385],[6.48,49.5399],[6.4767,49.5417],[6.4732,49.543],[6.4715,49.5436],[6.4679,49.5444],[6.467,49.543],[6.4667,49.5431],[6.4651,49.5436],[6.4636,49.5441],[6.4626,49.5429],[6.4599,49.5421],[6.4598,49.5421],[6.4568,49.5403],[6.4527,49.5384],[6.4503,49.5396],[6.451,49.5404],[6.4495,49.542],[6.4505,49.5432],[6.4493,49.5439],[6.4474,49.5423],[6.4441,49.5429],[6.4426,49.545],[6.4389,49.5448],[6.4384,49.5463],[6.4337,49.5474],[6.4328,49.5478],[6.4303,49.549],[6.4245,49.5477],[6.4245,49.5467],[6.4209,49.5457],[6.4184,49.544],[6.4167,49.5439],[6.4143,49.5433],[6.415,49.5457],[6.4141,49.5464],[6.4109,49.5471],[6.4095,49.5473],[6.4077,49.5475],[6.4041,49.5486],[6.3996,49.5478],[6.397,49.5481],[6.3939,49.5474],[6.3915,49.5484],[6.3892,49.5482],[6.3853,49.5495],[6.3825,49.5513],[6.3801,49.5511],[6.3783,49.5498],[6.377,49.5487],[6.3729,49.546],[6.37,49.5441],[6.3664,49.5404],[6.3616,49.5376],[6.3604,49.5367],[6.3583,49.5345],[6.3562,49.5319],[6.356,49.5314],[6.3558,49.5302],[6.356,49.5292],[6.3571,49.527],[6.3587,49.5228],[6.3613,49.5173],[6.366,49.5079],[6.3661,49.5076],[6.3663,49.5073],[6.3663,49.507],[6.3664,49.5067],[6.3666,49.5059],[6.3669,49.5051],[6.3671,49.5045],[6.3672,49.5043],[6.3673,49.5039],[6.3674,49.5028],[6.3673,49.5015],[6.3668,49.4991],[6.3666,49.4963],[6.3667,49.4937],[6.367,49.4928],[6.3683,49.4905],[6.3687,49.4886],[6.3678,49.4848],[6.3673,49.4818],[6.3673,49.476],[6.3673,49.4724],[6.3667,49.4696],[6.3677,49.4694],[6.3681,49.4693],[6.3693,49.4691],[6.3694,49.469],[6.3696,49.469],[6.3714,49.4686],[6.3714,49.4668],[6.372,49.4667],[6.3723,49.4666],[6.3723,49.4662],[6.374,49.4662],[6.3749,49.4643],[6.375,49.4641],[6.3756,49.4642],[6.3758,49.4642],[6.3796,49.4645],[6.3803,49.4652],[6.3799,49.4662],[6.3804,49.4662],[6.3864,49.4654],[6.3891,49.4644],[6.3915,49.4642],[6.392,49.4641],[6.3934,49.4641],[6.3947,49.4643],[6.3958,49.4644],[6.3966,49.4646],[6.4,49.4657],[6.4023,49.4665],[6.4036,49.4659],[6.4068,49.4671],[6.4071,49.4672],[6.4077,49.4675],[6.4084,49.4678],[6.4123,49.4701],[6.4134,49.4705],[6.4146,49.471],[6.4173,49.4731],[6.4181,49.4743],[6.4204,49.4764],[6.4261,49.4756],[6.4262,49.4757],[6.4265,49.4758],[6.4275,49.4764],[6.4291,49.4762],[6.4347,49.4727],[6.4333,49.4718],[6.4359,49.4697],[6.4381,49.4682],[6.4405,49.4667],[6.4431,49.4682],[6.4452,49.4672],[6.4508,49.4657],[6.4517,49.4643],[6.4541,49.4638],[6.4557,49.4627],[6.4628,49.465],[6.4638,49.4658],[6.4646,49.4664],[6.4656,49.4647],[6.4687,49.4645],[6.4714,49.4616],[6.473,49.4607],[6.4775,49.4581],[6.4815,49.4544],[6.4847,49.4526],[6.4848,49.4525],[6.4849,49.4525],[6.4855,49.4521],[6.4863,49.4516],[6.4884,49.4515],[6.4919,49.4513],[6.4933,49.451],[6.4948,49.4507],[6.4964,49.4506],[6.4969,49.4505],[6.4984,49.4504],[6.4994,49.4504],[6.5078,49.4459],[6.5095,49.445],[6.5143,49.4407],[6.5177,49.439],[6.5189,49.4388],[6.522,49.437],[6.5231,49.4368],[6.5248,49.4355],[6.529,49.4354],[6.5343,49.4356],[6.5351,49.4342],[6.5353,49.4341],[6.538,49.4328],[6.5394,49.4337],[6.5405,49.4332],[6.5417,49.4325],[6.5417,49.4316],[6.542,49.4313],[6.5427,49.4306],[6.5465,49.4281],[6.5476,49.4275],[6.5488,49.4267],[6.5508,49.4254],[6.5512,49.425],[6.5521,49.424],[6.5521,49.4239],[6.5518,49.4231],[6.5525,49.4213],[6.5538,49.4204],[6.5542,49.4201],[6.5559,49.421],[6.5571,49.4198],[6.5574,49.4195],[6.557,49.4192],[6.5597,49.4182],[6.561,49.4177],[6.5626,49.417],[6.5649,49.4155],[6.566,49.416],[6.5695,49.4174],[6.5715,49.4181],[6.5727,49.4166],[6.5736,49.4153],[6.577,49.4113],[6.5795,49.4096],[6.5795,49.4064],[6.5814,49.4044],[6.5845,49.4027],[6.5839,49.4013],[6.5833,49.4001],[6.5844,49.3998],[6.5866,49.3991],[6.5896,49.3998],[6.5918,49.4001],[6.5924,49.3984],[6.5931,49.3989],[6.6008,49.3974],[6.6017,49.3991],[6.6055,49.4001],[6.6063,49.4002],[6.6057,49.4014],[6.6073,49.4019],[6.6096,49.4027],[6.6118,49.4026],[6.6214,49.4038],[6.6234,49.4047],[6.6235,49.4058],[6.6249,49.408],[6.6287,49.4099],[6.6315,49.409],[6.6357,49.4111],[6.6383,49.4093],[6.6426,49.4114],[6.644,49.4103],[6.6449,49.4099],[6.646,49.4095],[6.6477,49.4088],[6.6495,49.4081],[6.651,49.4074],[6.6527,49.4064],[6.6545,49.4051],[6.6562,49.4038],[6.6579,49.4024],[6.6599,49.4007],[6.662,49.3989],[6.6633,49.3975],[6.6645,49.3962],[6.6646,49.3962],[6.6656,49.395],[6.6667,49.3936],[6.6677,49.3923],[6.6685,49.3914],[6.6697,49.3905],[6.6709,49.3895],[6.6716,49.3893],[6.6731,49.389],[6.6746,49.3886],[6.6762,49.388],[6.6784,49.3871],[6.6824,49.3859],[6.6848,49.3845],[6.6878,49.3838],[6.6907,49.383],[6.6924,49.3825],[6.6937,49.382],[6.6941,49.3813],[6.6944,49.3799],[6.6943,49.3782],[6.6935,49.3766],[6.6932,49.3755],[6.6929,49.3746],[6.6936,49.3735],[6.6943,49.3731],[6.6953,49.3725],[6.6957,49.3722],[6.6973,49.3722],[6.7007,49.3724],[6.7009,49.3737],[6.7057,49.3744],[6.7075,49.3749],[6.7087,49.3752],[6.7081,49.3769],[6.712,49.3775],[6.7157,49.3787],[6.717,49.3796],[6.7173,49.3806],[6.72,49.3818],[6.7171,49.3837],[6.7177,49.3839],[6.7189,49.3844],[6.7202,49.3848],[6.7215,49.3853],[6.7228,49.3859],[6.7231,49.386],[6.724,49.3864],[6.7254,49.3867],[6.7263,49.3868],[6.7272,49.3871],[6.7282,49.3873],[6.7292,49.3874],[6.7299,49.3877],[6.7302,49.3879],[6.7305,49.3882],[6.7309,49.3885],[6.7315,49.3889],[6.7324,49.3895],[6.7329,49.3898],[6.7332,49.3902],[6.7338,49.3904],[6.7346,49.3907],[6.7358,49.3912],[6.7365,49.3915],[6.7369,49.3919],[6.7376,49.392],[6.7384,49.3923],[6.7395,49.3931],[6.7408,49.3942],[6.7415,49.395],[6.7423,49.3957],[6.7432,49.3962],[6.7435,49.3964],[6.7465,49.3952],[6.7501,49.3946],[6.7517,49.3948],[6.7543,49.3958],[6.7559,49.3978],[6.7582,49.3995],[6.7634,49.4019],[6.7652,49.4017],[6.7686,49.4027],[6.7784,49.4034],[6.782,49.4042],[6.7849,49.4053],[6.7872,49.4062],[6.7913,49.4081],[6.7953,49.4116],[6.7959,49.4136],[6.7987,49.4158],[6.7974,49.4166],[6.7955,49.4174],[6.7949,49.4203],[6.796,49.4235],[6.7962,49.4259],[6.7965,49.4272],[6.7952,49.4287],[6.7956,49.4308],[6.7953,49.4319],[6.7951,49.4326],[6.7947,49.4329],[6.7935,49.4339],[6.7921,49.4345],[6.7887,49.4357],[6.7861,49.4367],[6.7896,49.4368],[6.7907,49.4391],[6.793,49.4393],[6.7934,49.4408],[6.7935,49.442],[6.7971,49.4425],[6.7967,49.4436],[6.7951,49.4448],[6.7955,49.4464],[6.7956,49.4471],[6.7976,49.4492],[6.8019,49.4502],[6.8023,49.451],[6.8018,49.4519],[6.8009,49.4535],[6.7971,49.454],[6.7966,49.4543],[6.7972,49.4552],[6.7979,49.4555],[6.7988,49.4571],[6.7969,49.4575],[6.7975,49.4587],[6.798,49.46],[6.8003,49.4614],[6.8013,49.4623],[6.8018,49.4632],[6.8038,49.4666],[6.8057,49.4698],[6.8071,49.4711],[6.8105,49.4727],[6.8116,49.4731],[6.8124,49.4733],[6.8136,49.473],[6.8132,49.4726],[6.8184,49.4701],[6.8211,49.469],[6.8231,49.47],[6.8271,49.4709],[6.8296,49.4724],[6.83,49.4734],[6.8326,49.4737],[6.8359,49.4746],[6.8367,49.4755],[6.8392,49.4747],[6.8413,49.475],[6.8413,49.4766],[6.8455,49.4788],[6.8473,49.4793],[6.852,49.4814],[6.8534,49.4829],[6.8558,49.4827],[6.8572,49.4824],[6.8615,49.4808],[6.8656,49.4805],[6.8709,49.4804],[6.8725,49.4799],[6.8733,49.4793],[6.875,49.4797],[6.8781,49.4818],[6.8785,49.4821],[6.8797,49.4828],[6.8806,49.4835],[6.8813,49.484],[6.8822,49.4846],[6.8838,49.4854],[6.8852,49.4859],[6.886,49.4866],[6.8862,49.4868],[6.8866,49.4874],[6.8885,49.4879],[6.8893,49.4884],[6.8902,49.489],[6.8913,49.4897],[6.8926,49.4903],[6.8941,49.4907],[6.8957,49.4912],[6.8975,49.4919],[6.8987,49.4927],[6.899,49.493],[6.8997,49.4936],[6.9007,49.4942],[6.9015,49.4944],[6.9023,49.4945],[6.9034,49.4952],[6.9045,49.4963],[6.9068,49.4979],[6.9086,49.5001],[6.9102,49.5017]]]},"properties":{"id":"DEC02","name":"Landkreis Merzig-Wadern","territoire":"Sarre","sigle":"SL","pays":"Allemagne","cx":6.682,"cy":49.468}},
{"type":"Feature","geometry":{"type":"Polygon","coordinates":[[[7.117,49.3095],[7.1212,49.3078],[7.1225,49.3093],[7.1241,49.3086],[7.1265,49.3076],[7.1279,49.307],[7.1318,49.305],[7.1354,49.3031],[7.1365,49.3025],[7.1403,49.3011],[7.147,49.3012],[7.1527,49.3012],[7.1543,49.301],[7.1558,49.3009],[7.1564,49.3006],[7.1572,49.3],[7.1581,49.2995],[7.1587,49.2989],[7.1587,49.2977],[7.1617,49.2977],[7.1618,49.2962],[7.1632,49.2968],[7.1652,49.298],[7.1664,49.3003],[7.1681,49.3015],[7.1703,49.3024],[7.1717,49.304],[7.1725,49.3039],[7.1743,49.3039],[7.1763,49.3038],[7.1781,49.3037],[7.1828,49.3042],[7.1843,49.3045],[7.1863,49.3051],[7.187,49.3053],[7.1874,49.3055],[7.1868,49.3049],[7.1857,49.3036],[7.1847,49.3024],[7.1845,49.3015],[7.1846,49.3007],[7.1851,49.3],[7.1871,49.2977],[7.1883,49.2966],[7.1832,49.2934],[7.1797,49.2918],[7.1829,49.2873],[7.1861,49.2886],[7.189,49.2894],[7.2084,49.2943],[7.228,49.2993],[7.2292,49.2996],[7.2366,49.3021],[7.2387,49.3029],[7.2405,49.3037],[7.2442,49.3055],[7.246,49.3064],[7.2476,49.3073],[7.2476,49.3084],[7.2472,49.3095],[7.2471,49.3097],[7.2459,49.3106],[7.2458,49.3107],[7.2443,49.3115],[7.2402,49.3135],[7.2393,49.314],[7.2417,49.3147],[7.2446,49.3156],[7.2469,49.3172],[7.2498,49.3187],[7.2504,49.3191],[7.2515,49.3197],[7.2545,49.3193],[7.2547,49.3194],[7.2579,49.3184],[7.2595,49.3179],[7.2667,49.3232],[7.2663,49.3232],[7.2658,49.3232],[7.2655,49.3233],[7.2653,49.3234],[7.2652,49.3237],[7.2652,49.3238],[7.2652,49.324],[7.2651,49.3241],[7.265,49.3243],[7.2648,49.3244],[7.2643,49.3244],[7.2639,49.3243],[7.2637,49.3243],[7.2635,49.3243],[7.2632,49.3243],[7.2631,49.3243],[7.2628,49.3245],[7.2628,49.3247],[7.2628,49.3249],[7.2629,49.3252],[7.2629,49.3254],[7.2629,49.3257],[7.2631,49.3261],[7.2631,49.3265],[7.2629,49.3268],[7.2626,49.3269],[7.2622,49.327],[7.2616,49.3269],[7.261,49.3267],[7.2605,49.3267],[7.2603,49.3267],[7.2598,49.3268],[7.2593,49.3268],[7.2591,49.327],[7.2589,49.3271],[7.2589,49.3272],[7.2586,49.3271],[7.2584,49.3269],[7.2583,49.3269],[7.2582,49.3268],[7.2574,49.3264],[7.2565,49.3263],[7.2553,49.3263],[7.2549,49.3264],[7.2547,49.3265],[7.2545,49.3267],[7.2544,49.3268],[7.2543,49.327],[7.2541,49.3272],[7.2538,49.3274],[7.2534,49.3275],[7.2531,49.3276],[7.2527,49.3277],[7.2523,49.3278],[7.2519,49.3279],[7.2515,49.3282],[7.2513,49.3286],[7.2512,49.3288],[7.251,49.3291],[7.2505,49.3293],[7.2494,49.3295],[7.2472,49.33],[7.2464,49.33],[7.2457,49.33],[7.2449,49.33],[7.2443,49.33],[7.2439,49.3301],[7.2436,49.3302],[7.2436,49.3304],[7.2437,49.3307],[7.2439,49.3309],[7.2439,49.3311],[7.2439,49.3313],[7.2437,49.3315],[7.2431,49.3319],[7.2423,49.3322],[7.242,49.3325],[7.2418,49.3327],[7.2414,49.3326],[7.2413,49.3326],[7.2411,49.3324],[7.2409,49.3322],[7.2407,49.3321],[7.2406,49.3321],[7.2401,49.3323],[7.24,49.3325],[7.2397,49.3327],[7.2398,49.3329],[7.2399,49.3332],[7.2402,49.3337],[7.2403,49.3342],[7.2402,49.3346],[7.24,49.3348],[7.2396,49.335],[7.2394,49.335],[7.2389,49.3349],[7.2384,49.3347],[7.238,49.3345],[7.2378,49.3345],[7.2376,49.3345],[7.2374,49.3346],[7.237,49.3351],[7.237,49.3354],[7.2372,49.3357],[7.2375,49.3358],[7.2376,49.3358],[7.2381,49.3361],[7.2382,49.3363],[7.2382,49.3366],[7.2381,49.3379],[7.2379,49.3383],[7.2377,49.3386],[7.2373,49.3391],[7.2369,49.3395],[7.2367,49.3397],[7.2364,49.3399],[7.2361,49.3401],[7.2355,49.3403],[7.2348,49.3406],[7.2335,49.3411],[7.2331,49.3413],[7.236,49.3432],[7.237,49.344],[7.2405,49.3482],[7.2412,49.3482],[7.2426,49.3486],[7.2424,49.3517],[7.2407,49.3554],[7.2399,49.3562],[7.2392,49.3568],[7.2391,49.3572],[7.239,49.3579],[7.2385,49.3586],[7.238,49.3596],[7.2374,49.3604],[7.2359,49.3612],[7.2342,49.3616],[7.233,49.362],[7.2298,49.3616],[7.2265,49.3608],[7.2252,49.36],[7.2222,49.3614],[7.2221,49.3629],[7.2224,49.3635],[7.2215,49.3638],[7.2198,49.3641],[7.2198,49.3669],[7.2205,49.3682],[7.221,49.3694],[7.2221,49.3703],[7.2245,49.372],[7.2282,49.3744],[7.2297,49.3754],[7.233,49.3772],[7.2347,49.3781],[7.2369,49.3797],[7.239,49.3828],[7.2404,49.3837],[7.2427,49.3845],[7.2463,49.3849],[7.2486,49.3855],[7.2507,49.3857],[7.2504,49.3863],[7.2492,49.3888],[7.2497,49.3889],[7.2528,49.3899],[7.2512,49.3909],[7.251,49.391],[7.2512,49.3919],[7.2546,49.3956],[7.255,49.3968],[7.2552,49.3974],[7.2587,49.3972],[7.2617,49.3971],[7.264,49.3973],[7.2661,49.3975],[7.269,49.3986],[7.2722,49.4009],[7.2742,49.402],[7.2753,49.4022],[7.2766,49.4022],[7.2791,49.4021],[7.2821,49.402],[7.2836,49.402],[7.2851,49.4024],[7.2865,49.4034],[7.2878,49.4045],[7.2893,49.4058],[7.2906,49.4064],[7.2922,49.4068],[7.2926,49.4082],[7.292,49.4092],[7.2901,49.4112],[7.2894,49.4124],[7.2897,49.414],[7.2901,49.4147],[7.2885,49.4164],[7.2863,49.4174],[7.2824,49.4175],[7.2789,49.4193],[7.2783,49.4203],[7.2789,49.4208],[7.275,49.422],[7.2728,49.4242],[7.2704,49.4247],[7.2691,49.424],[7.2669,49.4244],[7.2654,49.4244],[7.261,49.4236],[7.2609,49.4249],[7.2596,49.4253],[7.2604,49.4262],[7.257,49.4261],[7.2558,49.4286],[7.2558,49.4297],[7.254,49.4299],[7.2526,49.4315],[7.2505,49.4308],[7.2483,49.4311],[7.2455,49.4298],[7.2436,49.4302],[7.2424,49.4293],[7.241,49.4287],[7.2392,49.4292],[7.2353,49.4274],[7.235,49.4273],[7.235,49.4274],[7.235,49.4276],[7.2347,49.4279],[7.2341,49.4283],[7.2336,49.4284],[7.2333,49.4284],[7.2326,49.4283],[7.2322,49.4283],[7.232,49.4284],[7.2319,49.4287],[7.2319,49.4289],[7.2319,49.4291],[7.2318,49.4293],[7.2317,49.4295],[7.2315,49.4297],[7.2277,49.4299],[7.2269,49.429],[7.2241,49.4309],[7.2189,49.4355],[7.2177,49.4365],[7.2172,49.437],[7.2154,49.4382],[7.2135,49.4394],[7.2098,49.4411],[7.2081,49.4413],[7.2059,49.4377],[7.2067,49.4373],[7.2068,49.4346],[7.2051,49.434],[7.1979,49.4332],[7.1943,49.4314],[7.1925,49.4304],[7.1933,49.4287],[7.1926,49.4271],[7.1906,49.4269],[7.1881,49.4266],[7.185,49.4262],[7.1829,49.426],[7.1793,49.4251],[7.1701,49.4233],[7.1628,49.4191],[7.1566,49.4186],[7.149,49.4161],[7.1472,49.4161],[7.145,49.4166],[7.1423,49.4172],[7.1394,49.4179],[7.1363,49.4193],[7.1338,49.4204],[7.1326,49.4253],[7.1303,49.4264],[7.1314,49.4295],[7.1312,49.4299],[7.1291,49.4305],[7.128,49.4279],[7.1243,49.4268],[7.1229,49.4294],[7.1205,49.4298],[7.1187,49.429],[7.115,49.4267],[7.1136,49.4273],[7.1101,49.4276],[7.1074,49.4283],[7.1058,49.4267],[7.1047,49.4257],[7.1033,49.4243],[7.1038,49.4242],[7.1051,49.4239],[7.1078,49.4239],[7.107,49.4226],[7.1069,49.4224],[7.1041,49.4221],[7.1046,49.421],[7.1027,49.4204],[7.1012,49.42],[7.099,49.4213],[7.0941,49.4219],[7.0916,49.4194],[7.0918,49.4171],[7.0919,49.4152],[7.0899,49.4147],[7.0888,49.4143],[7.0866,49.4127],[7.0839,49.4128],[7.0839,49.4114],[7.0815,49.4106],[7.0744,49.4114],[7.0698,49.4117],[7.0603,49.4092],[7.0586,49.4106],[7.0569,49.4121],[7.0566,49.4158],[7.0547,49.4163],[7.0528,49.4193],[7.0513,49.4213],[7.0489,49.4231],[7.0475,49.4265],[7.0444,49.4259],[7.0411,49.4243],[7.041,49.4222],[7.0398,49.4227],[7.0385,49.4232],[7.0324,49.4222],[7.0295,49.4228],[7.0294,49.4236],[7.0243,49.424],[7.0224,49.4263],[7.0193,49.4262],[7.0176,49.4273],[7.0169,49.4289],[7.0177,49.4308],[7.0154,49.4315],[7.0153,49.4303],[7.01,49.431],[7.0101,49.432],[7.0102,49.4332],[7.0017,49.4345],[6.999,49.4343],[6.9978,49.4342],[6.9973,49.435],[6.9958,49.4346],[6.9951,49.4354],[6.9973,49.4374],[6.9944,49.4378],[6.9893,49.4368],[6.9783,49.4342],[6.9733,49.4318],[6.9666,49.4321],[6.9594,49.4281],[6.9598,49.4272],[6.9548,49.4257],[6.9521,49.4242],[6.9491,49.4244],[6.9456,49.4252],[6.9435,49.4255],[6.9433,49.4254],[6.9432,49.4251],[6.9432,49.4248],[6.9431,49.4247],[6.9427,49.4243],[6.9409,49.4246],[6.9391,49.4259],[6.9366,49.4266],[6.9345,49.427],[6.9334,49.4269],[6.932,49.429],[6.9304,49.4268],[6.9314,49.4246],[6.9239,49.4219],[6.9236,49.4218],[6.9235,49.4212],[6.9236,49.4203],[6.9238,49.4189],[6.9238,49.4181],[6.9238,49.4172],[6.9237,49.4163],[6.923,49.4159],[6.9219,49.4151],[6.9197,49.4145],[6.9185,49.4143],[6.9169,49.414],[6.9197,49.4109],[6.9202,49.4086],[6.9216,49.4081],[6.9224,49.4064],[6.9246,49.4044],[6.9256,49.4042],[6.9298,49.4024],[6.9276,49.4005],[6.9249,49.3995],[6.9245,49.3988],[6.9248,49.3961],[6.9266,49.3965],[6.9285,49.3967],[6.9313,49.3977],[6.9339,49.3964],[6.9357,49.3948],[6.9387,49.3929],[6.9384,49.3918],[6.9371,49.391],[6.9358,49.3902],[6.9354,49.3898],[6.936,49.3892],[6.9382,49.3886],[6.9393,49.3884],[6.9386,49.3874],[6.9383,49.3861],[6.9382,49.3851],[6.9384,49.3845],[6.9385,49.3839],[6.9386,49.3832],[6.9389,49.3824],[6.9393,49.3817],[6.9399,49.3811],[6.9402,49.3803],[6.9406,49.3798],[6.9408,49.3793],[6.9411,49.3791],[6.9416,49.3791],[6.9421,49.3789],[6.9422,49.3788],[6.9425,49.3785],[6.9428,49.3783],[6.943,49.3781],[6.9433,49.378],[6.9437,49.3779],[6.9439,49.3779],[6.9443,49.3777],[6.946,49.3759],[6.9478,49.3747],[6.9491,49.374],[6.9498,49.3735],[6.9562,49.3738],[6.9567,49.373],[6.9586,49.3709],[6.9583,49.3689],[6.9568,49.3677],[6.9574,49.3669],[6.9562,49.3659],[6.9573,49.365],[6.9606,49.3622],[6.9627,49.3596],[6.9632,49.3596],[6.9637,49.3595],[6.9644,49.3581],[6.9645,49.3577],[6.9646,49.3567],[6.9663,49.3564],[6.9702,49.3559],[6.9719,49.3562],[6.9732,49.3571],[6.9747,49.3579],[6.9768,49.3586],[6.9782,49.3589],[6.9792,49.3582],[6.9807,49.3575],[6.9844,49.3582],[6.9858,49.3583],[6.9878,49.3583],[6.9901,49.3589],[6.992,49.3591],[6.9957,49.3585],[6.9974,49.3581],[7.0001,49.359],[7.0027,49.3589],[7.0045,49.3593],[7.0081,49.359],[7.01,49.359],[7.0135,49.359],[7.0161,49.3585],[7.0224,49.3588],[7.0203,49.355],[7.0139,49.3498],[7.0204,49.3497],[7.0214,49.3508],[7.0239,49.3503],[7.0243,49.3504],[7.0273,49.3489],[7.0279,49.3478],[7.0325,49.3482],[7.0356,49.3482],[7.0451,49.3501],[7.0447,49.3434],[7.0482,49.344],[7.05,49.345],[7.0513,49.3462],[7.0531,49.3451],[7.059,49.3431],[7.0606,49.3426],[7.0613,49.3421],[7.0612,49.3413],[7.061,49.3411],[7.0605,49.3403],[7.0602,49.3398],[7.0601,49.3391],[7.0602,49.3383],[7.0605,49.3373],[7.0608,49.3364],[7.061,49.3353],[7.0611,49.3341],[7.0612,49.3333],[7.0609,49.3324],[7.0605,49.3319],[7.0616,49.3311],[7.0622,49.3304],[7.0631,49.3298],[7.0646,49.3296],[7.0665,49.3288],[7.0703,49.3292],[7.0727,49.3336],[7.0737,49.3349],[7.0745,49.338],[7.0743,49.3389],[7.0737,49.341],[7.0731,49.342],[7.0731,49.3434],[7.0737,49.3442],[7.0767,49.3438],[7.0783,49.3436],[7.0802,49.3443],[7.0826,49.3455],[7.0865,49.3468],[7.0869,49.3449],[7.0877,49.3441],[7.089,49.3426],[7.0937,49.339],[7.095,49.3396],[7.0972,49.3409],[7.0979,49.3407],[7.0982,49.3406],[7.0988,49.3405],[7.0998,49.3407],[7.1006,49.3402],[7.0992,49.3392],[7.0996,49.3389],[7.1009,49.3379],[7.102,49.3378],[7.1031,49.339],[7.1049,49.3389],[7.1065,49.3388],[7.1091,49.3387],[7.1098,49.3387],[7.1102,49.338],[7.1107,49.337],[7.1136,49.3364],[7.1142,49.3363],[7.1142,49.334],[7.1137,49.334],[7.1116,49.3337],[7.1108,49.3335],[7.1094,49.3331],[7.1071,49.3324],[7.106,49.3319],[7.1067,49.3307],[7.1088,49.3287],[7.1119,49.3259],[7.1139,49.324],[7.1098,49.3215],[7.1091,49.3204],[7.1106,49.3171],[7.1069,49.3156],[7.1085,49.314],[7.1158,49.3127],[7.1167,49.3118],[7.1176,49.3111],[7.1174,49.3104],[7.1172,49.3099],[7.117,49.3095]]]},"properties":{"id":"DEC03","name":"Landkreis Neunkirchen","territoire":"Sarre","sigle":"SL","pays":"Allemagne","cx":7.155,"cy":49.366}},
{"type":"Feature","geometry":{"type":"Polygon","coordinates":[[[6.9443,49.3777],[6.9439,49.3779],[6.9437,49.3779],[6.9433,49.378],[6.943,49.3781],[6.9428,49.3783],[6.9425,49.3785],[6.9422,49.3788],[6.9421,49.3789],[6.9416,49.3791],[6.9411,49.3791],[6.9408,49.3793],[6.9406,49.3798],[6.9402,49.3803],[6.9399,49.3811],[6.9393,49.3817],[6.9389,49.3824],[6.9386,49.3832],[6.9385,49.3839],[6.9384,49.3845],[6.9382,49.3851],[6.9383,49.3861],[6.9386,49.3874],[6.9393,49.3884],[6.9382,49.3886],[6.936,49.3892],[6.9354,49.3898],[6.9358,49.3902],[6.9371,49.391],[6.9384,49.3918],[6.9387,49.3929],[6.9357,49.3948],[6.9339,49.3964],[6.9313,49.3977],[6.9285,49.3967],[6.9266,49.3965],[6.9248,49.3961],[6.9245,49.3988],[6.9249,49.3995],[6.9276,49.4005],[6.9298,49.4024],[6.9256,49.4042],[6.9246,49.4044],[6.9224,49.4064],[6.9216,49.4081],[6.9202,49.4086],[6.9197,49.4109],[6.9169,49.414],[6.9185,49.4143],[6.9197,49.4145],[6.9219,49.4151],[6.923,49.4159],[6.9237,49.4163],[6.9238,49.4172],[6.9238,49.4181],[6.9238,49.4189],[6.9236,49.4203],[6.9235,49.4212],[6.9236,49.4218],[6.9239,49.4219],[6.9314,49.4246],[6.9304,49.4268],[6.932,49.429],[6.9334,49.4269],[6.9345,49.427],[6.9366,49.4266],[6.9391,49.4259],[6.9409,49.4246],[6.9427,49.4243],[6.9431,49.4247],[6.9432,49.4248],[6.9432,49.4251],[6.9433,49.4254],[6.9435,49.4255],[6.9456,49.4252],[6.9491,49.4244],[6.9521,49.4242],[6.9548,49.4257],[6.9598,49.4272],[6.9594,49.4281],[6.9666,49.4321],[6.9733,49.4318],[6.9783,49.4342],[6.9893,49.4368],[6.9893,49.4381],[6.9892,49.439],[6.9874,49.4404],[6.9874,49.4414],[6.9875,49.4422],[6.9872,49.4434],[6.9867,49.4453],[6.9865,49.4469],[6.9864,49.4482],[6.9846,49.4499],[6.9814,49.4514],[6.9794,49.4514],[6.9781,49.4511],[6.9756,49.4506],[6.9748,49.4507],[6.9752,49.4509],[6.9756,49.4513],[6.9761,49.4518],[6.9767,49.4522],[6.9772,49.4527],[6.9762,49.4542],[6.9738,49.4585],[6.9719,49.4608],[6.9716,49.4616],[6.9725,49.4627],[6.9741,49.4643],[6.974,49.4654],[6.9737,49.466],[6.9756,49.4679],[6.9784,49.4692],[6.9782,49.4699],[6.9775,49.4702],[6.9759,49.4702],[6.9712,49.4692],[6.9701,49.4703],[6.9698,49.4731],[6.9722,49.4749],[6.9731,49.4757],[6.9728,49.4761],[6.9712,49.4768],[6.9688,49.4787],[6.9681,49.4802],[6.9715,49.4822],[6.9704,49.4843],[6.9696,49.4857],[6.9688,49.4863],[6.966,49.4865],[6.9633,49.4878],[6.9617,49.4874],[6.9605,49.4861],[6.956,49.4851],[6.9529,49.4822],[6.9488,49.4787],[6.9466,49.4764],[6.9457,49.4758],[6.9437,49.4744],[6.9408,49.4725],[6.9371,49.4725],[6.9359,49.4715],[6.934,49.4726],[6.9324,49.4726],[6.9292,49.4711],[6.9278,49.4703],[6.9251,49.4688],[6.9235,49.4693],[6.9224,49.4724],[6.9217,49.4728],[6.9193,49.4741],[6.9184,49.4747],[6.9166,49.4755],[6.9155,49.4765],[6.915,49.4781],[6.9125,49.4787],[6.9121,49.4801],[6.9108,49.4807],[6.9119,49.4814],[6.9126,49.4819],[6.9135,49.4827],[6.9144,49.4831],[6.9147,49.4832],[6.9148,49.4833],[6.9156,49.4834],[6.9168,49.4835],[6.917,49.4835],[6.9183,49.4836],[6.9193,49.4836],[6.9201,49.4838],[6.9204,49.484],[6.9205,49.4843],[6.9206,49.4849],[6.9209,49.4857],[6.9211,49.4863],[6.9213,49.4867],[6.9214,49.4868],[6.9217,49.487],[6.9223,49.4871],[6.9229,49.4873],[6.9238,49.4876],[6.9246,49.4878],[6.9253,49.4882],[6.9262,49.4884],[6.9232,49.4911],[6.9189,49.4926],[6.9183,49.4934],[6.9172,49.497],[6.9165,49.4981],[6.9102,49.5017],[6.9086,49.5001],[6.9068,49.4979],[6.9045,49.4963],[6.9034,49.4952],[6.9023,49.4945],[6.9015,49.4944],[6.9007,49.4942],[6.8997,49.4936],[6.899,49.493],[6.8987,49.4927],[6.8975,49.4919],[6.8957,49.4912],[6.8941,49.4907],[6.8926,49.4903],[6.8913,49.4897],[6.8902,49.489],[6.8893,49.4884],[6.8885,49.4879],[6.8866,49.4874],[6.8862,49.4868],[6.886,49.4866],[6.8852,49.4859],[6.8838,49.4854],[6.8822,49.4846],[6.8813,49.484],[6.8806,49.4835],[6.8797,49.4828],[6.8785,49.4821],[6.8781,49.4818],[6.875,49.4797],[6.8733,49.4793],[6.8725,49.4799],[6.8709,49.4804],[6.8656,49.4805],[6.8615,49.4808],[6.8572,49.4824],[6.8558,49.4827],[6.8534,49.4829],[6.852,49.4814],[6.8473,49.4793],[6.8455,49.4788],[6.8413,49.4766],[6.8413,49.475],[6.8392,49.4747],[6.8367,49.4755],[6.8359,49.4746],[6.8326,49.4737],[6.83,49.4734],[6.8296,49.4724],[6.8271,49.4709],[6.8231,49.47],[6.8211,49.469],[6.8184,49.4701],[6.8132,49.4726],[6.8136,49.473],[6.8124,49.4733],[6.8116,49.4731],[6.8105,49.4727],[6.8071,49.4711],[6.8057,49.4698],[6.8038,49.4666],[6.8018,49.4632],[6.8013,49.4623],[6.8003,49.4614],[6.798,49.46],[6.7975,49.4587],[6.7969,49.4575],[6.7988,49.4571],[6.7979,49.4555],[6.7972,49.4552],[6.7966,49.4543],[6.7971,49.454],[6.8009,49.4535],[6.8018,49.4519],[6.8023,49.451],[6.8019,49.4502],[6.7976,49.4492],[6.7956,49.4471],[6.7955,49.4464],[6.7951,49.4448],[6.7967,49.4436],[6.7971,49.4425],[6.7935,49.442],[6.7934,49.4408],[6.793,49.4393],[6.7907,49.4391],[6.7896,49.4368],[6.7861,49.4367],[6.7887,49.4357],[6.7921,49.4345],[6.7935,49.4339],[6.7947,49.4329],[6.7951,49.4326],[6.7953,49.4319],[6.7956,49.4308],[6.7952,49.4287],[6.7965,49.4272],[6.7962,49.4259],[6.796,49.4235],[6.7949,49.4203],[6.7955,49.4174],[6.7974,49.4166],[6.7987,49.4158],[6.7959,49.4136],[6.7953,49.4116],[6.7913,49.4081],[6.7872,49.4062],[6.7849,49.4053],[6.782,49.4042],[6.7784,49.4034],[6.7686,49.4027],[6.7652,49.4017],[6.7634,49.4019],[6.7582,49.3995],[6.7559,49.3978],[6.7543,49.3958],[6.7517,49.3948],[6.7501,49.3946],[6.7465,49.3952],[6.7435,49.3964],[6.7432,49.3962],[6.7423,49.3957],[6.7415,49.395],[6.7408,49.3942],[6.7395,49.3931],[6.7384,49.3923],[6.7376,49.392],[6.7369,49.3919],[6.7365,49.3915],[6.7358,49.3912],[6.7346,49.3907],[6.7338,49.3904],[6.7332,49.3902],[6.7329,49.3898],[6.7324,49.3895],[6.7315,49.3889],[6.7309,49.3885],[6.7305,49.3882],[6.7302,49.3879],[6.7299,49.3877],[6.7292,49.3874],[6.7282,49.3873],[6.7272,49.3871],[6.7263,49.3868],[6.7254,49.3867],[6.724,49.3864],[6.7231,49.386],[6.7228,49.3859],[6.7215,49.3853],[6.7202,49.3848],[6.7189,49.3844],[6.7177,49.3839],[6.7171,49.3837],[6.72,49.3818],[6.7173,49.3806],[6.717,49.3796],[6.7157,49.3787],[6.712,49.3775],[6.7081,49.3769],[6.7087,49.3752],[6.7075,49.3749],[6.7057,49.3744],[6.7009,49.3737],[6.7007,49.3724],[6.6973,49.3722],[6.6957,49.3722],[6.6953,49.3725],[6.6943,49.3731],[6.6936,49.3735],[6.6929,49.3746],[6.6932,49.3755],[6.6935,49.3766],[6.6943,49.3782],[6.6944,49.3799],[6.6941,49.3813],[6.6937,49.382],[6.6924,49.3825],[6.6907,49.383],[6.6878,49.3838],[6.6848,49.3845],[6.6824,49.3859],[6.6784,49.3871],[6.6762,49.388],[6.6746,49.3886],[6.6731,49.389],[6.6716,49.3893],[6.6709,49.3895],[6.6697,49.3905],[6.6685,49.3914],[6.6677,49.3923],[6.6667,49.3936],[6.6656,49.395],[6.6646,49.3962],[6.6645,49.3962],[6.6633,49.3975],[6.662,49.3989],[6.6599,49.4007],[6.6579,49.4024],[6.6562,49.4038],[6.6545,49.4051],[6.6527,49.4064],[6.651,49.4074],[6.6495,49.4081],[6.6477,49.4088],[6.646,49.4095],[6.6449,49.4099],[6.644,49.4103],[6.6426,49.4114],[6.6383,49.4093],[6.6357,49.4111],[6.6315,49.409],[6.6287,49.4099],[6.6249,49.408],[6.6235,49.4058],[6.6234,49.4047],[6.6214,49.4038],[6.6118,49.4026],[6.6096,49.4027],[6.6073,49.4019],[6.6057,49.4014],[6.6063,49.4002],[6.6055,49.4001],[6.6017,49.3991],[6.6008,49.3974],[6.5931,49.3989],[6.5924,49.3984],[6.5918,49.4001],[6.5896,49.3998],[6.5866,49.3991],[6.5844,49.3998],[6.5833,49.4001],[6.5839,49.4013],[6.5845,49.4027],[6.5814,49.4044],[6.5795,49.4064],[6.5795,49.4096],[6.577,49.4113],[6.5736,49.4153],[6.5727,49.4166],[6.5715,49.4181],[6.5695,49.4174],[6.566,49.416],[6.5649,49.4155],[6.5626,49.417],[6.561,49.4177],[6.5597,49.4182],[6.557,49.4192],[6.5566,49.4189],[6.5564,49.4188],[6.555,49.4185],[6.5544,49.4184],[6.5533,49.4177],[6.5528,49.4172],[6.5526,49.4169],[6.551,49.4173],[6.5509,49.4173],[6.5503,49.4172],[6.5493,49.4176],[6.5486,49.4178],[6.545,49.416],[6.5449,49.416],[6.5436,49.4149],[6.5425,49.4146],[6.543,49.414],[6.5404,49.4129],[6.5398,49.4122],[6.5397,49.4122],[6.5387,49.4122],[6.5386,49.4122],[6.5373,49.4094],[6.5374,49.4083],[6.5387,49.4057],[6.5385,49.4053],[6.5391,49.4042],[6.5392,49.404],[6.5408,49.4012],[6.5441,49.4021],[6.5468,49.4002],[6.5488,49.3998],[6.5514,49.4001],[6.5521,49.3999],[6.5514,49.3968],[6.5523,49.3942],[6.5572,49.3927],[6.5601,49.3925],[6.5636,49.3881],[6.5658,49.3883],[6.5751,49.3896],[6.5757,49.3896],[6.5768,49.3898],[6.5794,49.3878],[6.5802,49.3857],[6.5803,49.3855],[6.5808,49.3858],[6.5811,49.3859],[6.5812,49.3859],[6.5823,49.3859],[6.583,49.3857],[6.5837,49.3857],[6.5853,49.3858],[6.5855,49.3853],[6.5856,49.385],[6.5864,49.3851],[6.5867,49.3851],[6.5871,49.3847],[6.5873,49.3844],[6.5873,49.3843],[6.5875,49.3842],[6.5873,49.3838],[6.5875,49.3835],[6.5875,49.3832],[6.5876,49.3831],[6.5873,49.3829],[6.5871,49.3825],[6.5864,49.382],[6.5863,49.3818],[6.586,49.3814],[6.586,49.3807],[6.586,49.3802],[6.586,49.3798],[6.5861,49.3794],[6.586,49.3792],[6.5857,49.3786],[6.5854,49.378],[6.5852,49.3775],[6.5847,49.3767],[6.5844,49.3761],[6.5845,49.3755],[6.5845,49.375],[6.5845,49.3749],[6.5847,49.3747],[6.5845,49.3744],[6.5845,49.3742],[6.5843,49.3738],[6.5842,49.3734],[6.5848,49.3733],[6.5847,49.372],[6.5831,49.3684],[6.5852,49.369],[6.5945,49.3716],[6.5963,49.3707],[6.598,49.3699],[6.5982,49.3698],[6.5989,49.3692],[6.5996,49.3665],[6.6022,49.3671],[6.602,49.3669],[6.5998,49.3639],[6.5981,49.3615],[6.5975,49.3607],[6.5961,49.3604],[6.5958,49.3603],[6.5966,49.3593],[6.592,49.3582],[6.5926,49.3554],[6.5922,49.3553],[6.5902,49.3548],[6.5899,49.3538],[6.5895,49.3521],[6.5892,49.3517],[6.589,49.3514],[6.5897,49.3511],[6.5891,49.3506],[6.5889,49.3505],[6.5884,49.3499],[6.5881,49.3498],[6.5877,49.3497],[6.5868,49.3499],[6.5866,49.35],[6.5864,49.3501],[6.5859,49.3508],[6.5849,49.3513],[6.5851,49.3514],[6.5857,49.3517],[6.5856,49.3528],[6.5827,49.3554],[6.5816,49.3563],[6.5768,49.3569],[6.5753,49.3579],[6.5741,49.3587],[6.5725,49.3584],[6.5698,49.358],[6.5692,49.3579],[6.5665,49.3571],[6.5654,49.3563],[6.5636,49.3559],[6.5641,49.3552],[6.564,49.3546],[6.565,49.3534],[6.5649,49.3527],[6.5653,49.3522],[6.565,49.3494],[6.5657,49.3477],[6.5663,49.3469],[6.5664,49.3469],[6.5664,49.3468],[6.567,49.3461],[6.5708,49.3433],[6.5753,49.3418],[6.5757,49.3417],[6.5758,49.341],[6.5759,49.3404],[6.5765,49.3394],[6.5774,49.3388],[6.5784,49.3382],[6.5775,49.3374],[6.5774,49.3374],[6.5772,49.3363],[6.5784,49.335],[6.5785,49.335],[6.5795,49.3353],[6.5811,49.3343],[6.5827,49.3348],[6.5845,49.3363],[6.5859,49.3371],[6.587,49.3358],[6.5877,49.3351],[6.5907,49.3366],[6.5912,49.3362],[6.5915,49.3358],[6.5906,49.3352],[6.5897,49.3346],[6.5916,49.3337],[6.5931,49.3327],[6.5956,49.3301],[6.5946,49.3291],[6.5941,49.3286],[6.5944,49.3284],[6.5922,49.3266],[6.5894,49.3234],[6.59,49.3232],[6.5891,49.3221],[6.5925,49.319],[6.5944,49.3176],[6.6006,49.315],[6.6021,49.3141],[6.6027,49.3133],[6.6035,49.3129],[6.6048,49.3121],[6.6059,49.3104],[6.6094,49.3066],[6.6116,49.3058],[6.6125,49.3058],[6.6127,49.3055],[6.614,49.3037],[6.6151,49.3013],[6.6171,49.3019],[6.6172,49.3019],[6.6174,49.3026],[6.6174,49.3027],[6.6224,49.3031],[6.6249,49.3023],[6.6259,49.3015],[6.6271,49.2995],[6.6292,49.2982],[6.6303,49.2975],[6.6323,49.2974],[6.632,49.2958],[6.6323,49.2957],[6.6346,49.2955],[6.6361,49.295],[6.6365,49.2963],[6.6388,49.2957],[6.6432,49.2912],[6.6441,49.2898],[6.6454,49.29],[6.6464,49.2891],[6.6467,49.2888],[6.6481,49.288],[6.649,49.2882],[6.6504,49.2885],[6.6516,49.2872],[6.6517,49.2871],[6.6519,49.2869],[6.6511,49.2857],[6.6514,49.2857],[6.6518,49.2855],[6.6522,49.2835],[6.6534,49.2812],[6.6551,49.2813],[6.6552,49.2813],[6.6567,49.2819],[6.6601,49.2837],[6.661,49.2825],[6.6627,49.2818],[6.6629,49.2817],[6.6632,49.2819],[6.6635,49.282],[6.6675,49.2806],[6.6681,49.2803],[6.6687,49.2805],[6.6701,49.2803],[6.6678,49.2775],[6.6659,49.2769],[6.667,49.2744],[6.6673,49.273],[6.6676,49.2715],[6.6678,49.271],[6.6675,49.2704],[6.6671,49.2704],[6.6663,49.2678],[6.6634,49.2648],[6.6625,49.2637],[6.6604,49.2612],[6.661,49.2603],[6.6612,49.2596],[6.6614,49.2581],[6.6621,49.2575],[6.6643,49.2545],[6.6673,49.2546],[6.67,49.2551],[6.6704,49.2558],[6.6739,49.2566],[6.6756,49.2576],[6.6758,49.2571],[6.6761,49.2564],[6.6762,49.2563],[6.6766,49.2559],[6.6773,49.2554],[6.6788,49.2549],[6.6804,49.254],[6.6838,49.2534],[6.6836,49.253],[6.6852,49.252],[6.6853,49.2519],[6.6859,49.2508],[6.6861,49.2505],[6.688,49.2491],[6.6896,49.2495],[6.69,49.2496],[6.6907,49.2478],[6.6898,49.2476],[6.689,49.2469],[6.6888,49.2467],[6.6888,49.2462],[6.6886,49.246],[6.6877,49.2452],[6.6875,49.2447],[6.6857,49.2437],[6.6855,49.2436],[6.6852,49.2431],[6.685,49.2425],[6.6849,49.2419],[6.6852,49.2407],[6.6853,49.2406],[6.6855,49.2402],[6.6855,49.2401],[6.6856,49.2398],[6.6857,49.2397],[6.686,49.2395],[6.6872,49.2391],[6.6877,49.2388],[6.6886,49.2381],[6.689,49.2365],[6.6891,49.2363],[6.6895,49.2358],[6.6896,49.2354],[6.6896,49.2345],[6.6893,49.234],[6.6894,49.2323],[6.6895,49.2322],[6.69,49.2317],[6.6902,49.2315],[6.6904,49.2311],[6.6908,49.2301],[6.6897,49.2285],[6.6883,49.2246],[6.6882,49.2244],[6.6885,49.2228],[6.6886,49.2221],[6.6898,49.2203],[6.6958,49.2153],[6.6975,49.2154],[6.6984,49.2159],[6.699,49.2161],[6.702,49.2169],[6.7046,49.2165],[6.7052,49.2162],[6.7056,49.2162],[6.7063,49.2164],[6.7078,49.2169],[6.7079,49.2169],[6.7134,49.2186],[6.7147,49.2194],[6.7149,49.2196],[6.7196,49.2211],[6.7197,49.2211],[6.7198,49.2211],[6.7235,49.2188],[6.7249,49.22],[6.73,49.2231],[6.7327,49.2239],[6.734,49.2248],[6.7357,49.2265],[6.7376,49.227],[6.7407,49.2289],[6.7414,49.2273],[6.7417,49.2261],[6.7545,49.2244],[6.7598,49.2233],[6.7633,49.2237],[6.767,49.2229],[6.7727,49.2252],[6.7765,49.2255],[6.7796,49.2271],[6.7821,49.2281],[6.7847,49.2317],[6.7846,49.2325],[6.7884,49.2344],[6.7921,49.236],[6.7936,49.2357],[6.7937,49.2335],[6.7951,49.2332],[6.7957,49.2338],[6.7966,49.2338],[6.798,49.234],[6.7986,49.2346],[6.7993,49.2355],[6.7993,49.237],[6.7989,49.2376],[6.7983,49.2386],[6.7982,49.2396],[6.7992,49.2396],[6.8012,49.2394],[6.8036,49.2396],[6.8057,49.2397],[6.808,49.2402],[6.8106,49.2409],[6.8147,49.2449],[6.8189,49.2491],[6.8199,49.2507],[6.8235,49.256],[6.8332,49.2585],[6.8335,49.2563],[6.8349,49.2564],[6.8382,49.2565],[6.8387,49.2565],[6.8382,49.2572],[6.8286,49.2654],[6.8288,49.2656],[6.8295,49.2665],[6.8298,49.267],[6.8298,49.2678],[6.8291,49.2683],[6.8284,49.2686],[6.8238,49.2689],[6.8229,49.2689],[6.8215,49.2693],[6.8198,49.2697],[6.8216,49.2715],[6.8235,49.2735],[6.8251,49.2747],[6.8271,49.2747],[6.8283,49.2748],[6.8361,49.2735],[6.8371,49.2736],[6.8377,49.2736],[6.846,49.2719],[6.85,49.2725],[6.8522,49.2725],[6.8557,49.2721],[6.8582,49.2753],[6.8563,49.2764],[6.8563,49.2776],[6.8563,49.2785],[6.8552,49.2797],[6.8563,49.2815],[6.8587,49.2819],[6.8572,49.2835],[6.8569,49.2858],[6.8565,49.2871],[6.8606,49.2865],[6.862,49.2881],[6.865,49.2875],[6.8655,49.2887],[6.8669,49.2903],[6.8629,49.2919],[6.8613,49.2933],[6.8597,49.2947],[6.862,49.2959],[6.8627,49.2963],[6.8635,49.2959],[6.8653,49.295],[6.8669,49.2942],[6.8674,49.2927],[6.8677,49.2918],[6.8698,49.2931],[6.8709,49.2944],[6.873,49.2972],[6.8753,49.2985],[6.8772,49.2987],[6.8794,49.2986],[6.8809,49.3008],[6.8793,49.3041],[6.8765,49.3063],[6.8752,49.3086],[6.8756,49.3108],[6.878,49.3125],[6.8782,49.3133],[6.8829,49.3165],[6.8799,49.3192],[6.8795,49.3198],[6.8777,49.3214],[6.873,49.3257],[6.8749,49.3271],[6.8752,49.3273],[6.8773,49.3285],[6.8801,49.329],[6.8811,49.3298],[6.8822,49.3312],[6.88,49.3335],[6.8796,49.3356],[6.8786,49.3362],[6.8759,49.3375],[6.8721,49.3441],[6.8701,49.3443],[6.868,49.3438],[6.8627,49.3469],[6.8639,49.3482],[6.8656,49.3477],[6.8679,49.3466],[6.8701,49.3462],[6.8741,49.3461],[6.8765,49.3474],[6.877,49.3463],[6.8791,49.3467],[6.8814,49.3474],[6.8821,49.3478],[6.884,49.3499],[6.8892,49.3502],[6.8889,49.3509],[6.8907,49.3513],[6.8904,49.3521],[6.892,49.3523],[6.8967,49.3537],[6.9037,49.3554],[6.9062,49.3567],[6.909,49.358],[6.9082,49.359],[6.9073,49.36],[6.9089,49.3603],[6.909,49.3612],[6.912,49.3613],[6.9128,49.3604],[6.9146,49.3614],[6.9159,49.3629],[6.9183,49.3634],[6.9183,49.3643],[6.9185,49.3655],[6.9201,49.3656],[6.92,49.3661],[6.9217,49.3682],[6.9218,49.3682],[6.9259,49.3674],[6.9277,49.3667],[6.9313,49.3677],[6.9314,49.3691],[6.9315,49.3705],[6.9316,49.3721],[6.932,49.3754],[6.9352,49.3755],[6.9363,49.3726],[6.9378,49.3724],[6.9383,49.374],[6.9371,49.3767],[6.9399,49.3774],[6.9408,49.3763],[6.9443,49.3777]]]},"properties":{"id":"DEC04","name":"Landkreis Saarlouis","territoire":"Sarre","sigle":"SL","pays":"Allemagne","cx":6.779,"cy":49.329}},
{"type":"Feature","geometry":{"type":"Polygon","coordinates":[[[7.1011,49.156],[7.1023,49.1559],[7.1041,49.1558],[7.1061,49.1554],[7.1071,49.1547],[7.1072,49.1542],[7.1069,49.1536],[7.1069,49.1531],[7.1072,49.1527],[7.1072,49.1526],[7.1082,49.1525],[7.1116,49.1527],[7.1124,49.1526],[7.1127,49.1525],[7.1131,49.1524],[7.1132,49.152],[7.1129,49.1513],[7.1122,49.1505],[7.1117,49.1502],[7.1112,49.1499],[7.1063,49.1477],[7.1053,49.147],[7.1042,49.1461],[7.104,49.1459],[7.1036,49.1455],[7.1035,49.1452],[7.1031,49.1445],[7.103,49.1439],[7.1027,49.1417],[7.103,49.14],[7.1035,49.1389],[7.1041,49.1384],[7.1049,49.1384],[7.1052,49.1385],[7.1058,49.1386],[7.1069,49.1391],[7.1078,49.1394],[7.1134,49.1399],[7.1166,49.1401],[7.1167,49.1401],[7.118,49.1404],[7.1214,49.1417],[7.1224,49.1419],[7.1247,49.142],[7.1258,49.1419],[7.1263,49.1416],[7.1268,49.1405],[7.1275,49.1398],[7.1283,49.1396],[7.1287,49.1393],[7.1288,49.1392],[7.1292,49.137],[7.1301,49.136],[7.1314,49.1349],[7.1315,49.1346],[7.1317,49.1339],[7.1316,49.1322],[7.1316,49.1318],[7.1318,49.1315],[7.134,49.1308],[7.1358,49.1285],[7.136,49.1285],[7.1383,49.1284],[7.1403,49.128],[7.1423,49.1263],[7.1431,49.1259],[7.1493,49.1253],[7.1503,49.1251],[7.1507,49.125],[7.1511,49.1244],[7.1521,49.1242],[7.1542,49.123],[7.1546,49.1227],[7.1558,49.1214],[7.1587,49.1206],[7.1594,49.1205],[7.1598,49.121],[7.1603,49.1217],[7.1595,49.1222],[7.1603,49.123],[7.1616,49.1242],[7.1631,49.1265],[7.1634,49.1269],[7.1651,49.1286],[7.1652,49.1286],[7.1661,49.1289],[7.1678,49.1274],[7.1715,49.1282],[7.1718,49.1283],[7.174,49.1291],[7.1744,49.1292],[7.1767,49.1282],[7.1782,49.1286],[7.1774,49.1302],[7.1836,49.13],[7.1839,49.131],[7.184,49.1313],[7.1855,49.1312],[7.1856,49.1306],[7.1868,49.1288],[7.1871,49.1279],[7.1903,49.128],[7.1915,49.1264],[7.1913,49.1263],[7.1905,49.1259],[7.1905,49.1258],[7.1915,49.1251],[7.1934,49.1237],[7.1963,49.1217],[7.1963,49.1216],[7.1964,49.1208],[7.1965,49.1205],[7.1967,49.1203],[7.197,49.1197],[7.1972,49.1193],[7.1973,49.1189],[7.1973,49.1184],[7.1973,49.118],[7.1967,49.1171],[7.198,49.1152],[7.1981,49.1152],[7.1982,49.1152],[7.1983,49.1152],[7.1991,49.1154],[7.1999,49.1156],[7.2036,49.1203],[7.2037,49.1212],[7.2038,49.1224],[7.2038,49.1226],[7.2043,49.1229],[7.2048,49.1231],[7.2055,49.1236],[7.2056,49.1236],[7.2079,49.1236],[7.208,49.1236],[7.2085,49.1245],[7.2097,49.1245],[7.2112,49.1246],[7.213,49.1246],[7.2131,49.1246],[7.2155,49.1252],[7.2201,49.1252],[7.23,49.1264],[7.2333,49.1276],[7.2356,49.1287],[7.2361,49.1288],[7.2372,49.1289],[7.2387,49.1287],[7.2451,49.1301],[7.2453,49.1291],[7.2488,49.1274],[7.2491,49.1273],[7.2657,49.1227],[7.2665,49.1226],[7.2666,49.1228],[7.2667,49.1228],[7.2674,49.1238],[7.2703,49.1237],[7.271,49.124],[7.2716,49.1243],[7.2736,49.1242],[7.276,49.1232],[7.2776,49.1224],[7.2779,49.1224],[7.2783,49.1225],[7.2786,49.1227],[7.2795,49.1228],[7.2804,49.1229],[7.2816,49.1244],[7.2838,49.1234],[7.2836,49.1211],[7.2825,49.1183],[7.2824,49.1169],[7.2913,49.1156],[7.2932,49.1149],[7.2984,49.1173],[7.2996,49.1194],[7.3005,49.1203],[7.3015,49.1214],[7.3041,49.1232],[7.3041,49.1239],[7.3042,49.1242],[7.3056,49.1271],[7.306,49.1272],[7.3067,49.1274],[7.3076,49.1282],[7.3077,49.1284],[7.3083,49.1286],[7.3102,49.1294],[7.3105,49.1298],[7.3112,49.1305],[7.3112,49.1308],[7.3113,49.1318],[7.3128,49.1357],[7.3139,49.1372],[7.3155,49.1385],[7.3185,49.1399],[7.3201,49.1408],[7.321,49.1412],[7.3214,49.1414],[7.3246,49.1427],[7.3298,49.1448],[7.3414,49.1452],[7.3454,49.1432],[7.3564,49.1439],[7.3627,49.1431],[7.3619,49.1439],[7.3615,49.1445],[7.3615,49.1449],[7.3616,49.1451],[7.3628,49.1452],[7.363,49.1452],[7.3628,49.1456],[7.3627,49.147],[7.3625,49.1486],[7.3615,49.1521],[7.3613,49.1527],[7.3614,49.1532],[7.3614,49.1534],[7.3619,49.1546],[7.3624,49.1555],[7.3623,49.1559],[7.3623,49.156],[7.3626,49.1566],[7.3631,49.1572],[7.3666,49.1606],[7.3668,49.1607],[7.3671,49.1609],[7.3679,49.1611],[7.3684,49.1612],[7.3687,49.1614],[7.3688,49.1615],[7.3665,49.1619],[7.3658,49.1605],[7.3627,49.1584],[7.3622,49.1592],[7.3612,49.1613],[7.3541,49.1611],[7.3501,49.1628],[7.3487,49.1641],[7.3487,49.1652],[7.3475,49.1653],[7.3462,49.1671],[7.3458,49.1686],[7.346,49.1695],[7.345,49.17],[7.3452,49.1709],[7.3442,49.1712],[7.3431,49.173],[7.3382,49.174],[7.3359,49.1759],[7.3356,49.1775],[7.3354,49.1789],[7.3353,49.1806],[7.3362,49.1814],[7.3377,49.1833],[7.3385,49.1844],[7.3372,49.1852],[7.334,49.1862],[7.3318,49.1866],[7.3312,49.1872],[7.3268,49.1883],[7.3212,49.1885],[7.3203,49.1895],[7.32,49.1896],[7.3196,49.19],[7.3193,49.1905],[7.3183,49.191],[7.3172,49.1915],[7.3151,49.1931],[7.3115,49.1971],[7.3105,49.1981],[7.3057,49.201],[7.3048,49.2029],[7.3044,49.2046],[7.3035,49.2058],[7.298,49.204],[7.2965,49.2047],[7.2958,49.2053],[7.296,49.2067],[7.3,49.2084],[7.3013,49.2095],[7.2991,49.2105],[7.2984,49.2113],[7.2981,49.2132],[7.2983,49.214],[7.2994,49.2149],[7.3011,49.2158],[7.3014,49.2166],[7.3027,49.2165],[7.3031,49.2178],[7.302,49.2181],[7.3024,49.2198],[7.3025,49.222],[7.304,49.2221],[7.3029,49.2233],[7.2965,49.2261],[7.2943,49.2267],[7.289,49.2306],[7.2906,49.2313],[7.2925,49.2334],[7.2945,49.2347],[7.2893,49.2363],[7.2913,49.2373],[7.2891,49.2378],[7.2897,49.2387],[7.2921,49.2398],[7.2955,49.2402],[7.2968,49.2412],[7.3015,49.2436],[7.3035,49.2455],[7.3036,49.2466],[7.3029,49.251],[7.3048,49.2521],[7.3044,49.2532],[7.3072,49.2549],[7.3065,49.2561],[7.3095,49.2569],[7.3122,49.257],[7.3121,49.2551],[7.3127,49.2545],[7.3142,49.2537],[7.3159,49.2515],[7.3194,49.2498],[7.3226,49.2476],[7.3246,49.2481],[7.3269,49.2524],[7.3278,49.2546],[7.3249,49.2575],[7.3269,49.2587],[7.33,49.2604],[7.3308,49.2598],[7.3331,49.2611],[7.3364,49.2624],[7.3377,49.2631],[7.3391,49.2639],[7.3396,49.2649],[7.3419,49.2669],[7.3425,49.2685],[7.344,49.2704],[7.3443,49.2718],[7.3442,49.2734],[7.3435,49.2743],[7.3413,49.2741],[7.3397,49.2749],[7.3377,49.2757],[7.3358,49.2763],[7.335,49.2775],[7.3345,49.2783],[7.3367,49.279],[7.3382,49.28],[7.3415,49.2815],[7.3445,49.2818],[7.3464,49.2818],[7.3477,49.2811],[7.3498,49.2822],[7.3526,49.2829],[7.3558,49.2837],[7.355,49.2822],[7.36,49.2793],[7.3618,49.2788],[7.3638,49.2785],[7.3653,49.2781],[7.3659,49.2802],[7.3651,49.2815],[7.367,49.2831],[7.369,49.2827],[7.3717,49.2809],[7.3728,49.2818],[7.3747,49.2829],[7.3854,49.2941],[7.3828,49.2946],[7.38,49.2976],[7.3797,49.3008],[7.3794,49.3017],[7.3813,49.3037],[7.3805,49.3054],[7.3807,49.3067],[7.3828,49.308],[7.3835,49.3092],[7.384,49.31],[7.3875,49.3105],[7.3898,49.3097],[7.3919,49.3096],[7.3914,49.3104],[7.3899,49.3113],[7.3902,49.3122],[7.3944,49.3147],[7.3945,49.3164],[7.394,49.3172],[7.3932,49.3185],[7.3924,49.3207],[7.3901,49.3207],[7.3879,49.3207],[7.3855,49.3205],[7.3841,49.3195],[7.383,49.3189],[7.3823,49.3181],[7.3815,49.3176],[7.3808,49.3166],[7.3777,49.3187],[7.3777,49.3204],[7.3794,49.32],[7.3805,49.3207],[7.3818,49.3219],[7.384,49.3218],[7.3882,49.3249],[7.3928,49.3283],[7.3938,49.3295],[7.3933,49.3304],[7.3959,49.3323],[7.3969,49.3352],[7.3964,49.336],[7.4,49.3367],[7.4005,49.3377],[7.3995,49.3384],[7.3995,49.3396],[7.4026,49.3431],[7.4009,49.3432],[7.4009,49.3445],[7.4027,49.3448],[7.4038,49.3461],[7.4018,49.3473],[7.4011,49.3465],[7.3983,49.3479],[7.399,49.3491],[7.3987,49.3505],[7.3975,49.3505],[7.3962,49.3505],[7.3923,49.3502],[7.3899,49.3498],[7.3915,49.3523],[7.3909,49.3534],[7.3939,49.3541],[7.3967,49.3542],[7.3995,49.3541],[7.4026,49.3562],[7.4008,49.3577],[7.3978,49.3592],[7.3938,49.3621],[7.3934,49.3635],[7.3954,49.3647],[7.3998,49.3663],[7.4021,49.3677],[7.4013,49.3705],[7.4004,49.3712],[7.3998,49.3717],[7.398,49.3723],[7.3959,49.372],[7.3809,49.3667],[7.379,49.366],[7.3747,49.3651],[7.3733,49.3647],[7.3718,49.3642],[7.3699,49.3637],[7.3689,49.3635],[7.3669,49.3632],[7.3665,49.3644],[7.3667,49.3691],[7.3685,49.3699],[7.3691,49.374],[7.3656,49.3747],[7.3591,49.375],[7.3574,49.375],[7.3548,49.3744],[7.3558,49.3798],[7.3516,49.3805],[7.3461,49.3808],[7.3407,49.3808],[7.337,49.3805],[7.3346,49.3799],[7.3314,49.3789],[7.3294,49.3802],[7.3269,49.3803],[7.3233,49.3802],[7.3217,49.3809],[7.3178,49.3814],[7.316,49.3827],[7.3162,49.3843],[7.3131,49.3851],[7.303,49.3874],[7.3041,49.3888],[7.3019,49.3894],[7.2993,49.3894],[7.2995,49.3881],[7.2972,49.3883],[7.2968,49.3893],[7.2893,49.3888],[7.2894,49.3896],[7.2921,49.3928],[7.2897,49.3933],[7.2944,49.3959],[7.2989,49.3985],[7.2978,49.3989],[7.2942,49.401],[7.2972,49.4046],[7.2965,49.405],[7.2926,49.4082],[7.2922,49.4068],[7.2906,49.4064],[7.2893,49.4058],[7.2878,49.4045],[7.2865,49.4034],[7.2851,49.4024],[7.2836,49.402],[7.2821,49.402],[7.2791,49.4021],[7.2766,49.4022],[7.2753,49.4022],[7.2742,49.402],[7.2722,49.4009],[7.269,49.3986],[7.2661,49.3975],[7.264,49.3973],[7.2617,49.3971],[7.2587,49.3972],[7.2552,49.3974],[7.255,49.3968],[7.2546,49.3956],[7.2512,49.3919],[7.251,49.391],[7.2512,49.3909],[7.2528,49.3899],[7.2497,49.3889],[7.2492,49.3888],[7.2504,49.3863],[7.2507,49.3857],[7.2486,49.3855],[7.2463,49.3849],[7.2427,49.3845],[7.2404,49.3837],[7.239,49.3828],[7.2369,49.3797],[7.2347,49.3781],[7.233,49.3772],[7.2297,49.3754],[7.2282,49.3744],[7.2245,49.372],[7.2221,49.3703],[7.221,49.3694],[7.2205,49.3682],[7.2198,49.3669],[7.2198,49.3641],[7.2215,49.3638],[7.2224,49.3635],[7.2221,49.3629],[7.2222,49.3614],[7.2252,49.36],[7.2265,49.3608],[7.2298,49.3616],[7.233,49.362],[7.2342,49.3616],[7.2359,49.3612],[7.2374,49.3604],[7.238,49.3596],[7.2385,49.3586],[7.239,49.3579],[7.2391,49.3572],[7.2392,49.3568],[7.2399,49.3562],[7.2407,49.3554],[7.2424,49.3517],[7.2426,49.3486],[7.2412,49.3482],[7.2405,49.3482],[7.237,49.344],[7.236,49.3432],[7.2331,49.3413],[7.2335,49.3411],[7.2348,49.3406],[7.2355,49.3403],[7.2361,49.3401],[7.2364,49.3399],[7.2367,49.3397],[7.2369,49.3395],[7.2373,49.3391],[7.2377,49.3386],[7.2379,49.3383],[7.2381,49.3379],[7.2382,49.3366],[7.2382,49.3363],[7.2381,49.3361],[7.2376,49.3358],[7.2375,49.3358],[7.2372,49.3357],[7.237,49.3354],[7.237,49.3351],[7.2374,49.3346],[7.2376,49.3345],[7.2378,49.3345],[7.238,49.3345],[7.2384,49.3347],[7.2389,49.3349],[7.2394,49.335],[7.2396,49.335],[7.24,49.3348],[7.2402,49.3346],[7.2403,49.3342],[7.2402,49.3337],[7.2399,49.3332],[7.2398,49.3329],[7.2397,49.3327],[7.24,49.3325],[7.2401,49.3323],[7.2406,49.3321],[7.2407,49.3321],[7.2409,49.3322],[7.2411,49.3324],[7.2413,49.3326],[7.2414,49.3326],[7.2418,49.3327],[7.242,49.3325],[7.2423,49.3322],[7.2431,49.3319],[7.2437,49.3315],[7.2439,49.3313],[7.2439,49.3311],[7.2439,49.3309],[7.2437,49.3307],[7.2436,49.3304],[7.2436,49.3302],[7.2439,49.3301],[7.2443,49.33],[7.2449,49.33],[7.2457,49.33],[7.2464,49.33],[7.2472,49.33],[7.2494,49.3295],[7.2505,49.3293],[7.251,49.3291],[7.2512,49.3288],[7.2513,49.3286],[7.2515,49.3282],[7.2519,49.3279],[7.2523,49.3278],[7.2527,49.3277],[7.2531,49.3276],[7.2534,49.3275],[7.2538,49.3274],[7.2541,49.3272],[7.2543,49.327],[7.2544,49.3268],[7.2545,49.3267],[7.2547,49.3265],[7.2549,49.3264],[7.2553,49.3263],[7.2565,49.3263],[7.2574,49.3264],[7.2582,49.3268],[7.2583,49.3269],[7.2584,49.3269],[7.2586,49.3271],[7.2589,49.3272],[7.2589,49.3271],[7.2591,49.327],[7.2593,49.3268],[7.2598,49.3268],[7.2603,49.3267],[7.2605,49.3267],[7.261,49.3267],[7.2616,49.3269],[7.2622,49.327],[7.2626,49.3269],[7.2629,49.3268],[7.2631,49.3265],[7.2631,49.3261],[7.2629,49.3257],[7.2629,49.3254],[7.2629,49.3252],[7.2628,49.3249],[7.2628,49.3247],[7.2628,49.3245],[7.2631,49.3243],[7.2632,49.3243],[7.2635,49.3243],[7.2637,49.3243],[7.2639,49.3243],[7.2643,49.3244],[7.2648,49.3244],[7.265,49.3243],[7.2651,49.3241],[7.2652,49.324],[7.2652,49.3238],[7.2652,49.3237],[7.2653,49.3234],[7.2655,49.3233],[7.2658,49.3232],[7.2663,49.3232],[7.2667,49.3232],[7.2595,49.3179],[7.2579,49.3184],[7.2547,49.3194],[7.2545,49.3193],[7.2515,49.3197],[7.2504,49.3191],[7.2498,49.3187],[7.2469,49.3172],[7.2446,49.3156],[7.2417,49.3147],[7.2393,49.314],[7.2402,49.3135],[7.2443,49.3115],[7.2458,49.3107],[7.2459,49.3106],[7.2471,49.3097],[7.2472,49.3095],[7.2476,49.3084],[7.2476,49.3073],[7.246,49.3064],[7.2442,49.3055],[7.2405,49.3037],[7.2387,49.3029],[7.2366,49.3021],[7.2292,49.2996],[7.228,49.2993],[7.2084,49.2943],[7.189,49.2894],[7.1861,49.2886],[7.1829,49.2873],[7.1797,49.2918],[7.1832,49.2934],[7.1883,49.2966],[7.1871,49.2977],[7.1851,49.3],[7.1846,49.3007],[7.1845,49.3015],[7.1847,49.3024],[7.1857,49.3036],[7.1868,49.3049],[7.1874,49.3055],[7.187,49.3053],[7.1863,49.3051],[7.1843,49.3045],[7.1828,49.3042],[7.1781,49.3037],[7.1763,49.3038],[7.1743,49.3039],[7.1725,49.3039],[7.1717,49.304],[7.1703,49.3024],[7.1681,49.3015],[7.1664,49.3003],[7.1652,49.298],[7.1632,49.2968],[7.1618,49.2962],[7.1617,49.2977],[7.1587,49.2977],[7.1587,49.2989],[7.1581,49.2995],[7.1572,49.3],[7.1564,49.3006],[7.1558,49.3009],[7.1543,49.301],[7.1527,49.3012],[7.147,49.3012],[7.1403,49.3011],[7.1365,49.3025],[7.1354,49.3031],[7.1318,49.305],[7.1279,49.307],[7.1265,49.3076],[7.1241,49.3086],[7.1225,49.3093],[7.1212,49.3078],[7.117,49.3095],[7.1164,49.3088],[7.1158,49.3083],[7.1149,49.3079],[7.1137,49.3073],[7.1133,49.307],[7.1132,49.3069],[7.1124,49.3064],[7.1116,49.306],[7.1106,49.3058],[7.1079,49.3048],[7.106,49.3044],[7.1057,49.3043],[7.1057,49.3044],[7.1046,49.3043],[7.1034,49.3042],[7.1026,49.3042],[7.1025,49.3035],[7.1019,49.3034],[7.1002,49.3033],[7.0995,49.3029],[7.0991,49.3023],[7.0981,49.3016],[7.0971,49.302],[7.0975,49.3028],[7.0958,49.3037],[7.0945,49.3017],[7.0925,49.2999],[7.0938,49.2989],[7.0942,49.2983],[7.0929,49.297],[7.0893,49.296],[7.0876,49.2962],[7.0857,49.2967],[7.0855,49.2959],[7.0829,49.2948],[7.0839,49.2932],[7.0851,49.2912],[7.0856,49.2894],[7.0869,49.2876],[7.0857,49.285],[7.0854,49.2833],[7.0866,49.2822],[7.0854,49.2819],[7.0822,49.2816],[7.081,49.281],[7.0784,49.2807],[7.0801,49.2755],[7.0806,49.2744],[7.0779,49.2741],[7.0752,49.2745],[7.0731,49.2752],[7.069,49.2746],[7.0673,49.2732],[7.066,49.2716],[7.0647,49.2712],[7.0626,49.2714],[7.0621,49.2672],[7.0643,49.2636],[7.0627,49.2615],[7.0642,49.2607],[7.065,49.2596],[7.0673,49.258],[7.0684,49.2562],[7.0716,49.2573],[7.0763,49.2585],[7.0782,49.258],[7.0795,49.2575],[7.0814,49.2556],[7.0832,49.2556],[7.0823,49.2538],[7.0794,49.2498],[7.0856,49.2485],[7.0853,49.2475],[7.0864,49.2455],[7.0892,49.2462],[7.0923,49.2469],[7.0937,49.2478],[7.0947,49.2502],[7.0978,49.2518],[7.1003,49.2528],[7.1029,49.2543],[7.1078,49.2542],[7.1095,49.2566],[7.1102,49.2578],[7.1116,49.2577],[7.1117,49.2564],[7.1118,49.2555],[7.1128,49.2553],[7.1135,49.2552],[7.1141,49.2548],[7.1142,49.2545],[7.1142,49.254],[7.114,49.2536],[7.1136,49.2531],[7.1134,49.2529],[7.1134,49.2527],[7.1135,49.2525],[7.1139,49.2524],[7.1144,49.2523],[7.1166,49.2521],[7.1175,49.2518],[7.1179,49.2517],[7.1181,49.2516],[7.1183,49.2511],[7.1184,49.2506],[7.1186,49.2502],[7.1188,49.2498],[7.119,49.2496],[7.1196,49.2495],[7.1202,49.2494],[7.1209,49.2492],[7.1215,49.2491],[7.1221,49.2488],[7.1225,49.2486],[7.123,49.2482],[7.1234,49.2475],[7.1236,49.247],[7.1238,49.2465],[7.1246,49.2458],[7.1255,49.2453],[7.1264,49.2451],[7.1283,49.2452],[7.1288,49.245],[7.1291,49.2447],[7.1297,49.2446],[7.1303,49.2447],[7.1306,49.2444],[7.1305,49.2439],[7.1291,49.243],[7.1285,49.2427],[7.1293,49.2408],[7.1295,49.2403],[7.1292,49.2389],[7.1275,49.2334],[7.1263,49.2286],[7.1255,49.2271],[7.1241,49.2256],[7.1229,49.2235],[7.1225,49.2228],[7.1228,49.2221],[7.1234,49.2215],[7.124,49.2205],[7.1241,49.2196],[7.1245,49.2189],[7.1258,49.218],[7.1268,49.2164],[7.1275,49.2164],[7.1282,49.2164],[7.1293,49.2168],[7.1306,49.218],[7.1357,49.2174],[7.1363,49.2157],[7.1368,49.215],[7.1374,49.2138],[7.1354,49.2123],[7.1345,49.2116],[7.1309,49.2133],[7.1295,49.2122],[7.1287,49.2116],[7.1282,49.208],[7.1273,49.2066],[7.1243,49.2048],[7.1212,49.2031],[7.119,49.2012],[7.1183,49.1996],[7.1172,49.1981],[7.1168,49.1956],[7.119,49.1943],[7.1191,49.1936],[7.1186,49.1936],[7.1178,49.1935],[7.1169,49.1935],[7.1161,49.1934],[7.1153,49.1933],[7.1146,49.1931],[7.1139,49.1924],[7.1133,49.1919],[7.1128,49.1914],[7.1131,49.1908],[7.1127,49.1902],[7.1087,49.1892],[7.1094,49.1885],[7.1083,49.1877],[7.107,49.1883],[7.1062,49.1854],[7.107,49.1851],[7.1072,49.184],[7.1083,49.1834],[7.1089,49.1821],[7.1102,49.1799],[7.112,49.1762],[7.1121,49.1761],[7.1122,49.1761],[7.113,49.1764],[7.1137,49.1766],[7.1157,49.1774],[7.1185,49.1772],[7.1221,49.1765],[7.1246,49.1763],[7.1269,49.1769],[7.1285,49.1749],[7.1289,49.1739],[7.1293,49.1726],[7.1278,49.1714],[7.1255,49.1696],[7.1247,49.1695],[7.1227,49.1692],[7.1213,49.1697],[7.1194,49.1699],[7.1174,49.1686],[7.115,49.1672],[7.1099,49.1643],[7.1082,49.1639],[7.1058,49.1617],[7.1054,49.1607],[7.1047,49.159],[7.101,49.1582],[7.1011,49.156]]]},"properties":{"id":"DEC05","name":"Saarpfalz-Kreis","territoire":"Sarre","sigle":"SL","pays":"Allemagne","cx":7.219,"cy":49.224}},
{"type":"Feature","geometry":{"type":"Polygon","coordinates":[[[6.9102,49.5017],[6.9165,49.4981],[6.9172,49.497],[6.9183,49.4934],[6.9189,49.4926],[6.9232,49.4911],[6.9262,49.4884],[6.9253,49.4882],[6.9246,49.4878],[6.9238,49.4876],[6.9229,49.4873],[6.9223,49.4871],[6.9217,49.487],[6.9214,49.4868],[6.9213,49.4867],[6.9211,49.4863],[6.9209,49.4857],[6.9206,49.4849],[6.9205,49.4843],[6.9204,49.484],[6.9201,49.4838],[6.9193,49.4836],[6.9183,49.4836],[6.917,49.4835],[6.9168,49.4835],[6.9156,49.4834],[6.9148,49.4833],[6.9147,49.4832],[6.9144,49.4831],[6.9135,49.4827],[6.9126,49.4819],[6.9119,49.4814],[6.9108,49.4807],[6.9121,49.4801],[6.9125,49.4787],[6.915,49.4781],[6.9155,49.4765],[6.9166,49.4755],[6.9184,49.4747],[6.9193,49.4741],[6.9217,49.4728],[6.9224,49.4724],[6.9235,49.4693],[6.9251,49.4688],[6.9278,49.4703],[6.9292,49.4711],[6.9324,49.4726],[6.934,49.4726],[6.9359,49.4715],[6.9371,49.4725],[6.9408,49.4725],[6.9437,49.4744],[6.9457,49.4758],[6.9466,49.4764],[6.9488,49.4787],[6.9529,49.4822],[6.956,49.4851],[6.9605,49.4861],[6.9617,49.4874],[6.9633,49.4878],[6.966,49.4865],[6.9688,49.4863],[6.9696,49.4857],[6.9704,49.4843],[6.9715,49.4822],[6.9681,49.4802],[6.9688,49.4787],[6.9712,49.4768],[6.9728,49.4761],[6.9731,49.4757],[6.9722,49.4749],[6.9698,49.4731],[6.9701,49.4703],[6.9712,49.4692],[6.9759,49.4702],[6.9775,49.4702],[6.9782,49.4699],[6.9784,49.4692],[6.9756,49.4679],[6.9737,49.466],[6.974,49.4654],[6.9741,49.4643],[6.9725,49.4627],[6.9716,49.4616],[6.9719,49.4608],[6.9738,49.4585],[6.9762,49.4542],[6.9772,49.4527],[6.9767,49.4522],[6.9761,49.4518],[6.9756,49.4513],[6.9752,49.4509],[6.9748,49.4507],[6.9756,49.4506],[6.9781,49.4511],[6.9794,49.4514],[6.9814,49.4514],[6.9846,49.4499],[6.9864,49.4482],[6.9865,49.4469],[6.9867,49.4453],[6.9872,49.4434],[6.9875,49.4422],[6.9874,49.4414],[6.9874,49.4404],[6.9892,49.439],[6.9893,49.4381],[6.9893,49.4368],[6.9944,49.4378],[6.9973,49.4374],[6.9951,49.4354],[6.9958,49.4346],[6.9973,49.435],[6.9978,49.4342],[6.999,49.4343],[7.0017,49.4345],[7.0102,49.4332],[7.0101,49.432],[7.01,49.431],[7.0153,49.4303],[7.0154,49.4315],[7.0177,49.4308],[7.0169,49.4289],[7.0176,49.4273],[7.0193,49.4262],[7.0224,49.4263],[7.0243,49.424],[7.0294,49.4236],[7.0295,49.4228],[7.0324,49.4222],[7.0385,49.4232],[7.0398,49.4227],[7.041,49.4222],[7.0411,49.4243],[7.0444,49.4259],[7.0475,49.4265],[7.0489,49.4231],[7.0513,49.4213],[7.0528,49.4193],[7.0547,49.4163],[7.0566,49.4158],[7.0569,49.4121],[7.0586,49.4106],[7.0603,49.4092],[7.0698,49.4117],[7.0744,49.4114],[7.0815,49.4106],[7.0839,49.4114],[7.0839,49.4128],[7.0866,49.4127],[7.0888,49.4143],[7.0899,49.4147],[7.0919,49.4152],[7.0918,49.4171],[7.0916,49.4194],[7.0941,49.4219],[7.099,49.4213],[7.1012,49.42],[7.1027,49.4204],[7.1046,49.421],[7.1041,49.4221],[7.1069,49.4224],[7.107,49.4226],[7.1078,49.4239],[7.1051,49.4239],[7.1038,49.4242],[7.1033,49.4243],[7.1047,49.4257],[7.1058,49.4267],[7.1074,49.4283],[7.1101,49.4276],[7.1136,49.4273],[7.115,49.4267],[7.1187,49.429],[7.1205,49.4298],[7.1229,49.4294],[7.1243,49.4268],[7.128,49.4279],[7.1291,49.4305],[7.1312,49.4299],[7.1314,49.4295],[7.1303,49.4264],[7.1326,49.4253],[7.1338,49.4204],[7.1363,49.4193],[7.1394,49.4179],[7.1423,49.4172],[7.145,49.4166],[7.1472,49.4161],[7.149,49.4161],[7.1566,49.4186],[7.1628,49.4191],[7.1701,49.4233],[7.1793,49.4251],[7.1829,49.426],[7.185,49.4262],[7.1881,49.4266],[7.1906,49.4269],[7.1926,49.4271],[7.1933,49.4287],[7.1925,49.4304],[7.1943,49.4314],[7.1979,49.4332],[7.2051,49.434],[7.2068,49.4346],[7.2067,49.4373],[7.2059,49.4377],[7.2081,49.4413],[7.2098,49.4411],[7.2135,49.4394],[7.2154,49.4382],[7.2172,49.437],[7.2177,49.4365],[7.2189,49.4355],[7.2241,49.4309],[7.2269,49.429],[7.2277,49.4299],[7.2315,49.4297],[7.2317,49.4295],[7.2318,49.4293],[7.2319,49.4291],[7.2319,49.4289],[7.2319,49.4287],[7.232,49.4284],[7.2322,49.4283],[7.2326,49.4283],[7.2333,49.4284],[7.2336,49.4284],[7.2341,49.4283],[7.2347,49.4279],[7.235,49.4276],[7.235,49.4274],[7.235,49.4273],[7.2353,49.4274],[7.2392,49.4292],[7.241,49.4287],[7.2424,49.4293],[7.2436,49.4302],[7.2455,49.4298],[7.2483,49.4311],[7.2505,49.4308],[7.2526,49.4315],[7.2502,49.4352],[7.2538,49.4361],[7.2524,49.437],[7.2553,49.4406],[7.2536,49.4405],[7.2527,49.4419],[7.2498,49.4429],[7.2478,49.444],[7.2464,49.4455],[7.2502,49.447],[7.2527,49.448],[7.2581,49.4488],[7.2605,49.4494],[7.2642,49.4507],[7.2665,49.4515],[7.2682,49.4516],[7.2703,49.4512],[7.2735,49.4518],[7.2734,49.4528],[7.2733,49.4543],[7.2748,49.4557],[7.2775,49.4561],[7.2816,49.4569],[7.2869,49.4577],[7.2863,49.4601],[7.2897,49.4614],[7.2898,49.4623],[7.2976,49.4646],[7.2994,49.466],[7.3011,49.4667],[7.3006,49.4681],[7.3006,49.4689],[7.3014,49.4701],[7.3029,49.4714],[7.3048,49.4724],[7.3049,49.4742],[7.304,49.4756],[7.3012,49.4767],[7.2998,49.4788],[7.2968,49.4835],[7.2951,49.4833],[7.2928,49.4821],[7.2918,49.4826],[7.2909,49.4831],[7.2851,49.4832],[7.2827,49.4837],[7.2795,49.4837],[7.2781,49.4843],[7.2792,49.4846],[7.2819,49.486],[7.2798,49.4871],[7.2815,49.4885],[7.2823,49.491],[7.2828,49.4923],[7.2831,49.4955],[7.2834,49.4963],[7.2848,49.498],[7.2871,49.4991],[7.2868,49.5002],[7.2865,49.5009],[7.2856,49.5012],[7.2844,49.5015],[7.2833,49.5017],[7.2829,49.5016],[7.2827,49.5019],[7.283,49.5028],[7.2839,49.5038],[7.2846,49.5043],[7.2854,49.5047],[7.282,49.5058],[7.2825,49.5072],[7.2832,49.5085],[7.2828,49.5105],[7.2837,49.511],[7.2846,49.5114],[7.2857,49.5116],[7.2871,49.512],[7.2879,49.5123],[7.2893,49.5125],[7.289,49.513],[7.2876,49.5141],[7.2857,49.5169],[7.2869,49.5171],[7.2879,49.5186],[7.2895,49.5195],[7.2915,49.5201],[7.2928,49.5203],[7.2923,49.5216],[7.294,49.5221],[7.2971,49.5229],[7.2984,49.5211],[7.2988,49.5206],[7.3016,49.5216],[7.3024,49.5205],[7.301,49.52],[7.2988,49.5191],[7.2987,49.5179],[7.301,49.518],[7.3038,49.5188],[7.3078,49.52],[7.307,49.5215],[7.3099,49.5232],[7.3069,49.5261],[7.3028,49.5274],[7.3008,49.5303],[7.2997,49.5296],[7.299,49.5314],[7.3007,49.5331],[7.3024,49.534],[7.302,49.5348],[7.2997,49.5347],[7.2934,49.5346],[7.292,49.5346],[7.291,49.5346],[7.29,49.5346],[7.289,49.5348],[7.2851,49.5357],[7.2808,49.5368],[7.2798,49.5369],[7.2789,49.5369],[7.2781,49.5368],[7.2771,49.5368],[7.2764,49.5371],[7.2761,49.5374],[7.2761,49.5379],[7.2763,49.5383],[7.2765,49.539],[7.2765,49.5406],[7.2766,49.542],[7.2765,49.5432],[7.2763,49.5441],[7.2755,49.5451],[7.2756,49.5481],[7.2766,49.5486],[7.2747,49.5496],[7.2735,49.5521],[7.2735,49.5526],[7.2733,49.5548],[7.2743,49.5551],[7.274,49.5589],[7.2747,49.5599],[7.2749,49.5606],[7.2746,49.5611],[7.2731,49.5623],[7.2711,49.5623],[7.2692,49.5622],[7.2675,49.5639],[7.2692,49.565],[7.2677,49.5681],[7.266,49.5693],[7.2638,49.5706],[7.2624,49.5719],[7.2621,49.5736],[7.2622,49.5747],[7.2628,49.5759],[7.2642,49.5773],[7.2656,49.5786],[7.2662,49.5797],[7.2666,49.5808],[7.2673,49.5821],[7.268,49.5831],[7.2687,49.5841],[7.2671,49.5842],[7.2653,49.5843],[7.2636,49.5842],[7.2613,49.5832],[7.2603,49.5823],[7.2602,49.582],[7.2589,49.5785],[7.2575,49.5772],[7.2573,49.577],[7.2537,49.5754],[7.253,49.5745],[7.2526,49.574],[7.2514,49.5741],[7.2495,49.5744],[7.2454,49.5742],[7.2422,49.5739],[7.2408,49.5732],[7.2409,49.5718],[7.2419,49.571],[7.2408,49.569],[7.238,49.5686],[7.2359,49.568],[7.2344,49.5675],[7.2315,49.568],[7.2283,49.5656],[7.2244,49.5648],[7.2222,49.565],[7.219,49.5653],[7.2164,49.5656],[7.2134,49.5658],[7.2125,49.5664],[7.21,49.568],[7.2098,49.5682],[7.2104,49.5688],[7.2121,49.5711],[7.2128,49.5728],[7.214,49.5745],[7.2123,49.5755],[7.2108,49.5763],[7.21,49.5771],[7.2061,49.5775],[7.1999,49.5772],[7.1968,49.5778],[7.1954,49.5768],[7.193,49.5767],[7.1903,49.5771],[7.1884,49.5757],[7.1872,49.576],[7.1871,49.5789],[7.1867,49.5797],[7.1853,49.5802],[7.1843,49.5804],[7.1835,49.5808],[7.1821,49.5827],[7.1803,49.5833],[7.1754,49.5851],[7.1735,49.5851],[7.1723,49.5865],[7.1711,49.5879],[7.1728,49.588],[7.1736,49.5912],[7.1751,49.5946],[7.175,49.5978],[7.1737,49.5991],[7.1686,49.5971],[7.1654,49.5971],[7.1615,49.5985],[7.1555,49.6027],[7.1543,49.6032],[7.153,49.6035],[7.1517,49.6037],[7.1509,49.6037],[7.1493,49.6037],[7.1479,49.6035],[7.1471,49.6033],[7.1461,49.6029],[7.1457,49.6026],[7.1447,49.601],[7.1441,49.6],[7.1436,49.5995],[7.1428,49.5988],[7.1417,49.5983],[7.14,49.5977],[7.1387,49.5973],[7.136,49.5967],[7.1344,49.5964],[7.1329,49.5962],[7.1315,49.596],[7.1299,49.5959],[7.1247,49.5956],[7.1184,49.596],[7.1144,49.5977],[7.112,49.5971],[7.1102,49.5986],[7.1091,49.5985],[7.1081,49.5988],[7.1048,49.599],[7.1046,49.6011],[7.1035,49.6022],[7.1033,49.6044],[7.102,49.6056],[7.1002,49.6057],[7.0997,49.6048],[7.1006,49.6024],[7.0991,49.6027],[7.0973,49.6027],[7.0957,49.6034],[7.093,49.6036],[7.0918,49.6023],[7.089,49.5994],[7.0877,49.5996],[7.0869,49.6012],[7.087,49.6022],[7.0837,49.6032],[7.0847,49.605],[7.0831,49.6066],[7.0798,49.6113],[7.0796,49.6121],[7.0774,49.6135],[7.0762,49.6146],[7.0753,49.6154],[7.0729,49.6173],[7.0722,49.6181],[7.0683,49.6238],[7.0643,49.6267],[7.0629,49.6278],[7.0591,49.6305],[7.056,49.6315],[7.0521,49.632],[7.0506,49.6321],[7.0415,49.6348],[7.0309,49.6383],[7.028,49.6394],[7.0263,49.6385],[7.02,49.6329],[7.0171,49.631],[7.0124,49.6284],[7.0083,49.6295],[7.0052,49.6308],[7.003,49.6314],[7.001,49.6309],[7.0008,49.6306],[6.9998,49.6298],[6.9992,49.6293],[6.9981,49.6287],[6.9971,49.6283],[6.9961,49.6279],[6.995,49.6272],[6.9941,49.6263],[6.9935,49.6254],[6.9929,49.6245],[6.9922,49.6238],[6.9913,49.6235],[6.9901,49.6233],[6.9892,49.6229],[6.9884,49.6224],[6.9873,49.6217],[6.9866,49.6212],[6.986,49.6207],[6.9858,49.6221],[6.986,49.623],[6.9867,49.6238],[6.9877,49.6246],[6.9886,49.6252],[6.9888,49.6258],[6.9882,49.6276],[6.9877,49.6283],[6.9877,49.6291],[6.9881,49.6298],[6.9892,49.6306],[6.9902,49.6312],[6.9911,49.6319],[6.9918,49.6325],[6.9919,49.6335],[6.9916,49.6346],[6.9915,49.6355],[6.9897,49.6348],[6.9889,49.6329],[6.9875,49.6336],[6.9808,49.6329],[6.9777,49.6327],[6.979,49.6345],[6.9784,49.6359],[6.9751,49.6354],[6.9747,49.6339],[6.9723,49.6334],[6.9687,49.632],[6.9668,49.6304],[6.9643,49.6307],[6.9602,49.6291],[6.9588,49.6308],[6.9577,49.6298],[6.9565,49.6288],[6.955,49.6277],[6.9551,49.6266],[6.9514,49.6251],[6.9494,49.6261],[6.9492,49.6287],[6.948,49.632],[6.9486,49.6351],[6.9452,49.6359],[6.9409,49.6349],[6.9387,49.6339],[6.9328,49.631],[6.9332,49.6307],[6.9333,49.6303],[6.9331,49.6298],[6.9329,49.6294],[6.9329,49.6289],[6.9331,49.6285],[6.9338,49.628],[6.9344,49.6276],[6.9346,49.6275],[6.9354,49.6269],[6.9362,49.6263],[6.9368,49.6256],[6.937,49.6251],[6.9371,49.6245],[6.9369,49.6241],[6.9364,49.6236],[6.9354,49.6233],[6.9345,49.6232],[6.9341,49.623],[6.934,49.6221],[6.9342,49.6211],[6.9345,49.6201],[6.9351,49.6194],[6.9353,49.6192],[6.9368,49.6182],[6.9378,49.6177],[6.935,49.616],[6.9336,49.6167],[6.9277,49.6183],[6.9274,49.6173],[6.9284,49.6165],[6.9282,49.6153],[6.931,49.6145],[6.9296,49.6124],[6.9281,49.6126],[6.9262,49.6122],[6.9258,49.6136],[6.9248,49.615],[6.9232,49.6154],[6.9214,49.6167],[6.9184,49.6165],[6.9157,49.6166],[6.911,49.616],[6.9063,49.6141],[6.9022,49.6144],[6.8997,49.6146],[6.8965,49.6153],[6.8955,49.6158],[6.8931,49.6167],[6.8914,49.6163],[6.8904,49.6152],[6.8915,49.6134],[6.8921,49.6116],[6.8921,49.61],[6.8919,49.6088],[6.8926,49.6079],[6.8946,49.6048],[6.895,49.604],[6.8952,49.6034],[6.8941,49.6009],[6.8945,49.599],[6.895,49.5976],[6.9003,49.5945],[6.9055,49.5906],[6.9065,49.5926],[6.9069,49.5928],[6.9083,49.5935],[6.9099,49.5944],[6.9144,49.5952],[6.9182,49.5944],[6.9207,49.5952],[6.9235,49.596],[6.9238,49.5971],[6.9305,49.5974],[6.9332,49.5995],[6.9346,49.5994],[6.9363,49.5981],[6.9379,49.5978],[6.9406,49.5985],[6.9436,49.598],[6.9484,49.5963],[6.9535,49.5946],[6.9549,49.5962],[6.9567,49.5978],[6.9563,49.5944],[6.9552,49.5928],[6.9551,49.591],[6.9559,49.5896],[6.9557,49.5881],[6.9576,49.5868],[6.9584,49.586],[6.9555,49.5846],[6.9521,49.5828],[6.9546,49.582],[6.9559,49.5814],[6.9558,49.5804],[6.9558,49.5798],[6.9547,49.5777],[6.9522,49.5757],[6.9498,49.5739],[6.9499,49.5716],[6.9521,49.5717],[6.953,49.5705],[6.9503,49.5681],[6.9489,49.5668],[6.9489,49.5661],[6.9498,49.5656],[6.9517,49.5655],[6.9567,49.5655],[6.9568,49.5641],[6.9569,49.562],[6.9595,49.5625],[6.9612,49.5621],[6.9624,49.5609],[6.963,49.5594],[6.9616,49.559],[6.9607,49.557],[6.9583,49.5567],[6.9574,49.5562],[6.9577,49.5553],[6.9545,49.5536],[6.9562,49.5526],[6.9568,49.5512],[6.9567,49.547],[6.9581,49.5457],[6.9581,49.5438],[6.9581,49.5406],[6.9577,49.5382],[6.9571,49.5359],[6.955,49.5337],[6.9532,49.5331],[6.9553,49.5307],[6.9541,49.5305],[6.9553,49.5266],[6.9564,49.5251],[6.9562,49.5235],[6.9564,49.5225],[6.9547,49.5201],[6.9564,49.5171],[6.9564,49.5158],[6.9562,49.5146],[6.9563,49.5134],[6.9555,49.5118],[6.9552,49.5117],[6.9512,49.5115],[6.9469,49.5112],[6.9423,49.5095],[6.9402,49.5085],[6.9385,49.5074],[6.9381,49.5081],[6.9358,49.5077],[6.9359,49.5065],[6.9337,49.506],[6.9314,49.5053],[6.9304,49.506],[6.9289,49.5048],[6.9287,49.5036],[6.9252,49.505],[6.9244,49.5045],[6.9231,49.5038],[6.9211,49.5059],[6.9207,49.5064],[6.9197,49.5074],[6.9193,49.5079],[6.9185,49.5079],[6.9164,49.506],[6.9102,49.5017]]]},"properties":{"id":"DEC06","name":"Landkreis St. Wendel","territoire":"Sarre","sigle":"SL","pays":"Allemagne","cx":7.101,"cy":49.517}}
]}