{"type":"Topology","arcs":[[[56154,50376],[161,-327],[179,-229],[116,-144],[75,-92],[602,55],[50,-152],[180,-404],[-21,-363],[-150,-226],[64,-155],[-119,-194],[102,-166],[322,-531],[193,-503],[53,-4],[43,-2],[71,-278],[4,-69],[10,-200],[165,-44],[369,-98],[169,62],[121,173],[144,147],[202,127],[131,51],[97,-117],[145,-148],[353,148],[135,19],[186,1],[218,111],[182,40],[353,-116],[163,-81],[263,174],[247,-28],[168,86],[341,-59],[179,0],[336,1],[252,-92],[599,42],[-204,-711],[-604,-992],[616,-11],[102,214],[237,-105],[38,11],[280,-276],[62,-210],[434,75],[299,2],[907,363],[-42,-1271],[338,104],[175,206],[119,229],[177,-215],[563,-387],[150,-85],[67,-98],[-8,-153],[-22,-45],[-49,-140],[-30,-104],[-2,-125],[8,-155],[29,-186],[28,-172],[20,-207],[8,-227],[6,-163],[-24,-166],[-38,-84],[98,-166],[64,-117],[84,-124],[143,-35],[176,-162],[362,83],[236,837],[89,250],[82,577],[-20,183],[-62,384],[-57,193],[7,277],[56,138],[286,-73],[149,-39],[187,132],[226,236],[374,234],[40,-351],[68,-148],[124,-279],[452,-690],[129,121],[205,236],[67,-35],[25,-13],[64,-33],[97,53],[76,-108],[-138,-193],[38,-53],[128,-179],[102,-26],[102,236],[173,-22],[155,-16],[252,-26],[58,-7],[44,-122],[49,-191],[274,-115],[61,-26],[-5,-425],[-49,2],[-198,-72],[-76,-36],[-135,-65],[-215,-134],[-113,-104],[72,-221],[200,-384],[297,-527],[186,-354],[-391,-486],[-62,-202],[137,-632],[-353,-280],[161,-303],[697,-249],[79,-162],[88,-135],[-19,-138],[-21,-95],[-15,-69]],[[72637,37457],[-58,-133],[-63,-93],[-81,-86],[-110,-106],[-45,-64],[-9,-8],[-76,-100],[-76,-71],[-96,-40],[-260,-188],[-173,-85],[-37,-16],[-1,10],[-100,-16],[-111,-7],[-77,-13],[-8,-128],[-60,-9],[-160,-29],[-75,-74],[-30,-109],[-102,-141],[-95,84],[44,152],[-170,167],[-120,-386],[-191,-328],[121,-194],[43,-120],[-124,-250],[-345,-180],[-165,26],[-181,112],[-20,-168],[-244,-196],[92,-302],[116,-380],[50,-342],[121,-337],[-115,-492],[-24,-323],[109,-220],[-116,-56],[-300,-58],[-118,-103],[-245,-69],[161,-979],[49,-214],[-256,-47],[-263,79],[-198,114],[-393,-109],[-158,-253],[-123,-319],[-129,-62],[-200,36],[-45,-792],[214,-688],[-158,-396],[143,-150],[73,-221],[222,-300],[106,-337],[310,200],[441,233],[183,-100],[128,-95],[181,-344],[170,0],[-87,-341],[-274,-771],[591,-239],[-31,-187],[103,-386],[274,125],[294,133],[128,182],[100,460],[298,293],[232,195],[248,277],[473,-22],[162,455],[64,231],[131,-13],[15,-243],[12,-170],[87,-39],[67,-29],[61,-63],[11,-74],[-5,-91],[-12,-72],[-44,-93],[-18,-44],[1,-38],[13,-36],[39,-7],[40,-23],[213,-52],[84,-39],[41,-28],[23,-26],[11,-85],[17,-93],[11,-86],[20,-64],[26,-39],[56,-30],[60,-16],[64,-29],[60,-22],[57,-51],[31,-41],[50,-81],[42,-137],[20,-98],[12,-93],[79,-125],[88,-106],[88,-29],[174,19],[50,-29],[33,-67],[55,-8],[58,15],[25,-62],[-3,-90],[-140,-171],[-52,-63],[68,-361],[20,-87],[-25,-275],[-160,-1044],[-119,-902],[-75,-296],[-132,-284],[-119,-393],[-38,-137],[34,-123],[59,-121],[57,-181],[6,-167],[38,-134],[126,-172],[94,-308],[65,4],[64,3],[105,72],[133,224],[478,-108],[61,-319],[45,-149],[62,-220],[-190,-282],[-91,-137],[-345,334],[-127,-215],[-74,-125],[-54,-679],[-80,-262],[-295,-339],[-292,-326],[-208,-349],[-64,-313],[-110,-288],[-34,-461],[206,-251],[15,-144],[-50,2],[-82,-5],[-80,-10],[-78,-22],[-78,-14],[-61,-38],[-73,-126],[-61,-104],[-47,-83],[29,-121],[-32,-112],[-382,-192],[63,-137],[-100,-145],[-131,120],[-72,-550],[77,-67],[20,-204],[102,-113],[62,-254],[116,-408],[180,-704],[5,-22],[10,7],[73,47],[72,47],[190,141],[264,-42],[347,-121],[234,-49],[226,121],[153,-387],[30,-176],[43,-248],[-148,-234],[-211,-335],[-82,-23],[-193,-55],[-127,95],[-183,40],[-194,-256],[-229,-251],[-487,-555],[-156,-76],[-234,-413],[-38,-193],[-65,-329],[-357,-153],[10,-412]],[[71115,8354],[0,0],[-188,-74],[-97,-82],[-16,-21],[-87,-115],[-119,-255],[-8,-18],[-82,-59],[-185,-44],[-127,-62],[-123,-40],[-270,-5],[-93,21],[-74,104],[-37,101],[-81,49],[-86,-18],[-25,-5],[-72,-91],[-32,-132],[-53,-393],[-32,-143],[0,0],[0,-21],[2,-147],[13,-143],[7,-67],[7,-36],[28,-136],[36,-73],[26,-53],[166,-201],[0,0],[1,-141],[-18,-33],[-53,-100],[-15,-30],[-92,-114],[-33,-105],[5,-24],[19,-77],[153,-213],[0,0],[13,-129],[42,-128],[426,-863],[28,-68],[40,-96],[38,-122],[6,-122],[5,-83],[-7,-147],[-70,-140],[-165,-151],[-219,-159],[-340,-151],[-253,-132],[-183,-95],[0,0],[-215,-143],[-1,0],[-144,-133],[-156,-144],[-1,-2],[-58,-91],[-17,-27],[-23,-164],[0,0],[-46,-111],[-61,-104],[-45,-76],[-59,-193],[-15,-173],[-6,-67],[1,-117],[0,-131],[4,-103],[-5,-81],[0,-1],[-63,-279],[0,-1],[-14,-32],[-7,-15],[-1,-2],[-54,-94],[-26,-45],[-3,-4],[-1,-1],[-42,-21],[-569,-292],[0,0],[-285,-125],[-1,0],[0,0],[-105,5],[-1,0],[-100,25],[-247,127],[-70,53],[-112,134],[-233,286],[-91,137],[-100,232],[-106,290],[-37,126],[-35,151],[-3,53],[-3,53],[25,718],[77,769],[23,246],[-1,319],[24,183],[98,463],[7,78],[-7,107],[0,133],[-23,128],[-85,353],[-175,543],[-84,300],[-111,442],[-77,248],[-30,68],[-27,40],[-135,166],[-13,16],[0,0],[0,0],[-38,96],[-5,18],[-44,157],[-14,48],[-1,4],[-1,0],[-24,68],[-20,47],[-114,223],[-63,114],[-17,32],[-96,182],[-51,79],[-1,0],[-30,63],[-14,37],[-22,68],[-66,226],[-22,143],[-5,135],[-8,113],[10,118],[20,109],[11,50],[83,324],[-3,135],[-9,105],[-4,114],[-8,34],[-5,64],[-8,24],[-56,84],[-4,6],[-9,12],[-93,139],[-78,104],[-64,91],[-55,105],[-30,88],[-17,48],[-22,117],[-57,317],[-8,131],[11,145],[15,219],[43,504],[2,20],[6,38],[1,4],[9,30],[15,39],[6,10],[51,90],[5,9],[6,11],[0,0],[0,0],[241,491],[112,313],[28,126],[29,130],[-18,718],[-30,365],[167,642],[-11,-2],[-18,-4],[-173,-31],[-189,-33],[-214,-39],[-9,12],[-53,66],[-4,-5],[-49,-60],[-1,0],[-136,-174],[-151,-77],[-122,-63],[-128,211],[8,378],[-49,157],[-24,-10],[-53,-20],[-159,-63],[-318,-270],[-81,-208],[-1,-1],[-12,-30],[-99,-239],[-8,-20],[-194,-99],[-63,-33],[-33,213],[-12,78],[-132,851],[-899,93],[-223,607],[-436,598],[-1655,1636],[-3,0],[-248,11],[-163,-160],[-66,-63],[-1011,-994],[-243,202],[-131,114],[-143,182],[-59,74],[-12,16],[-225,291],[-186,339],[-234,427],[-168,307],[-53,84],[-33,54],[-395,487],[-46,297],[-123,794],[-910,-65],[-73,52],[-96,68],[-166,117],[-51,-30],[-174,-100],[-181,5],[-28,1],[-121,4],[-51,1],[-4,-6],[-16,-24],[6,-39],[10,-69],[-30,-57],[40,-330],[-69,-108],[-167,-259],[-455,-560],[-29,-14],[-182,-86],[-226,-9],[-98,-4],[-37,-2],[-478,-150],[-424,-455],[-140,-216],[-25,-37],[-98,-150],[-455,256],[-329,184],[-975,547],[-165,92],[-34,35],[-105,108],[-2,6],[-95,372],[-25,234],[-245,98],[-142,109],[-165,181],[-167,264],[-384,96],[-10,-5],[-140,-78],[-447,-500],[-119,-60],[-17,-9],[-20,-57],[-6,-19],[-49,-52],[-215,-227],[-240,-229],[-133,-79],[-23,-14],[-50,-30],[-506,-384],[-17,-13],[0,0],[-42,-114],[-61,-124],[-59,-185],[0,0],[0,0],[129,-134],[15,-16],[19,-5],[106,-39],[2,-1],[86,-64],[0,0],[1,-1],[58,-84],[9,-13],[34,-30],[13,-8],[44,-26],[53,-32],[0,0],[3,-2],[21,-43],[0,-1],[13,-60],[13,-67],[6,-26],[0,0],[5,-26],[9,-15],[156,-256],[2,-2],[97,-166],[11,-10],[44,-38],[0,0],[96,-57],[19,-26],[94,-260],[4,-10],[29,-60],[4,-8],[3,-2],[59,-49],[83,-70],[16,-27],[2,-8],[9,-75],[2,-4],[1,-22],[8,-15],[14,-25],[84,-156],[0,0],[0,0],[38,-94],[1,-1],[1,-5],[20,-94],[1,-3],[0,-1],[5,-87],[0,-25],[-27,-142],[-38,-89],[-14,-23],[-30,0],[-35,-25],[-12,-24],[-13,-78],[-8,-159],[13,-345],[1,-29],[-19,-76],[0,-13],[0,-12],[1,-28],[12,-24],[40,-10],[41,-72],[134,-236],[102,-180],[14,-24],[57,-122],[25,-64],[2,-63],[8,-30],[0,-9],[2,-2],[8,-11],[4,-6],[108,-50],[11,-32],[1,-45],[2,-29],[-4,-40],[-1,-14],[10,-29],[6,-16],[52,-68],[7,-10],[17,-11],[2,0],[40,1],[19,-3],[25,-35],[18,-100],[32,-178],[0,0],[12,-78],[32,-55],[9,-32],[1,-2],[3,-61],[6,-92],[2,-33],[15,-17],[15,-26],[43,-42],[40,-43],[38,-74],[27,-71],[12,-58],[-4,-49],[-36,-156],[0,-5],[-6,-73],[12,-77],[0,0],[0,0],[23,-83],[16,-53],[15,-62],[-44,0],[-3,0],[-3,-8],[-15,-34],[-2,-13],[-30,-151],[-26,-64],[-14,-11],[-72,33],[-29,-3],[-2,-40],[27,-140],[4,-40],[-18,-60],[-16,-57],[-9,-86],[-12,-127],[-71,17],[-78,19],[-175,44],[-92,-56],[-82,-49],[-698,-211],[-209,-63],[49,-411],[0,-1],[57,-476],[-24,-75],[-34,-110],[-26,-642],[128,-706],[15,-85],[3,-17],[142,-487],[-270,-247],[-43,-38],[-33,-30],[-696,-621],[-194,-173],[-49,-44],[-628,382],[-284,202],[-330,382],[-331,240],[-21,15],[-43,32],[-647,89],[-59,8],[-138,78],[-1,1],[-222,321],[-138,100],[-64,46],[-16,31],[-50,145],[-524,182],[-24,-2],[-97,0],[-100,4],[-35,11],[-59,30],[-212,218],[-184,362],[-12,25],[-188,103],[-16,-50],[-39,24],[-194,155],[-87,51],[-4,18],[-138,30],[-13,5],[-109,21],[-140,30],[-5,-3],[-3,1],[-71,-28],[-79,-37],[-157,-85],[-202,-16],[-71,-5],[-23,-2],[-98,-77],[-44,-33],[-361,-155],[-438,-187],[-13,-5],[-75,-20],[-97,-26],[-78,-20],[-748,326],[-331,46],[-186,-127],[-203,-138],[-324,-151],[-374,-174],[-247,295],[20,64],[-591,712],[-34,78],[-253,555],[-100,84],[-5,4],[-10,8],[-504,422],[-102,287],[-768,2182],[1143,1979],[528,814],[249,523],[11,23],[0,0],[-552,1596],[-37,147],[-172,698]],[[35084,20265],[137,220],[483,586],[257,164],[124,167],[168,322],[182,97],[295,344],[62,-299],[28,-226],[1230,-322],[501,-199],[337,73],[350,-161],[548,444],[361,60],[297,296],[235,198],[244,684],[-3,146],[361,349],[352,308],[144,-49],[8,-428],[132,-49],[58,104],[85,13],[132,29],[59,118],[65,180],[1,281],[-32,107],[-63,190],[-7,189],[97,2],[193,-34],[221,25],[203,30],[225,100],[245,130],[389,753],[401,801],[98,306],[341,991],[928,476],[32,-406],[125,8],[319,15],[52,4],[-56,136],[-909,1563],[12,37],[67,170],[35,96],[0,136],[-66,102],[-75,57],[-434,58],[-84,-8],[-133,81],[-167,80],[172,346],[183,367],[154,227],[189,14],[117,9],[747,-245],[95,18],[55,10],[790,-328],[379,117],[213,-8],[331,-73],[239,610],[-177,202],[-3,239],[-1,158],[-101,224],[104,340],[225,83],[-137,298],[-27,441],[-40,241],[389,-108],[134,304],[283,-106],[46,211],[137,321],[-377,290],[-158,270],[-150,258],[217,228],[71,74],[69,-64],[175,-173],[154,-145],[48,-284],[29,-177],[199,251],[103,244],[206,529],[220,253],[181,31],[206,-23],[139,417],[-148,626],[-269,425],[-120,426],[34,423],[230,324],[23,154],[446,609],[-289,503],[-34,106],[-173,317],[-445,803],[179,277],[22,26],[202,236],[271,88],[97,166],[104,260],[-215,423],[-31,410],[-96,109],[-266,240],[-361,1265],[-185,26],[-207,-97],[-501,601],[113,242],[164,-94],[216,-213],[214,-67],[384,-25],[226,256],[49,-224],[195,86],[225,139],[60,75],[188,389],[495,61],[-27,125],[168,79],[-30,146],[153,49],[448,268],[672,321],[241,235],[266,260],[-80,184],[-84,188],[153,56],[11,171],[284,11],[76,-166],[174,197],[119,285],[228,94],[7,175],[17,211],[153,19],[-7,94],[159,401],[12,8],[385,-157],[172,-131],[347,188],[6,268],[14,266],[4,295],[44,631],[306,23],[98,-554],[143,-27],[51,297],[-111,512],[264,123],[84,-203],[335,262]],[[52900,73889],[-150,-310],[-172,-417],[-220,-296],[-109,-219],[-105,-121],[-73,-30],[-75,-32],[-100,-116],[-59,-111],[-31,-57],[-111,-154],[-175,-130],[-152,-102],[-145,-62],[-120,-127],[-108,-132],[-88,-113],[-80,-80],[-173,-105],[-42,-110],[-15,-41],[-82,-140],[-135,-90],[-149,-151],[-84,-105],[-67,-100],[-88,-130],[-113,-144],[-40,-50],[-298,-393],[-160,-80],[-79,119],[-155,83],[-499,24],[-392,59],[-411,311],[-134,41],[-225,54],[-140,-292],[-449,-391],[-171,-110],[-397,-419],[-1,-293],[-201,-61],[-240,152],[-77,-169],[-316,-178],[-245,-53],[-35,-192],[-239,-283],[-388,-169],[-189,-191],[-259,222],[-490,472],[32,67],[-113,61],[-72,-41],[-109,-82],[-321,-299],[-132,-239],[-183,-617],[-190,-637],[-52,-178],[-92,-158],[-222,-279],[-42,-245],[-65,-213],[183,-78],[-87,-303],[-61,-72],[-65,-153],[51,-68],[367,-96],[81,-293],[46,-172],[-35,-150],[-409,-196],[-189,-400],[-14,-128],[-34,-312],[149,-214],[36,-208],[-342,-97],[-6,-240],[-38,-274],[-221,-47],[-106,-440],[-334,-7],[249,-192],[325,-226],[129,-115],[121,-192],[32,-52],[22,-145],[30,-200],[-44,-400],[130,-285],[-33,-235],[-19,-466],[-99,-599],[59,-561],[178,-144],[122,-146],[-262,-425],[-65,-382],[-382,-653],[-385,-372],[-219,-166],[-276,-210],[-347,-141],[-938,-147],[-321,-188],[-174,39],[-498,-443],[-217,-332],[-156,-369],[-242,-190],[-155,-50],[-339,108],[-287,233],[-33,-29],[-86,-95],[-75,-136],[-67,-150],[-120,-214],[-106,-151],[-78,-49],[-65,-34],[-39,-64],[-65,-65],[-116,-88],[-76,-52],[-57,-46],[-36,-66],[-44,-69],[-83,-105],[-64,-83],[-36,-60],[-27,-50],[-29,-37],[-70,-58],[-96,-29],[-88,-38],[-93,-50],[-82,-23],[-132,-48],[-92,-83],[-27,-21],[-123,-105],[-119,-88],[-124,-94],[-114,-83],[-60,-45],[276,-350],[-262,-243],[-22,-176],[-123,-182],[-358,-225],[-372,-112],[58,-316],[-109,-57],[-174,-90],[-461,-132],[-20,-260],[-326,-34],[-155,6],[-36,46],[-90,112],[-70,87],[-63,211],[21,172],[30,199],[82,297],[8,323],[-29,272],[-36,132],[-128,102],[-157,87],[-281,154],[-290,137],[-228,257],[-378,234],[-212,168],[-155,123],[-137,64],[-143,59],[-70,34],[-114,194],[-111,173],[-78,166],[-94,246],[-107,261],[-97,231],[-5,11],[-116,238],[-131,270],[-191,334],[-192,328],[-167,272],[-165,228],[-169,250],[-159,196],[-150,140],[-164,117],[-169,134],[-106,85],[-82,74],[-132,200],[-408,-399],[-253,343],[-400,-398],[-265,186],[-361,-369],[-133,-420],[-13,-209],[-188,-171],[-915,-216],[-212,8],[-224,-146],[-153,-100],[58,-227],[-73,-24],[-359,-173],[-95,-331],[-725,290],[-76,-109],[-52,331],[-214,-56],[-286,-127],[-205,120],[-110,63],[56,221],[57,271],[-292,327],[-183,381],[-1,610],[-233,318],[-327,745],[-84,257],[-119,274],[-183,-120],[-340,-278],[-105,-86],[-218,287],[-148,120],[-126,101],[-262,194]],[[19198,58250],[38,61],[-26,54],[-112,227],[-167,-171],[-38,55],[-118,168],[-68,337],[23,151],[5,29],[-91,187],[-35,72],[-194,248],[-117,150],[-98,125],[-367,468],[-67,126],[-31,59],[5,172],[0,0],[-118,126],[-101,108],[0,0],[0,0],[-138,-178],[-255,254],[-18,19],[-80,257],[-498,-28],[-408,18],[-162,236],[-98,42],[-301,346],[-110,29],[-332,323],[-459,811],[-157,176],[0,0],[0,0],[-805,853],[0,0],[-93,11],[-145,18],[-42,5],[-157,19],[-143,59],[-134,55],[-334,42],[-200,26],[-80,96],[-56,67],[-9,11],[-11,13],[-300,341],[0,0],[-380,709],[-437,487],[-144,161],[0,0],[-262,551],[-292,44],[-98,316],[0,0],[0,0],[-73,-106],[-102,-148],[-679,-446],[-145,215],[-233,84],[-83,276],[-540,283],[-193,183],[-247,-277],[-236,274],[-204,290],[-247,395],[128,173],[-531,675],[-159,36],[-95,-118],[-21,-26],[-18,-21],[-536,163],[-225,-411],[-74,-210],[-257,-408],[-113,-85],[-103,-78],[-375,-448],[-72,-61],[-51,-43],[-36,-31],[-302,-216],[-120,110],[-224,-149],[-327,-218],[-69,-22],[-107,-35],[-125,-40],[-135,14],[-50,5],[-230,43],[-256,186],[-572,150],[-45,12],[0,0],[34,-195],[-65,-128],[-359,-60],[-22,-3],[-55,-10],[-9,37],[-89,351],[-163,5],[0,0],[4,84],[-35,8],[-55,14],[-2,0],[0,0],[5,352],[-170,72],[-19,7],[-12,5],[-118,48],[-32,13],[0,7],[-100,35],[56,531],[2,683],[0,1101],[46,574],[89,720],[-37,350],[-125,433],[-33,186],[-5,480],[16,531],[48,456],[15,241],[-12,212],[0,0],[0,0],[-14,78],[-8,39],[-18,107],[-24,167],[-24,135],[-2,15],[-4,51],[-7,56],[-10,64],[-9,52],[0,0],[0,0],[-454,1780],[-244,1034],[-155,809],[-106,409],[-20,196],[18,220],[25,109],[198,482],[199,416],[115,171],[459,533],[339,695],[282,375],[387,507],[122,204],[171,249],[233,45],[264,-351],[372,-240],[220,35],[234,-183],[291,124],[247,-54],[434,147],[344,-207],[171,-44],[134,-35],[301,-137],[86,-132],[-61,-456],[223,131],[162,11],[240,323],[342,186],[5,184],[552,247],[237,-217],[91,-83],[441,-212],[49,-280],[356,47],[140,-398],[315,-114],[187,305],[114,-147],[-100,-214],[147,-304],[-65,-163],[224,-222],[393,367],[282,329],[11,13],[261,138],[96,225],[140,-86],[152,-93],[33,-20],[86,257],[346,-143],[162,-108],[335,-259],[309,-330],[176,-278],[179,-546],[188,-344],[155,-172],[309,-198],[341,-227],[324,93],[170,-144],[123,366],[666,566],[190,32],[151,-210],[233,152],[129,-10],[0,-48],[-3,-53],[-4,-26],[-5,-24],[-30,-101],[-9,-109],[0,-104],[54,-191],[12,-50],[5,-25],[4,-27],[1,-26],[-2,-26],[-10,-108],[-19,-193],[43,-154],[79,-110],[123,-53],[126,214],[79,80],[162,-104],[157,-39],[218,208],[256,520],[194,282],[259,373],[257,329],[307,394],[257,-197],[339,-146],[451,-78],[499,-241],[158,250],[319,93],[186,388],[216,140],[117,-497],[335,-52],[294,-291],[109,-280],[123,-40],[389,-817],[108,-250],[75,-753],[-46,-502],[459,-506],[224,-43],[148,-345],[274,-85],[385,339],[268,-35],[152,-34],[158,-38],[193,-44],[15,-4],[105,-139],[9,9],[99,97],[130,105],[127,133],[91,131],[57,128],[25,122],[8,185],[-39,192],[-42,176],[-54,191],[-74,200],[-89,194],[-91,171],[336,319],[201,-94],[95,-157],[170,66],[175,-24],[124,1],[130,16],[87,57],[68,88],[37,158],[0,127],[-17,122],[-44,155],[-49,159],[-163,409],[-47,100],[189,117],[171,17],[276,247],[177,88],[135,-13],[84,218],[125,134],[83,223],[181,104],[182,-20],[129,25],[484,-320],[23,-471],[272,241],[167,22],[228,287],[116,253],[133,263],[51,111],[3,150],[16,327],[-60,275],[-60,300],[195,312],[34,-42],[12,-18],[42,-59],[115,-213],[290,-656],[55,-379],[563,-230],[310,205],[609,385],[574,224],[355,267],[151,-303],[-22,-503],[219,-489],[-3,-352],[130,-681],[190,-181],[187,264],[113,231],[-10,122],[-7,121],[22,87],[58,47],[80,12],[111,26],[172,32],[60,52],[72,73],[50,70],[46,104],[44,97],[16,79],[24,96],[21,117],[11,83],[60,89],[46,111],[43,94],[67,94],[28,81],[35,163],[28,157],[31,106],[42,133],[38,117],[41,102],[58,108],[44,141],[42,129],[57,94],[49,39],[93,65],[719,307],[107,45],[390,99],[527,522],[565,249],[105,-336],[292,-149],[347,-64],[380,63],[130,14],[330,251],[318,214],[144,161],[113,62],[149,210],[290,446],[296,542],[278,243],[209,-35],[234,52],[244,73],[330,134],[341,437],[515,700],[255,695],[328,284],[475,941],[259,51],[70,276],[388,216],[367,265],[219,123],[150,140],[330,-312],[274,-315],[133,-227],[109,-215],[187,388],[209,-251],[614,-531],[241,-256],[12,79],[56,149],[60,105],[63,41],[61,57],[90,168],[98,246],[29,266],[-39,274],[-44,353],[-11,36],[-21,66],[291,68],[94,-320],[272,-321],[206,510],[554,1508],[113,412],[195,521],[65,86],[598,423],[218,150],[170,-43],[229,-8],[17,-103],[12,-56],[48,-51],[60,-37],[51,-37],[10,-86],[-22,-64],[-32,-79],[-6,-104],[13,-67],[26,-41],[40,-61],[30,-40],[29,-36],[47,-53],[49,-47],[52,-44],[53,-41],[162,-116],[94,-59],[34,-29],[32,-34],[28,-41],[26,-42],[38,950],[252,427],[109,21],[579,-429],[87,244],[-356,313],[-31,269],[-113,58],[106,427],[464,42]],[[51113,95067],[66,-344],[-5,-304],[-22,-232],[67,-163],[191,-596],[46,-144],[10,-119],[-101,-469],[37,-354],[54,-282],[506,-572],[492,-743],[99,368],[39,42],[129,139],[149,160],[431,152],[363,-137],[239,146],[271,145],[23,205],[641,69],[262,389],[133,-12],[157,-242],[155,-58],[256,123],[287,-93],[464,-316],[477,-320],[138,303],[168,288],[-32,-632],[-103,-313],[-16,-328],[74,-278],[-17,-276],[188,-253],[77,-151],[-281,-263],[-321,-331],[236,-152],[123,-129],[-8,-179],[-5,-121],[-106,-401],[-235,-365],[-230,-357],[10,-423],[206,20],[87,-241],[-250,-446],[-140,-239],[4,-140],[88,-98],[178,-8],[475,-10],[10,-267],[15,-397],[244,89],[164,-76],[114,-230],[58,-283],[-134,-77],[-84,-370],[-236,-47],[-80,-106],[24,-171],[-305,-320],[168,-192],[56,-272],[-12,-788],[138,-240],[-2,-366],[-7,-606],[-35,-462],[-52,-426],[-208,-428],[-170,-98],[202,-466],[-110,-39],[107,-730],[106,-296],[-16,-290],[19,-188],[-165,-468],[169,-565],[-7,-246],[-14,-228],[7,-235],[-81,-289],[-24,-32],[-381,-39],[-413,-50],[-440,-318],[-202,-186],[-161,-221],[-36,147],[-215,-84],[3,-225],[-202,-106],[-222,-125],[-98,137],[-147,-236],[-19,-229],[-331,267],[-77,-95],[-125,-126],[-187,394],[-42,88],[-91,192],[-44,94],[-69,0],[-199,-359],[-598,-808]],[[56154,50376],[-40,36],[-17,15],[-37,18],[-28,17],[-24,34],[-21,47],[-27,51],[-18,21],[-43,23],[-48,14],[-31,32],[-17,96],[-34,99],[-29,153],[-63,113],[-34,120],[-31,161],[-9,136],[-7,108],[-20,119],[6,191],[25,236],[73,194],[-107,39],[-213,110],[-57,119],[38,78],[125,139],[126,151],[34,223],[-291,363],[-168,288],[-254,244],[-267,-175],[-180,-35],[-173,-86],[-25,517],[38,136],[256,185],[206,349],[-398,354],[-92,30],[-214,384],[-71,313],[-137,108],[-45,431],[-274,590],[157,49],[118,37],[203,125],[110,142],[61,81],[18,168],[0,174],[-4,157],[-19,265],[-8,172],[12,105],[22,27],[713,508],[-89,419],[149,404],[135,-386],[102,15],[205,-84],[237,-127],[171,-238],[178,-54],[29,68],[9,23],[3,44],[8,62],[24,31],[202,-59],[326,-150],[290,-40],[262,284],[475,279],[-35,164],[684,763],[638,-51],[474,458],[1055,477]],[[60452,61577],[480,195],[279,-71],[-206,-379],[61,-146],[145,70],[50,-157],[112,21],[258,45],[808,-246],[-8,-242],[-6,-177],[504,-136],[14,217],[218,-123],[-82,-355],[71,-301],[165,-221],[291,25],[183,-436],[485,-74],[8,-148],[281,-121],[581,187],[120,-94],[116,-90],[11,392],[312,311],[297,119],[140,-646],[224,-348],[142,-380],[180,-568],[188,-90],[23,-714],[168,-275],[164,-268],[900,482],[438,-66],[678,-147],[229,152],[5,257],[257,-14],[205,304],[110,72],[189,88],[-10,375],[-19,426],[238,470],[470,-112],[206,-239],[141,82],[182,105],[-44,202],[271,71],[8,29],[75,256],[-257,-15],[-128,60],[-49,25],[140,257],[106,194],[148,310],[262,-133],[327,-52],[142,-127],[353,448],[167,136],[226,-73],[134,-479],[360,203],[102,497],[194,-113],[20,-79],[-101,-600],[216,-192],[119,-942],[242,-212],[291,-255],[281,-127],[255,-116],[204,-92],[175,0],[728,458],[591,96],[696,802],[879,342],[345,171],[198,44],[292,66],[239,54],[192,43],[72,311],[-75,307],[164,201],[348,337],[689,156],[161,112],[-7,505],[-83,74],[213,685],[157,-30],[356,-319],[184,-240],[175,-228],[46,-82],[108,-188],[501,-878],[262,-359],[77,173],[366,-50],[17,-40],[12,-22],[12,-38],[2,-39],[-5,-37],[5,-54],[21,-24],[43,2],[63,17],[33,1],[45,-27],[58,-65],[30,-73],[1,-36],[1,-13],[22,13],[373,342],[170,-81],[135,101],[120,179],[177,-88],[270,246],[204,-54],[203,132]],[[85573,60574],[139,-301],[167,-33],[4,-212],[108,-471],[328,17],[-76,-176],[119,-63],[10,-248],[422,154],[142,-2],[215,-87],[120,148],[229,-101],[211,-416],[368,-239],[-51,-95],[56,-187],[333,-333],[373,-22],[213,-182],[146,-328],[-36,-125],[-29,-321],[71,-228],[179,-376],[57,-179]],[[89391,56168],[-42,-269],[-149,-73],[-121,-127],[-145,-232],[-124,-217],[-139,-178],[-140,-76],[-142,-8],[-290,16],[-231,31],[-129,-4],[-104,-35],[-188,-221],[-306,-440],[-278,-204],[-200,-35],[-223,-40],[-286,31],[-329,36],[-21,-124],[-37,-226],[-325,-698],[-24,-175],[19,-23],[158,-184],[-294,-188],[-56,-23],[119,-477],[26,-107],[-194,-46],[-226,-105],[-339,-77],[-216,-146],[-134,-173],[-207,-599],[-209,-294],[-157,-172],[-314,-343],[-152,-195],[-347,-447],[-232,-317],[-103,-180],[-52,-221],[-59,-248],[-7,-532],[161,-52],[94,-52],[-32,-131],[4,-272],[286,-265],[124,144],[321,158],[304,70],[118,-65],[157,-86],[146,-156],[57,-147],[50,-190],[41,-134],[11,-123],[13,-82],[64,-115],[75,-148],[164,-709],[16,-585],[-129,-72],[-71,4],[-327,-798],[-96,-156],[-282,-354],[45,-37],[121,-99],[69,-59],[49,-47],[30,-36],[29,-37],[25,-41],[34,-68],[39,-94],[15,-50],[20,-79],[15,-255],[2,-55],[-14,-31],[-50,-51],[-8,-7],[-24,-24],[-18,-45],[-2,-18],[1,-46],[32,-98],[25,-18],[13,1],[25,8],[35,38],[44,32],[52,18],[22,1],[38,-33],[17,-42],[8,-76],[-13,-95],[-28,-99],[-11,-54],[-2,-34],[22,-50],[11,-28],[48,-40],[9,0],[19,12],[25,37],[17,39],[8,14],[37,2],[18,-28],[29,-58],[75,-66],[62,-65],[14,-50],[1,-34],[0,-38],[-19,-42],[-4,-49],[1,-29],[28,-28],[34,-20],[62,-3],[76,4],[63,4],[79,-11],[212,-83],[105,-34],[41,-38],[22,-64],[6,-29],[22,-75],[35,-60],[38,-33],[39,-20],[45,-15],[23,-9],[36,-23],[37,-34],[13,-44],[6,-28],[16,-35],[21,-38],[20,-14],[31,-9],[114,-15],[86,30],[75,69],[13,21],[6,9],[19,22],[8,9],[24,11],[6,-8],[18,-26],[18,-35],[42,-8],[47,-12],[20,-3],[55,4],[57,42],[50,10],[42,-8],[29,-27],[19,-57],[-4,-79],[-14,-62],[-3,-57],[-2,-53],[-6,-53],[-2,-38],[2,-42],[26,-28],[15,-9],[22,-2],[25,1],[17,9],[34,21],[48,3],[26,-34],[6,-32],[6,-21],[8,-25],[-5,-32],[10,-44],[19,-27],[30,-17],[42,-6],[40,8],[-685,-1016],[-157,99],[-303,192],[-20,-25],[-287,81],[-102,-115],[-61,-68],[-267,-294],[-224,-298],[-273,-163],[-237,-141],[89,-88],[388,-383],[148,-153],[12,-12],[112,-181],[7,-41],[36,-199],[0,-214],[-145,-162],[-176,-170],[-354,-355],[-175,-141],[-196,-159],[-701,-474],[-121,-60],[-1866,-934],[-1856,-929],[-272,-161],[-309,-245],[-309,846],[338,304],[486,604],[-115,220],[-188,426],[-48,134],[-13,152],[26,183],[92,227],[107,240],[56,118],[-40,-33],[-69,-55],[-190,-97],[-137,-69],[-448,-100],[-180,18],[-185,36],[-173,-7],[-77,9],[-130,-298],[-219,-163],[-153,-231],[-120,-434],[-186,-223],[-135,-124],[-15,293],[-284,-3],[-1,230],[-52,117],[-89,90],[-75,107],[-59,63],[-145,15],[-154,36],[-543,7],[-633,-31],[-363,274],[-105,113],[-346,363],[-373,384],[-138,110],[-228,188],[-149,139],[-124,-289],[-399,323]],[[35084,20265],[-351,425],[-5,7],[-14,-9],[-444,-276],[0,-1],[-27,-34],[-116,-148],[-531,-327],[-3,-2],[-147,-104],[-70,-24],[-32,-11],[-56,71],[-255,67],[-286,-160],[-52,-29],[0,0],[-85,-93],[-162,-26],[-576,960],[-112,342],[0,0],[-17,129],[-23,294],[4,51],[139,723],[99,314],[-29,184],[-25,70],[-22,43],[-46,93],[-6,29],[-9,316],[28,101],[4,161],[-12,78],[-41,93],[-11,50],[-35,290],[-91,142],[-47,48],[-109,77],[-28,37],[-11,25],[-8,46],[-5,32],[-21,75],[-8,25],[-29,210],[14,113],[13,123],[29,99],[24,24],[166,177],[21,102],[93,144],[11,47],[4,82],[16,49],[83,122],[80,45],[-65,333],[-38,-17],[-150,-69],[-182,273],[-16,53],[-64,196],[-8,27],[0,0],[-152,182],[2,6],[18,79],[-324,108],[-152,173],[-149,104],[-66,95],[-40,76],[-7,13],[-27,141],[-16,85],[-168,-186],[-1,0],[-332,-149],[-41,-141],[-252,-94],[-286,-26],[-213,571],[-63,115],[-25,292],[-10,128],[-60,170],[199,471],[87,206],[275,570],[76,492],[37,16],[27,99],[-12,100],[-32,289],[-30,263],[-102,478],[1,1],[179,107],[215,537],[-128,34],[-56,-41],[-3,-2],[-60,66],[-383,254],[-25,-21],[-27,-22],[-19,11],[-159,133],[-89,221],[0,0],[-330,-335],[-144,-106],[-1,0],[-169,-20],[-108,435],[-43,373],[-39,30],[-31,16],[83,216],[-18,39],[-13,28],[-115,246],[-129,-56],[-3,-2],[-87,-37],[-135,142],[-32,61],[-88,172],[-122,-34],[-91,264],[-419,845],[-220,115],[-38,-237],[-144,83],[-221,52],[-25,6],[25,307],[-189,27],[-104,122],[-199,245],[-119,374],[-93,161],[-242,158],[-475,-87],[-2,-18],[-15,-132],[-9,-5],[-191,-96],[-103,449],[-130,342],[-18,47],[-1,0],[-83,5],[-209,149],[-338,714],[-101,340],[-126,138],[-77,86],[-54,155],[-148,165],[-592,496],[-178,256],[-322,583],[84,215],[-55,45],[264,599],[213,339],[-28,43],[45,87],[95,189],[0,0],[0,0],[0,0],[-237,492],[-142,194],[-186,176],[91,115],[85,108],[0,0],[-34,88],[0,0],[-47,70],[0,0],[-286,-290],[-62,141],[-104,237],[-134,-140],[-171,-299],[-160,-90],[-153,195],[-90,-60],[-11,-7],[-116,262],[25,198],[2,10],[92,146],[0,0],[-94,116],[-91,112],[-61,186],[-7,121],[-8,120],[0,0],[-39,27],[-429,289],[-364,533],[-53,122],[-6,14],[-3,6],[-63,143],[-61,334],[31,525],[-45,99],[12,126],[-93,243],[8,103],[-47,136],[172,67],[107,164],[253,143],[62,19],[255,82],[147,47],[115,-144],[151,-189],[454,-116],[101,-175],[281,-486],[11,-205],[-62,-66],[-17,-19],[97,-98],[0,0],[51,-130],[0,-1],[16,-17],[18,-20],[87,-26],[38,2],[29,25],[44,108],[4,6],[19,31],[52,85],[0,0],[0,0],[-64,50],[21,61],[25,73],[36,323],[30,194],[197,102],[36,12],[-62,528],[447,204],[0,0],[-79,197],[27,14],[137,68],[54,152],[158,443],[211,566],[19,49],[-245,-107],[-64,499],[-67,111],[-18,30],[0,0],[-162,151],[-173,162],[0,0],[-891,-490],[-194,-107],[152,683],[3,250],[-52,9],[-1,1],[6,67],[20,94],[5,22],[0,4],[11,53],[-12,37],[0,24],[-8,94],[-4,117],[26,111],[53,157],[17,100],[23,110],[30,111],[13,30],[-7,84],[1,67],[-8,108],[4,119],[29,83],[13,32],[59,103],[25,66],[24,42],[-12,32],[0,48],[-10,66],[17,71],[-18,18],[1,20],[-20,49],[-46,88],[0,0],[-29,-8],[-67,-21],[-15,68],[-21,93],[-154,-21],[-59,-8],[-71,48],[-109,-8],[-2,0],[-28,-27],[-53,-49],[-7,37],[-74,390],[-252,387],[-102,-27],[-63,-17],[-889,-239],[-206,-38],[-332,836],[-275,42],[-475,281],[0,0],[-82,497],[68,582],[-70,42],[-1,0],[-240,-71],[-191,93],[-257,347],[-320,-157],[-148,520],[-9,33],[-60,212],[13,85],[-115,494],[-17,207],[131,526],[3,0],[96,0],[9,0],[61,130],[248,216],[0,0],[-51,100],[103,71],[125,194],[10,15],[3,3],[340,338],[67,-50],[98,-73],[57,15],[6,1],[154,-64],[23,47],[50,105],[103,127],[58,23],[1,0],[127,51],[19,24],[40,55],[0,0]],[[52900,73889],[603,-681],[67,-209],[103,-675],[60,-167],[408,-270],[289,-528],[-84,-31],[-71,-65],[-72,-51],[-85,-55],[-63,-40],[-56,-24],[-24,-22],[-15,-20],[-20,-74],[-20,-131],[-24,-140],[-10,-124],[-11,-46],[-28,-38],[-79,-32],[-95,-18],[-127,-8],[-10,-1],[-120,-19],[-73,-24],[-11,-9],[-29,-16],[-86,-87],[-91,-147],[-66,-99],[-101,-122],[121,-122],[37,-262],[238,-125],[53,-290],[102,-202],[170,-145],[89,-118],[232,-243],[66,-68],[106,-594],[147,-105],[261,288],[135,150],[307,290],[154,9],[175,-221],[116,197],[355,3],[272,347],[193,265],[88,121],[207,433],[389,673],[303,545],[423,189],[123,238],[145,93],[264,-259],[265,-33],[71,-120],[82,-258],[104,-391],[-323,-393],[65,-289],[226,-346],[155,-146],[30,-68],[-82,-159],[-235,-334],[31,-536],[102,-197],[451,178],[150,15],[70,-74],[22,-128],[-273,-246],[-178,-358],[25,-121],[16,-204],[-160,-300],[-82,-214],[30,-143],[176,-441],[231,-823],[94,-279],[-49,-84],[-56,-85],[-49,-84],[-32,-83],[-40,-48],[76,-6],[238,83],[126,66],[187,3],[308,-281],[169,-324],[15,-245],[19,-304],[46,-371],[28,-229],[-7,-154],[-8,-186],[181,-264],[2,-168],[5,-254]],[[89391,56168],[376,-618],[65,-73],[-284,-676],[340,-401],[108,-72],[-438,-498],[-448,-492],[237,-85],[-259,-607],[-8,-158],[709,95],[44,-188],[215,-37],[-21,249],[255,-7],[209,-108],[-111,-268],[964,-432],[298,-154],[-16,-301],[165,-255],[376,-98],[153,-127],[340,12],[243,-15],[186,-254],[307,201],[227,119],[356,55],[521,2],[517,-74],[406,-129],[-93,-1014],[244,101],[164,7],[614,-63],[339,-128],[-58,-777],[-175,-149],[-14,-887],[34,-234],[195,64],[96,33],[175,88],[148,99],[137,82],[408,173],[177,119],[1434,1022],[200,46],[176,-105],[49,-95],[92,-136],[72,-531],[-218,-264],[-421,-317],[-193,-222],[46,-259],[374,-560],[288,-272],[176,-287],[-302,-408],[-261,27],[-267,-26],[-290,-119],[58,-225],[-153,-458],[226,66],[373,61],[131,3],[108,-5],[34,-264],[-66,-228],[266,-265],[66,156],[187,-229],[-105,-256],[-166,-41],[-4,-250],[162,-24],[-295,-673],[1,-222],[97,-130],[-52,-191],[-337,-136],[43,-155],[-91,-543],[-256,-362],[51,-165],[-95,-236],[-443,-636],[-392,-582],[-214,21],[-125,-231],[-105,-132],[-159,68],[-1,-313],[294,-400],[65,181],[77,89],[65,157],[110,126],[135,171],[227,43],[205,11],[222,-11],[75,-421],[74,-231],[52,-168],[-5,-322],[-403,-457],[-27,-186],[143,-161],[42,-155],[-201,27],[-218,146],[-331,-105],[-47,-149],[-71,-227],[-201,-234],[-13,-256],[73,-311],[-180,-379],[25,-173],[29,-613],[267,-560],[252,-99],[-1022,-2127],[-184,-206],[-104,-171],[-256,330],[-191,82],[-182,-302],[74,-250],[-53,-389],[-148,74],[-190,61],[-172,81],[-479,559],[83,286],[-310,-154],[-268,-133],[-198,-212],[-126,129],[-183,11],[-278,-69],[-322,-284],[-144,-186],[-210,-133],[47,-143],[79,-239],[182,-104],[197,-146],[147,-159],[211,32],[66,-173],[14,-291],[-31,-263],[-141,-375],[-65,-299],[-214,-369],[-51,-192],[-135,-153],[-122,-138],[-315,-236],[-216,-265],[-78,132],[-299,-336],[-192,-230],[279,-550],[-80,-411],[-228,-806],[-185,-102],[-310,419],[-331,318],[-159,416],[-149,146],[-51,129],[5,359],[-254,-33],[-287,-135],[66,-241],[-269,-320],[38,-201],[-178,-212],[64,-829],[-13,-215],[-188,-367],[-448,-442],[-124,-188],[-328,-78],[-222,-219],[-57,-161],[208,-102],[-190,-185],[494,-303],[-188,-243],[-186,-409],[-155,-128],[505,-743],[217,-112],[607,-536],[107,-217],[-141,-13],[-13,-425],[-39,-328],[110,-53],[-46,-247],[-118,26],[-28,-158],[-169,-173],[-102,-163],[-16,-158],[29,-356],[67,-148],[206,-199],[-122,-208],[-380,-325],[-25,-250],[71,-121],[146,-143],[526,344],[86,-223],[38,-313],[85,-361],[456,-552],[91,-195],[350,-751],[201,-319],[104,-81],[96,-99],[30,-94],[32,-69],[34,-28],[83,-186],[535,-37],[416,-216],[63,-114],[207,-79],[304,-181],[123,-147],[-78,-206],[-139,-362],[-85,-163],[4,-315],[24,-276],[25,-302],[219,-350],[473,-191],[102,-335],[98,-70],[-20,-169],[95,-98],[-15,-163],[38,-280],[124,-356],[109,-10],[3,-217],[136,-231],[373,-331],[679,40],[101,-389],[42,-163],[296,392],[74,275],[211,-85],[-1,-2],[-8,-11],[-26,-38],[0,0],[-42,-21],[-81,-40],[-33,-37],[-14,-15],[-336,-642],[-48,-120],[-24,-101],[1,-26],[2,-82],[-41,-170],[-53,-219],[-2,-44],[-4,-97],[0,0],[16,-112],[96,-653],[0,0],[23,-302],[9,-266],[17,-79],[0,0],[-21,-3],[-116,-15],[0,0],[-4,-53],[-4,-58],[43,-131],[75,-134],[-601,139],[-1057,-124],[-375,381],[-1104,-89],[-505,-400],[-305,-241],[-36,-36],[-81,-80],[-160,-158],[-285,-282],[-154,-242],[-97,-278],[-1,-3],[0,-1],[-149,-744],[-7,-179],[-3,-54],[-65,-148],[-26,-60],[0,0],[-181,-151],[-54,-45],[0,0],[-18,-33],[-85,-159],[-65,-36],[-38,-21],[-136,-550],[0,0],[-1,-53],[-5,-141],[-251,-340],[-96,-204],[-81,-173],[-120,-401],[-494,-448],[-181,130],[-851,250],[10,263],[111,522],[16,453],[-211,176],[0,0],[-110,-276],[-86,-21],[-86,-12],[-29,-39],[-36,-17],[-32,-6],[-150,152],[-237,190],[-183,9],[-1,0],[-58,-50],[-70,-60],[-278,20],[-67,-182],[-4,-10],[-8,-24],[-83,0],[-1581,880],[-31,17],[-328,321],[-28,196],[-611,-262],[-143,26],[-98,-15],[-5,0],[-46,-7],[-216,-213],[-315,-224],[-945,-241],[-438,13],[0,0],[-1,0],[-234,-115],[-9,-5],[-172,-10],[-139,-8],[-113,-6],[0,0],[-53,-174],[-3,-2],[-223,11],[-12,0],[0,0],[0,0],[-64,-102],[-46,-41],[-48,-43],[-2,-40],[-12,-233],[-8,-160],[0,-17],[-354,-883],[-70,-33],[-78,-36],[-8,-4],[-13,-6],[-7,-3],[-128,365],[53,172],[1,71],[2,102],[-13,79],[-12,73],[-36,103],[-17,51],[0,0],[-3,45],[-12,160],[0,9],[-1,0],[-272,395],[-184,260],[-1,1],[-95,136],[-3,5],[81,83],[18,18],[-119,310],[-302,-33],[-29,177],[-119,340],[-9,125],[-138,20],[-9,-59],[-30,-191],[-589,41],[-2,0],[74,-315],[0,0],[-145,-68],[-217,187],[-34,-25],[-216,-154],[0,0],[-29,-13],[-349,-157],[-159,286],[-95,-48],[-9,-5],[-159,-330],[-25,-74],[-142,-424],[-125,-240],[-77,-146],[1,0],[0,0],[76,-96],[-52,-137],[0,0],[-37,-94],[-62,32],[-281,154],[-114,234],[-40,61],[-200,227],[-93,44],[-43,98],[-31,29],[-98,30],[-589,119],[-79,80],[-191,313],[-190,91],[-227,9],[-16,11],[-173,423],[-203,145],[-24,45],[0,83],[7,316],[-11,131],[-16,59],[-126,213],[-78,186],[-41,416],[-10,15],[-42,60],[-72,50],[-72,116],[-41,221],[-52,51],[-105,16],[0,0],[-221,-13],[-91,-33],[0,0],[-322,-254],[-132,-52],[-1,0],[-306,-48],[-538,-84],[-90,-55],[-105,-99],[-51,-26],[-32,-17],[-79,1],[-58,89],[-45,221],[-24,309],[23,422],[17,121],[30,121],[14,56],[34,82],[20,47],[108,158],[91,132],[470,426],[48,60],[44,55],[74,157],[30,117],[-16,80],[-34,23],[-34,23],[-72,6],[0,0],[-325,-30],[-93,27],[0,0],[-2,4],[-31,87],[2,81],[25,117],[-8,97],[-97,142],[-187,65],[-1,0],[-170,25],[-118,18],[0,0]],[[51113,95067],[-98,330],[97,213],[158,70],[228,-158],[100,-93],[299,-133],[242,-51],[392,-42],[448,362],[445,106],[258,-13],[291,24],[168,-245],[150,-67],[99,-271],[39,-264],[178,82],[144,-37],[138,384],[-273,157],[27,232],[-103,156],[31,182],[563,-302],[136,-138],[263,334],[-90,88],[-146,188],[-20,45],[-54,126],[-31,184],[-22,202],[8,164],[45,41],[84,20],[98,59],[49,89],[18,83],[-8,109],[-21,101],[-63,117],[-72,125],[-78,106],[-21,30],[-51,74],[-72,93],[-18,71],[-3,87],[26,83],[18,93],[-12,81],[-42,60],[566,536],[212,203],[405,179],[329,-140],[-58,-588],[119,-638],[14,-492],[191,-179],[353,271],[-8,223],[138,210],[117,185],[110,184],[132,-319],[391,299],[238,-54],[184,304],[342,269],[227,92],[36,286],[317,91],[53,-256],[-122,-346],[294,41],[647,133],[129,-132],[74,345],[178,135],[6,-170],[26,-207],[-6,-176],[-64,-129],[-88,-123],[-101,-112],[-102,-155],[-38,-137],[6,-148],[41,-139],[61,-337],[-22,-104],[-83,-130],[-96,-137],[-70,-156],[-19,-164],[17,-269],[59,82],[71,95],[100,148],[79,93],[89,71],[108,37],[85,63],[68,134],[63,165],[53,167],[85,171],[105,129],[93,83],[98,71],[110,119],[54,99],[98,151],[19,46],[191,105],[209,-129],[296,-241],[390,-213],[448,507],[279,358],[600,1053],[160,182],[283,-210],[1011,-666],[862,-507],[146,-19],[372,-102],[293,-194],[360,-513],[138,-202],[379,-557],[374,-1084],[66,-141],[228,-371],[84,-143],[121,-206],[211,-270],[16,-143],[315,-901],[155,-300],[-100,-332],[315,-191],[-11,-189],[78,-314],[124,-32],[270,544],[113,247],[258,-44],[151,-126],[178,6],[142,-55],[-88,446],[43,170],[173,-21],[125,-218],[17,-412],[108,-209],[20,-402],[312,-51],[94,-57],[113,28],[169,-278],[224,101],[386,-320],[603,-69],[496,51],[148,30],[134,31],[141,41],[153,52],[257,118],[133,67],[155,115],[108,102],[74,121],[50,95],[53,198],[100,297],[38,71],[93,65],[82,46],[131,28],[152,9],[78,-4],[121,-39],[129,-52],[113,-96],[572,-791],[374,-283],[305,17],[485,365],[122,-240],[9,-601],[-143,-650],[-71,-613],[-167,-17],[110,-259],[115,-271],[184,11],[473,-345],[172,-126],[126,-356],[77,-80],[103,-35],[133,-86],[35,-156],[5,-553],[115,-60],[185,273],[255,-77],[235,13],[127,203],[299,-129],[591,72],[372,-73],[75,-158],[141,-152],[166,-201],[-118,-322],[-66,-311],[-163,-443],[-58,-115],[24,-31],[241,-309],[78,-101],[290,-51],[245,-45],[308,-57],[211,-39],[370,145],[305,464],[276,-95],[142,82],[201,115],[274,74],[103,390],[-94,140],[-14,276],[135,123],[308,57],[388,38],[179,-45],[116,-29],[40,98],[70,166],[340,317],[23,20],[134,257],[119,662],[10,59],[100,164],[216,188],[160,25],[175,-21],[152,-21],[-70,-181],[-68,-193],[-60,-253],[-42,-206],[-59,-209],[-132,-244],[-134,-260],[-55,-240],[-10,-199],[29,-322],[129,-246],[218,-240],[160,-240],[137,-583],[-160,-214],[165,-312],[176,5],[192,3],[148,-227],[23,-96],[-13,-124],[-66,-184],[21,-732],[-90,-59],[21,-408],[0,-102],[116,-470],[179,-186],[-97,-99],[-10,-560],[79,-191],[18,-183],[9,-216],[-9,-276],[-4,-301],[-16,-124],[-21,-92],[2,-81],[30,-61],[69,-55],[90,5],[77,13],[84,0],[95,-21],[409,-201],[375,-175],[92,-35],[99,-13],[97,1],[136,3],[598,32],[221,12],[37,-161],[-167,-156],[-161,-334],[71,-345],[109,137],[185,-545],[395,-241],[281,-552],[-276,-335],[81,-285],[-380,-225],[-267,-151],[-227,-8],[14,229],[209,167],[129,101],[-68,205],[-270,-191],[-38,88],[-124,343],[-299,-158],[-159,-91],[41,-237],[-120,-46],[-189,-111],[-152,-175],[-98,-277],[-115,-40],[185,-531],[132,-206],[29,-94],[-133,-40],[-76,-54],[-139,-88],[-102,-31],[-86,-70],[-88,-99],[37,-373],[-59,-248],[-51,-270],[327,-219],[-83,-58],[-66,-96],[-84,-206],[-24,-153],[14,-74],[38,19],[102,-27],[120,-58],[82,-58],[35,-137],[22,-212],[-221,-193],[-126,-325],[-35,-164],[-27,-602],[-42,-244],[-81,-482],[-165,-255],[205,-205],[-263,-263],[-97,-70],[130,-100],[309,-12],[229,-91],[553,-27],[87,-91],[86,-90],[221,224],[169,49],[280,-900],[136,-393],[267,-222],[88,-258],[-9,-332],[-179,-203],[-147,-247],[-77,-212],[-2,-155],[49,-275],[-165,-139],[-172,-247],[-738,-448],[-11,-175],[-328,-243],[63,-453],[-504,-149],[-397,-151],[-256,-84],[-147,-253],[15,-299],[4,-178],[-299,-107],[-199,71],[-165,-25],[-219,-149],[-354,-241],[-229,-125],[-516,-137],[-243,-198],[-355,-282],[127,-297],[195,-191],[279,-193],[84,-261],[163,9],[-278,-679],[135,-166],[-342,-182],[224,-704]]],"transform":{"scale":[0.000010479919049190498,0.000005275120405204035],"translate":[6.3557918025,49.1119315197]},"objects":{"landkreise-sar":{"type":"GeometryCollection","geometries":[{"arcs":[[0,1,2,3]],"type":"Polygon","properties":{"id":"DEC01","name":"Regionalverband Saarbücken","cx":6.973,"cy":49.279}},{"arcs":[[4,5,6]],"type":"Polygon","properties":{"id":"DEC02","name":"Landkreis Merzig-Wadern","cx":6.682,"cy":49.468}},{"arcs":[[-1,7,8,9,10]],"type":"Polygon","properties":{"id":"DEC03","name":"Landkreis Neunkirchen","cx":7.155,"cy":49.366}},{"arcs":[[-4,11,-5,12,-8]],"type":"Polygon","properties":{"id":"DEC04","name":"Landkreis Saarlouis","cx":6.779,"cy":49.329}},{"arcs":[[-2,-11,13]],"type":"Polygon","properties":{"id":"DEC05","name":"Saarpfalz-Kreis","cx":7.219,"cy":49.224}},{"arcs":[[-7,14,-9,-13]],"type":"Polygon","properties":{"id":"DEC06","name":"Landkreis St. Wendel","cx":7.101,"cy":49.517}}]}}}