{"type":"Topology","arcs":[[[61065,95324],[-19,-61],[44,-110],[-42,-78],[-5,-108],[-62,-183],[16,-222],[-16,-17],[9,-41],[-24,-26],[29,-196],[-19,-92],[13,-54],[-40,-41],[46,-130],[-119,-177],[-115,194],[-33,-312],[-189,-19],[-28,-87],[-75,28],[-64,-139],[-22,14],[-42,-199],[119,-107],[1,-44],[21,-21],[-43,-110],[38,-19],[-11,-68],[-47,-2],[-21,-116],[67,-34],[33,-139],[209,-156],[6,-41],[116,-42],[8,-89],[-17,-272],[83,-78],[130,-271],[-68,-271],[-149,-70],[-194,-163],[-33,-155],[-35,-255],[11,-313],[-36,-50],[-47,-158],[23,-49],[-27,-81],[5,-187],[35,-98],[-3,-193],[17,-29],[-80,-292],[9,-74],[66,-96],[-8,-18],[50,-105],[53,-199],[-238,-434],[-113,-264],[-78,-447],[44,-177],[-47,-46],[27,-118],[-87,-112],[-48,-134]],[[60049,87071],[-124,-206],[-347,654],[-50,15],[-226,-248],[-89,213],[-93,-85],[-207,-356],[-47,99],[-21,-256],[20,-307],[-118,-113],[-203,-403],[-9,-133],[-247,-125],[-165,5],[-406,235],[-68,-71],[33,-101],[-16,-14],[89,-293],[-345,-40],[-489,-281],[-284,-66],[-279,-180],[-199,-220],[-72,-122],[-89,-72],[-211,-93],[-403,62],[-273,-192],[-49,-124],[-141,-202],[-23,155],[-313,-186],[-54,-23],[38,-272],[135,-209],[94,-274],[-137,-165],[-86,445],[-25,54],[-13,155],[-106,166],[-94,44],[-100,-126],[-153,102],[-125,-76],[-286,-362],[-126,-217],[-74,-209],[-30,-5],[-74,89],[18,-106],[-46,-39],[-26,21],[19,160],[75,112],[-39,94],[-42,-47],[-95,357],[117,123],[-14,39],[43,61],[-13,78],[-16,-6],[-26,159],[-71,-58],[-119,178],[53,270],[-123,126],[-64,-20],[-23,-143],[-110,232],[-10,-37],[-48,26],[-25,-168],[-13,12],[-14,-56],[-113,103],[-28,-96],[-78,-96],[-48,73],[-95,-205],[-94,-111],[13,-99],[125,-132],[-58,-103],[55,-130],[3,-136],[-42,-52],[-180,7],[40,-74],[-20,-34],[-129,181],[14,5],[-99,194],[-58,-93],[-114,166],[-20,-75],[-285,376],[-48,-108],[-166,424],[-85,-108],[-134,-46],[5,-70],[-64,-65],[-66,-4],[-20,-172],[-62,22],[-14,-108],[-10,-425],[-18,-8],[36,-234],[-30,-24],[74,-380],[-45,-84],[133,-678],[326,-440],[-141,-333],[6,-79],[-118,3],[-62,-93],[-493,-332],[-20,290],[-57,76],[-53,-107],[-72,-71],[-104,270],[-144,-162],[-26,28],[-31,10],[-129,-223],[-73,140],[36,283],[-76,188],[-191,-165],[-38,142],[-162,-33],[-48,31],[3,-126],[-96,-78],[-47,47],[-254,-352],[-84,-10],[-112,-101],[-12,58],[-163,-88],[-21,-375],[58,-397],[34,-637]],[[48668,79470],[-1191,-839],[-15,63],[-102,-6],[-12,-85],[-124,-114],[8,-41],[-382,-261],[-50,159],[-95,-29],[-54,162],[-84,-77],[39,206],[0,146],[-28,165],[15,356],[-254,-202],[-109,79],[-19,-70],[-21,16],[-37,-177],[-20,-33],[-65,56],[-20,-125],[-229,222],[-37,-40],[5,-82],[-71,-19],[25,-100],[-28,-28],[6,-116],[-98,-51],[20,-164],[-59,-74],[-76,246],[-35,44],[1,126],[125,340],[-50,152],[17,126],[-17,12],[6,107],[-21,30],[40,70],[-37,168],[219,268],[129,88],[-90,298],[-84,-100],[-37,238],[18,53],[-17,26],[-1,58],[-31,15],[-144,-53],[-192,-162],[-90,-32],[-61,-80],[-70,-12],[-67,231],[-89,187],[-94,34],[-170,-20],[-107,-21],[-3,-58],[-112,17],[-139,-67],[-3,102],[-13,-17],[-114,384],[-167,9],[-315,-177],[-38,90],[-86,-48],[-194,48],[-135,-18],[-40,52],[-43,-68],[-41,-159],[-79,-136],[-109,149],[-65,-104],[-63,158],[-8,-59],[-31,14],[-57,-66],[-75,98],[-28,-10],[-24,75],[-40,27],[-69,-100],[29,-83],[5,-90],[38,-5],[-3,-88],[-38,-147],[-157,46],[-115,-190],[-152,-122],[81,-188],[-11,-131],[-89,-96],[-59,-170],[-34,-4],[0,-88],[-183,-38],[-24,73],[15,20],[-17,85],[-23,42],[-51,-38],[-84,264],[63,76],[107,42],[19,61],[-11,89],[38,185],[51,1],[-22,145],[-52,66],[-13,64],[33,97],[-38,-27],[-20,44],[81,270],[41,64],[0,63],[33,110],[-55,161],[-159,61],[-216,-102],[-7,-55],[-113,-23],[-18,87],[-68,-104],[-41,-6],[8,114],[-37,7],[-9,-105],[-176,-25],[0,40],[-29,5],[12,71],[-45,-50],[-20,317],[-129,304],[60,71],[-62,114],[-11,-20],[-212,424],[-113,127],[-25,59],[12,138],[-32,36],[-11,84],[-65,137],[-151,78],[-26,143],[13,111],[-69,-24],[-19,-29],[8,-72],[-14,-13],[-118,-35],[-36,34],[-27,-56],[-52,26],[-67,-56],[-67,76],[-63,-46],[-127,46],[-41,124],[11,107],[-21,22],[-14,2],[-4,-60],[-54,-23],[-30,91],[22,76],[108,99],[16,103],[-163,860],[140,86],[-17,80],[11,23],[96,85],[-112,116],[-135,247],[-283,219],[-79,-19],[-45,119],[-33,-46],[-81,27],[-39,-38],[-425,29],[-95,148],[-127,-100],[-61,9],[13,509],[-47,154],[-44,65],[105,287],[83,569],[32,65],[-154,395],[-132,148],[-65,125],[-22,109],[-16,-18],[-246,406],[-135,85],[-57,-106],[-34,-149],[-160,-248],[-134,-407],[12,-86],[-113,-283],[-354,-519],[-50,-230],[5,-129],[-13,-85],[-126,-163],[-176,-118],[-47,-68],[-277,206],[-161,209],[-242,-126],[-51,-81],[-21,33],[17,62],[-25,209],[-163,219],[-28,177],[19,162],[-45,302],[-102,302],[-13,-31],[-37,62],[-28,142],[2,124],[54,37],[-12,-166],[82,-139],[43,63],[-11,100],[52,163],[-21,17],[56,493],[-10,133],[-66,245],[-77,-121],[-86,213],[-17,47],[67,166],[-11,74],[77,158],[38,148],[-22,38],[-30,179],[-24,26],[103,518],[-45,196],[78,170],[-8,60],[13,2],[-25,196],[-101,26],[-36,360],[-51,98],[86,148],[88,35],[67,-166],[8,144],[138,179],[123,13],[16,-69],[76,28],[-71,265],[4,59],[-82,-35],[-118,-162],[-99,-80]],[[35289,91916],[-86,143],[150,145],[28,120],[148,315],[-8,45],[14,14],[60,35],[-4,-95],[25,-73],[-23,-44],[19,-88],[28,38],[116,-41],[29,47],[72,35],[43,19],[60,84],[46,31],[117,83],[49,26],[52,-21],[11,-51],[19,164],[37,25],[4,63],[140,292],[-47,137],[16,122],[24,-5],[-5,48],[40,125],[117,-59],[63,17],[-24,-134],[139,-132],[17,95],[48,76],[84,29],[-22,39],[-29,-16],[-87,-16],[-23,90],[114,34],[10,-53],[84,-56],[37,-42],[33,-43],[6,-129],[35,-71],[31,-40],[79,-8],[29,-59],[102,-78],[23,-180],[24,-65],[30,-108],[32,-32],[59,-227],[52,-317],[52,-200],[35,72],[118,46],[89,-13],[117,13],[83,-11],[128,30],[71,29],[111,-58],[83,-73],[247,-389],[76,-73],[32,-55],[80,-66],[111,-48],[189,-361],[43,-121],[12,-126],[186,-111],[260,465],[158,375],[201,-130],[54,12],[-10,54],[122,47],[-12,-75],[108,-12],[132,-80],[38,13],[63,-59],[27,-62],[14,-86],[68,-106],[89,76],[59,61],[111,171],[100,86],[83,14],[55,63],[87,205],[-40,56],[-27,86],[-12,89],[4,96],[34,109],[14,79],[39,86],[8,57],[-16,74],[1,77],[7,59],[31,64],[10,86],[-8,28],[16,57],[2,105],[15,112],[67,-46],[33,-9],[3,132],[33,-86],[80,-27],[24,-7],[15,13],[94,-335],[21,-20],[40,235],[84,-123],[66,-18],[-9,-87],[13,24],[21,-23],[12,11],[-7,52],[11,32],[-127,313],[29,302],[19,-33],[2,91],[44,171],[-11,24],[-57,-159],[-100,-129],[-79,-79],[-38,24],[35,85],[-8,51],[7,69],[-40,209],[66,41],[35,-67],[36,18],[36,121],[72,149],[6,65],[26,28],[19,55],[25,-50],[82,34],[53,-164],[324,-1284],[196,89],[163,48],[234,-49],[-18,775],[-8,235],[168,57],[154,83],[48,-11],[79,15],[73,49],[35,17],[59,171],[59,46],[11,-98],[507,99],[277,55],[407,458],[691,997],[41,-84],[44,47],[41,-50],[15,-86],[36,0],[44,-77],[142,68],[111,-86],[28,77],[37,152],[83,-199],[133,153],[27,80],[29,-36],[61,188],[110,-170],[89,-71],[-273,-797],[55,-157],[39,-61],[38,74],[27,-18],[63,225],[22,-1],[38,-35],[27,-40],[-12,-28],[-6,-46],[-45,-95],[46,-79],[-48,-116],[52,-91],[45,14],[-2,-45],[85,1],[-5,-69],[15,-30],[36,9],[33,-36],[-21,-40],[21,-51],[34,5],[8,-55],[14,0],[21,-84],[-34,4],[-15,-52],[-40,-16],[75,-36],[50,-29],[20,-84],[63,-27],[21,22],[20,-49],[31,-21],[19,37],[24,-19],[26,-62],[32,31],[10,-56],[25,-11],[34,72],[43,42],[133,195],[-37,79],[37,40],[21,54],[-150,250],[-54,121],[131,180],[61,-83],[19,-62],[44,12],[42,70],[104,107],[92,64],[73,106],[27,48],[56,26],[38,65],[135,149],[55,102],[77,-173],[3,-121],[75,-66],[20,61],[20,53],[25,18],[1,53],[-13,22],[4,53],[20,4],[17,62],[34,21],[50,-24],[35,-39],[0,-41],[62,-25],[14,18],[100,7],[-59,90],[209,427],[-32,115],[-40,94],[4,73],[19,-69],[23,23],[4,59],[25,6],[16,-12],[41,105],[27,-6],[30,86],[26,-43],[2,60],[22,-20],[1,42],[66,50],[75,-20],[52,99],[22,-2],[1,58],[27,-48],[6,31],[0,59],[36,-19],[31,-85],[18,-99],[-9,-117],[-23,-48],[29,-94],[13,-76],[19,-38],[29,-46],[1,-289],[-47,-110],[-4,-79],[10,-116],[-29,-22],[19,-82],[-27,-61],[89,-154],[64,-79],[-15,-43],[51,-74],[97,74],[17,-5],[22,33],[100,47],[139,44],[28,35],[25,-39],[38,34],[8,-24],[42,24],[63,14],[65,-111],[30,38],[22,-24],[101,22],[28,-42],[15,50],[54,35],[45,67],[15,123],[71,-62],[54,43],[37,109],[53,88],[-52,82],[67,198],[60,-44],[72,48],[21,46],[-53,73],[8,29],[-21,42],[21,53],[21,-7],[33,-46],[21,15],[37,-10],[1,94],[-14,28],[20,95],[-29,92],[-46,60],[-83,-66],[-25,63],[-15,-24],[-30,-24],[-2,51],[-2,60],[-26,30],[-11,135],[12,17],[-26,24],[-24,172],[-60,77],[-49,127],[28,21],[5,46],[-24,34],[-22,55],[-47,93],[-23,12],[-36,58],[14,93],[23,-10],[8,48],[43,29],[-13,22],[-55,16],[19,40],[-11,79],[41,22],[39,87],[-18,56],[104,11],[-2,132],[35,237],[20,-2],[12,179],[26,5],[-2,42],[19,290],[-78,233],[1,108],[-35,184],[-32,92],[12,36],[33,30],[47,-59],[-14,-35],[133,-31],[29,-105],[27,37],[220,-282],[114,-2],[45,-63],[61,-17],[13,46],[25,-6],[20,30],[27,-24],[34,39],[-2,-58],[66,-23],[12,72],[8,71],[-16,69],[17,34],[36,-26],[24,-91],[40,-49],[50,46],[44,-1],[29,-36],[62,-38],[31,153],[57,-153],[-24,-74],[20,-74],[103,70],[20,-66],[-9,-71],[10,-61],[-15,-88],[36,29],[34,40],[49,-12],[12,21],[-15,45],[-49,20],[29,38],[27,-29],[38,-3],[52,-39],[16,42],[50,14],[25,46],[22,-27],[126,194],[27,10],[23,30],[20,76],[4,135],[43,-44],[42,-131],[-40,-63],[15,-99],[20,-84],[68,-143],[33,73],[51,17],[70,140],[-48,84],[124,199],[12,-7],[36,87],[68,78],[-41,58],[-18,8],[-15,51],[21,26],[-61,109],[46,74],[-7,27],[33,53],[18,-68],[57,65],[31,-26],[59,-97],[60,30],[19,-67],[30,-48],[37,42],[-26,94],[31,34],[24,-34],[42,8],[-9,40],[-25,-2],[-11,38],[21,11],[-1,82],[35,-30],[44,0],[19,-7],[66,101],[25,16],[47,118],[39,18],[56,-15],[84,-51],[174,25],[5,-112],[11,-101],[40,-103],[41,47],[46,17],[46,51],[174,-128],[63,-63],[70,-42],[120,-86],[64,-36],[35,34],[144,-89],[159,-243],[103,-207],[14,-178],[68,-87],[33,-116],[90,-59],[56,-456],[87,-262],[-4,-93],[69,10],[61,2],[87,-41],[80,16],[93,80],[64,0],[58,-213],[29,6],[19,85],[81,54],[26,-107],[30,-9],[-16,-41],[53,-100],[-121,-125],[-68,21],[-19,-81],[22,-257],[93,-330],[98,36],[191,270],[30,87],[50,-15],[94,-187],[59,120],[35,0],[4,-36],[163,-188],[40,57],[46,20],[95,56],[48,46],[66,-106],[50,-35],[19,25],[78,157],[18,-30],[12,-47],[123,-189],[38,57],[54,-97],[34,69],[21,-16],[46,133],[24,-14],[30,47],[20,-7],[12,48],[15,10],[4,115],[18,18],[-11,53],[42,140],[40,-4],[65,121],[3,104],[43,-93],[1,-158],[-7,-84],[28,-52],[31,19],[16,-45],[64,27],[88,72],[16,-21],[-85,-243],[41,-28],[15,-46],[-136,-339],[177,-298],[65,-60],[-59,-127],[-79,-331],[10,-25],[137,35],[67,-5],[41,-38],[56,-69],[65,-46],[47,-113],[48,-82],[18,-74],[51,-119],[4,8],[53,97],[58,72],[-23,170],[96,34],[191,-30],[80,95],[26,37],[13,10],[115,32],[190,108],[-32,84],[12,193],[42,29],[14,-15],[43,48],[129,219],[79,168],[-22,26],[17,38],[18,-11],[28,64],[99,17],[-22,373],[33,36],[62,13],[82,-55],[31,-90],[75,1],[-6,174],[92,26],[-1,83],[135,-36],[154,-112],[74,-68],[126,-83],[29,10],[51,-60],[32,60],[41,-47],[17,27],[12,-20],[-17,-45],[59,-96],[111,-246],[44,-116],[51,-84],[46,-120],[37,-206],[51,-131],[9,-68]],[[48668,79470],[82,-593],[2,-324],[-23,-153],[-44,9],[-69,-154],[34,-99],[-24,-137],[-57,-148],[-33,-49],[-114,-17],[-84,-62],[23,-60],[-64,-82],[9,-84],[44,-73],[-46,-107],[31,-47],[-109,-145],[35,-58],[-30,-41],[15,-45],[-33,-41],[34,-79],[-148,-194],[58,-151],[4,-310],[124,-143],[13,-64],[-39,-34],[-91,-246],[66,-293],[476,777],[181,-297],[80,113],[-10,41],[165,119],[29,-99],[-239,-323],[108,-220],[-39,-67],[-15,32],[-24,-39],[55,-96],[-18,-29],[50,-71],[-11,-22],[43,-84],[24,-143],[122,-306],[39,31],[30,-41],[-35,-77],[74,-163],[-50,-123],[23,-59],[-40,-128],[-18,-3],[-28,-214],[-52,-181],[-134,-268],[-70,-49],[36,-110],[-28,-174],[26,-149],[-110,-239],[-69,23],[-259,-72],[168,-245],[29,-101],[60,-89],[48,-166],[-73,-86],[7,-188],[-105,-50],[-121,63],[-23,-46],[129,-277],[49,-5],[122,41],[32,-89],[1,-200],[-25,24],[-4,-123],[-59,-61],[27,-80],[62,19],[40,-81],[32,-5],[20,20],[4,98],[35,39],[74,-127],[69,-189],[274,-161],[77,29],[167,239],[61,-147],[57,-296],[-89,-31],[-99,-150],[-54,-824],[-54,-99],[23,-89],[-82,0],[-20,-54],[-16,-254],[12,-126],[-124,49],[-157,-153],[26,-128],[-18,-107],[-224,100],[-54,-123],[27,-132],[113,-160],[85,-210],[67,-9],[-14,-42],[92,-117],[170,-93],[73,-96],[-1,-311],[-119,-30],[-157,-135],[-82,-8],[-47,-65],[55,-11],[55,-179],[-44,-81],[13,-119],[-18,-19],[-15,-32],[37,-72],[-7,-77],[-32,-46],[-16,-86],[-81,-85],[-14,-89],[-47,1],[-1,-49],[-26,-6],[-4,-90],[-53,-111],[-3,-48],[-4,-96],[22,-123],[-79,-211],[15,-217],[16,-65],[106,-139],[61,-219],[-117,-229],[-51,-163],[-15,-62],[35,-17],[-34,-122],[313,-157],[-42,-185],[41,-24],[-5,-164],[19,-194],[-15,-321],[13,-6],[-5,-139],[-44,-123],[-80,-25],[-20,-74],[65,-31],[4,-48],[-82,-31],[7,-48],[-381,83],[-99,-28],[-84,77],[-67,-5],[-131,-60],[-120,-140],[-528,-223],[-275,-171],[-281,-2],[-27,-42],[21,94],[-13,208],[-151,166],[-136,-12],[-66,78],[75,262],[-94,297],[-389,-22],[-86,-44],[-111,68],[-180,-150],[-65,44],[-57,-93],[4,-43],[-20,-46],[10,-71],[-31,-60],[-2,-241],[-19,-117],[-208,-398],[60,-132],[12,-113],[-80,-159],[-88,11],[-51,-129],[16,-29],[-10,-35],[-41,-78],[-88,3],[-55,100],[-201,150],[-190,-54],[-22,39],[-42,5],[-19,-10],[-48,129],[-45,57],[-61,-158],[-35,-46],[-27,34],[-34,19],[-25,-24],[-12,-81],[-47,-63],[-46,40],[-65,-83],[-16,39],[24,88],[-199,58],[-153,96],[-127,141],[-59,-89],[62,-67],[-40,-97],[64,-188],[37,-49],[-204,-543],[42,-48],[-124,-269],[-87,-38],[-129,-210],[-109,70],[-143,11],[-16,-106],[-137,166],[-81,1],[-47,-221],[45,-84],[-5,-79],[-40,-69],[24,-67],[-22,-64],[-77,-12],[20,-22],[-63,-83],[-61,29],[-10,-47],[22,-27],[-11,-25],[32,-43],[-10,-59],[10,-77],[-51,-21],[-22,-87],[-37,0],[-7,-46],[43,-28],[-48,-139],[-34,-15],[-84,68],[6,99],[-96,9],[7,71],[-269,29],[-110,-291],[-13,17],[47,124],[-23,76],[-33,-77],[-50,24],[-65,-104],[-50,58],[24,39],[-27,40],[-61,8],[-64,-232],[44,-39],[-24,-99],[-156,75],[-59,-32],[-31,-125],[-70,90],[27,-95],[92,-180],[-46,-85],[-32,64],[-75,-123],[-95,81],[8,99],[-50,23],[-22,-218],[-129,-256],[-28,100],[-110,-137],[-22,44],[-64,-66],[8,-55],[-34,-149],[-28,30],[-121,-172],[-87,-198],[79,-159],[-67,-79],[26,-87],[-63,-121],[47,-39],[98,67],[58,-3],[-11,-71],[76,-57],[-7,-96],[18,-128],[70,-150],[113,-85],[166,-55],[-8,-142],[33,-150],[102,-40],[6,49],[89,-17],[12,-48],[56,1],[8,-86],[38,-117],[277,-104],[172,-258],[245,-189],[40,101],[-11,75],[12,33],[89,101],[108,256],[150,126],[30,78],[-7,16],[18,104],[20,38],[84,112],[9,53],[49,54],[17,75],[51,-52],[66,-6],[49,-61],[10,-83],[74,38],[6,-40],[10,-97],[81,6],[1,-63],[222,45],[38,-155],[-16,-117],[41,-128],[84,-8],[40,-75],[214,-13],[8,-38],[-59,-134],[-7,-101],[41,9],[1,-49],[-27,-9],[-5,-204],[-101,-31],[1,-63],[43,-24],[1,-37],[-77,-47],[14,-104],[-31,-42],[15,-109],[55,-40],[20,-97],[-46,-25],[-19,-53],[101,-288],[-95,-71],[-53,64],[1,-52],[-34,24],[3,-68],[-34,-17],[-8,-54],[29,-52],[-11,-227],[35,-49],[-14,-26],[9,-197],[-20,-47],[20,-44],[-28,-1],[-73,-181],[61,-175],[35,7],[-4,-79],[-60,-174],[43,-83],[117,-29],[3,-242],[-5,-90],[8,-149],[25,-87],[-37,-140],[-48,-65],[-25,-132],[-27,-42],[-38,-1],[-95,-69],[-37,-33],[-257,-358],[-124,-38],[-32,-65],[-92,-7],[-182,-186],[67,-490],[38,-144],[-54,-61],[54,-329],[31,34],[257,-60],[12,-295],[138,19],[113,-218],[57,-205],[45,-369],[-117,-528],[114,-137],[32,-298],[135,-35],[-12,-84],[82,-82],[47,-152],[2,-103],[65,-94],[-96,-76],[-24,-231],[-28,-109],[-113,-134],[-89,-192],[-70,-287],[-7,-106],[25,-79],[58,-429],[36,-427],[7,-173],[-14,-100],[49,-241],[1,-263],[70,-329],[-12,-136],[-32,-123],[-15,-152],[7,-138],[-57,-511],[50,-374],[86,-38],[-5,-116],[-33,-38],[54,-169],[-97,-266],[22,-29],[-90,-185],[9,-82],[48,-49],[53,-139],[212,258],[28,-73],[-27,-129],[10,-27],[125,116],[87,-342],[-22,-236],[-25,-2],[-32,-382],[64,23],[4,-181],[29,-95],[-5,-79],[21,-122],[-7,-260],[143,-1168],[3,-368],[-60,-473],[4,-177],[26,-124],[89,-189],[65,-508],[99,-360],[315,-775],[43,-159],[211,-945],[-1,-84],[55,-283],[-4,-65],[-120,-298],[-25,-151],[-215,-410]],[[44601,33792],[-418,423],[-84,-21],[-323,170],[-54,-27],[-15,-8],[-42,-21],[-114,26],[-94,-97],[-35,24],[-15,46],[-20,64],[-41,38],[-112,104],[-81,260],[-34,-90],[-212,-139],[-132,42],[-54,17],[-73,24],[-380,-27],[-42,109],[-86,221],[-6,11],[-73,137],[-75,139],[-107,200],[-32,37],[-187,-61],[-134,35],[-176,171],[-86,85],[-85,194],[-31,41],[-37,-3],[-42,-104],[-16,-15],[-256,-246],[-24,-11],[-162,-64],[-29,17],[-30,16],[-69,38],[-29,-17],[-41,-23],[-27,11],[-76,33],[-118,-13],[-57,-6],[-59,68],[-76,-16],[-134,-97],[-228,-10],[-127,-126],[-92,-21],[-39,-9],[-124,-28],[-27,-70],[-26,-68],[-23,-57],[-170,-73],[-6,1],[-146,10],[-57,85],[-82,-107],[-186,-50],[-111,52],[-67,-43],[-108,28],[-197,-130],[-45,-99],[-39,82],[-31,67],[33,189],[-2,324],[12,32],[9,21],[39,100],[-37,186],[-106,52],[-50,98],[-120,95],[-53,42],[-188,42],[-56,140],[-68,168],[-3,6],[-6,13],[-15,33],[-84,16],[-63,11],[-96,-96],[-96,18],[-235,-120],[-63,158],[-107,-47],[-21,-9],[-137,224],[32,19],[77,45],[83,292],[30,42],[150,60],[86,216],[72,385],[83,140],[11,61],[-34,401],[-25,51],[-71,43],[-51,-55],[-69,-74],[-224,268],[38,148],[-4,20],[-9,38],[-74,23],[-59,-60],[-18,42],[84,138],[-108,83],[-22,17],[-23,58],[-71,180],[-9,21],[-29,168],[7,178],[5,153],[46,183],[56,150],[5,14],[37,100],[35,91],[21,57],[21,57],[14,37],[2,31],[13,156],[122,110],[91,496],[56,74],[180,572],[40,110],[35,8],[21,-67],[14,-42],[179,-48],[120,-102],[221,134],[78,146],[78,-4],[34,82],[107,-85],[41,108],[-10,107],[8,25],[96,304],[12,5],[79,35],[124,55],[18,8],[31,14],[249,198],[131,184],[142,198],[124,487],[-27,160],[-8,42],[-8,47],[-57,337],[-58,173],[-7,136],[-7,133],[-4,1],[-106,36],[-88,131],[-22,52],[-79,446],[-104,169],[-107,-53],[-97,201],[-22,46],[-34,123],[1,64],[40,62],[130,203],[-9,15],[-42,66],[-226,80],[-21,53],[4,23],[6,27],[14,76],[168,454],[-29,108],[22,333],[-25,84],[-3,11],[-15,50],[-21,69],[-6,24],[-48,162],[-37,125],[67,317],[11,54],[-3,6],[-108,173],[-65,-17],[-433,-118],[-575,146],[-28,-20],[-43,-451],[-53,-58],[-267,32],[-37,18],[-149,105],[-4,3],[-72,50],[-63,44],[-97,197],[-70,36],[133,409],[65,110],[44,75],[-1,182],[0,80],[76,449],[244,431],[108,53],[91,210],[42,232],[4,24],[-17,195],[3,377],[-187,92],[0,47],[82,447],[142,283],[1,66],[4,269],[32,123],[-5,28],[-34,193],[-5,30],[102,-41],[1,45],[9,563],[2,133],[-163,282],[-61,105],[7,249],[-48,229],[71,-37],[100,85],[24,6],[218,63],[13,4],[-7,62],[91,110],[95,15],[18,54],[-26,50],[-63,-15],[56,63],[12,34],[17,45],[42,114],[20,53],[140,377],[12,35],[33,260],[198,322],[124,303],[7,15],[104,-33],[15,20],[8,10],[30,41],[36,-6],[111,-17],[2,11],[5,25],[42,215],[164,167],[39,111],[10,29],[11,31],[57,94],[111,185],[40,257],[10,67],[2,67],[-42,190],[-21,56],[-99,107],[-37,208],[-31,179],[-124,377],[-31,93],[-106,117],[-11,11],[-73,39],[-11,-52],[-58,25],[-9,5],[-98,-53],[-11,-6],[-5,2],[-218,108],[-5,-2],[-135,-54],[-10,-3],[-108,73],[-22,47],[-53,168],[17,60],[8,24],[8,28],[16,339],[-215,52],[9,246],[-153,56],[-34,-1],[-55,-311],[-110,-2],[-51,-1],[-27,-1],[42,-89],[-2,-51],[-2,-67],[-4,-107],[-6,-42],[-6,-9],[-108,-151],[-36,-116],[-5,-67],[26,-124],[46,-11],[64,-14],[103,-96],[154,-22],[2,-17],[24,-239],[112,-183],[-20,-471],[-66,-19],[-46,-185],[-307,-42],[-75,54],[-73,53],[-48,34],[-11,8],[-252,-143],[-39,173],[51,44],[47,40],[7,205],[-14,64],[-7,31],[-20,90],[-84,107],[39,115],[2,28],[18,435],[-234,-8],[-109,-72],[-65,315],[84,210],[22,323],[9,146],[-87,863],[-76,118],[-40,60],[-19,126],[33,33],[-38,118],[-29,15],[-85,-139],[-106,-19],[-18,63],[-7,23],[-17,58],[-70,235],[-8,25],[-72,244],[-121,163],[-32,42],[-58,-58],[-62,38],[-186,-87],[-151,-205],[-71,25],[-5,90],[24,115],[-39,659],[-75,101],[-100,136],[-38,51],[-95,226],[-4,8],[-16,38],[-32,191],[-253,122],[-18,192],[-37,43],[-12,14],[3,31],[22,229],[-343,80],[-138,233],[-112,327],[36,115],[-16,98],[-8,47],[-23,134],[-46,12],[-4,1],[-17,103],[-14,88],[-85,131],[14,117],[-38,15],[-74,27],[-64,-153],[-110,-4],[-58,-244],[56,-92],[-200,-181],[-70,39],[-72,-50],[-109,24],[-52,-175],[-159,54],[-34,-23],[-125,-157],[15,-38],[-39,-91],[21,-56],[-36,-102],[-70,-30],[-60,171],[-138,79],[-51,93],[-25,-35],[-37,114],[-28,-13],[-36,-320],[-8,-16],[-95,-186],[-33,29],[64,143],[-46,86],[47,254],[-30,219],[-340,-349],[-114,-117],[-116,-119],[-111,-113],[-122,-125],[-532,-547],[-95,-87],[-96,-89],[-82,-77],[-32,-30],[-4,7],[-14,34],[-16,36],[-83,-134],[-107,15],[-26,-46],[-53,63],[-40,49],[-152,-66],[-146,-64],[-2,28],[-6,91],[103,73],[-21,117],[22,359],[-77,8],[-20,57],[7,46],[64,26],[-26,260],[-102,-95],[-11,-65],[-71,-58],[-33,35],[-106,-72],[-63,12],[-53,11],[-274,264],[-16,157],[-107,-82],[32,221],[-39,191],[-4,6],[-117,255],[-177,139],[-88,35],[-140,55],[-48,-95],[-142,-52],[-143,96],[-38,4],[-38,-20],[10,-333],[-67,-240],[-296,-79],[99,364],[-42,260],[-244,203],[-47,-228],[-140,-109],[-252,69],[-142,102],[-26,-3],[-200,-21],[-85,-130],[-71,-34],[-108,142],[-91,-372],[-34,23],[-124,85],[-66,-20],[-38,-12],[-4,58],[-187,83],[-59,-57],[-2,-3],[29,-145],[-109,41],[-6,-66],[-63,-24],[-16,-29],[-2,-132],[-68,-150],[-55,-31],[94,-146],[-66,-66],[-22,-57],[-42,-107],[24,-68],[31,-88],[22,6],[9,2],[18,5],[-27,-31],[-51,-60],[-6,-8],[5,-201],[-19,-190],[-102,3],[-10,-182],[-8,-153],[7,-134],[65,-164],[-30,-122],[16,-127],[-94,-262],[23,-117],[75,-104],[-30,-125],[-64,3],[-4,-67],[-181,129],[-36,106],[8,223],[-43,113],[-194,192],[-63,-10],[-23,-38],[37,-363],[2,-8],[7,-25],[135,-106],[47,-254],[-41,-94],[9,-104],[95,-102],[-259,-135],[-33,66],[-33,63],[-8,32],[-55,206],[-129,252],[-29,44],[-102,92],[-31,-22],[-29,44],[-12,62],[6,67],[38,83],[-29,41],[-274,241],[-2,24],[0,12],[4,-2],[139,-67],[48,77],[4,-108],[36,-14],[31,195],[-16,58],[-112,54],[-50,137],[-66,34],[-3,43],[-8,141],[-130,88],[3,111],[-49,69],[-5,133],[-78,2],[-57,157],[112,419],[-154,264],[-71,43],[-19,188],[-114,10],[4,125],[38,13],[26,114],[-3,771],[-11,134],[-63,241],[-75,30],[-117,174],[2,181],[22,53],[-15,172],[114,160],[85,230],[13,36],[-8,61],[44,163],[36,7],[-22,46],[31,132],[35,147],[8,36],[44,36],[6,4],[12,10],[32,89],[7,21],[-1,19],[-9,108],[-22,254],[10,301],[1,9],[2,77],[9,134],[18,40],[3,5],[23,52],[-29,122],[-28,120],[8,154],[1,24],[9,153],[-18,105],[-72,435],[3,199],[52,82],[4,123],[-96,97],[-2,997],[19,114],[-49,155],[-7,21],[-104,71],[-115,265],[12,113],[-27,48],[50,167],[-11,55],[10,35],[2,7],[9,20],[69,166],[12,28],[-48,199],[-22,91],[-35,54],[-74,109],[-64,206],[-27,88],[-30,35],[-33,-30],[-87,115],[-105,-51],[-19,-85],[-33,36],[-87,205],[-74,176],[-134,460],[-24,80],[-17,97],[-36,209],[49,57],[-144,202],[-83,117],[-138,192],[-112,276],[-184,456],[-10,24],[-8,19],[-24,9],[-8,3],[-277,-318],[-113,-129],[-159,-41],[-34,-9],[-11,5],[-64,28],[-92,59],[-11,7],[-40,240],[-160,167],[14,139],[-90,121],[-35,24],[-210,-234],[-68,39],[-280,-62],[-124,-27],[-70,-145],[-70,-48],[-32,6],[-10,6],[-163,99],[-57,-48],[-30,-25],[-74,8],[-28,4],[-42,4],[-53,-36],[-40,-27],[-114,-212],[-144,-69],[-126,-132],[-154,-164],[-63,158],[-1,8],[-34,310],[10,26],[34,80],[-14,53],[-68,253],[73,186],[138,352],[-15,56],[160,150],[113,182],[31,50],[45,71],[64,690],[44,169],[-58,78],[-151,72],[-80,141],[-51,35],[-71,47],[-14,63],[-33,13],[-69,27],[-6,-1],[-43,-6],[-17,-3],[-38,-6],[-59,-27],[-17,-8],[-95,-92],[-184,209],[-72,-15],[-196,208],[-127,-59],[11,-115],[-12,-21],[-31,-55],[-37,-64],[-26,-127],[-128,-253],[-130,-147],[-109,-256],[9,-217],[2,-42],[-96,-334],[18,-110],[-40,-191],[-38,-42],[-45,-48],[-57,67],[-56,-18],[-34,94],[-64,-49],[-5,-4],[-34,229],[-92,-56],[-50,-115],[-109,-249],[-302,-167],[-70,30],[-198,-184],[-5,-30],[-14,-79],[-58,-16],[-18,-5],[-79,-14],[-147,-27],[-29,-95],[-13,-44],[-94,119],[-25,30],[-48,-99],[-98,-205],[-148,-112],[-29,-21],[-83,-125],[-72,44],[-93,145],[-4,7],[-36,55],[-10,107],[-15,145],[-113,173],[-35,112],[-52,163],[-69,38],[-628,342],[-67,-45],[-164,17],[-47,97],[14,243],[-30,99],[-50,-60],[-131,432],[-216,-2],[-200,94],[-97,101],[-48,49],[-154,159],[-54,-22],[-174,290],[11,189],[4,81],[-51,84],[-14,198],[-158,250],[68,421],[-34,253],[-44,333],[112,37],[-41,264],[-63,-7],[-84,230],[257,268],[-52,101],[-142,83],[-9,57],[4,131],[1,21],[12,377],[10,48],[75,14],[28,190],[-44,167],[-50,196],[-86,128],[7,293],[1,55],[6,246],[35,29],[-5,17],[-29,92],[11,47],[20,83],[44,178],[-133,92],[43,253],[-55,42],[-11,252],[-2,54],[-71,15],[-7,64],[-14,267],[-9,166],[-98,271],[-95,119],[3,95],[0,19],[-156,199],[19,60],[-92,110],[89,379],[9,38],[8,130],[-177,290],[-24,157],[-33,29],[-176,354],[137,460],[-2,54],[-8,143],[-107,151],[44,78],[-9,24],[-6,18],[-118,325],[-44,118],[46,252],[7,39],[-1,52],[-3,255],[-2,178],[277,360],[78,25],[68,21],[100,102],[75,-7],[57,85],[-136,223],[-67,344],[8,39],[5,25],[-42,51],[-47,57],[-10,37],[-46,185],[7,134],[9,6],[40,29],[49,34],[111,-45],[-69,339],[69,424],[-265,263],[-5,152],[0,10],[-65,185],[-18,50],[-53,149],[-16,46],[-6,7],[-11,11],[-4,5],[-7,7],[-52,-25],[-100,-47],[-77,-1],[-9,9],[-22,25],[-26,29],[-115,-29],[-10,-2],[-69,-17],[-27,-7],[-124,-150],[-3,-4],[-33,-40],[-33,8],[-44,180],[-69,22],[-139,44],[-32,-63],[-37,-71],[-99,90],[26,28],[6,5],[64,69],[28,250],[-35,121],[-69,78],[-10,11],[-20,23],[-25,-35],[-146,54],[-46,67],[-34,49],[-59,86],[-57,83],[-13,19],[20,263],[120,172],[75,237],[0,131],[-61,134],[-11,24],[-71,52],[-30,98],[-133,76],[-65,309],[-1,264],[-38,113],[-27,89],[-33,110],[-77,261],[-67,82],[10,9],[109,-73],[51,55],[60,201],[40,-89],[85,-115],[23,8],[16,-40],[25,42],[81,52],[105,95],[130,138],[72,62],[194,84],[64,119],[155,194],[31,-69],[33,29],[64,-27],[72,3],[30,-101],[44,-38],[139,-205],[49,-93],[82,-100],[18,-117],[211,76],[31,-108],[97,-145],[67,-54],[107,-128],[129,-43],[33,-42],[354,7],[139,91],[54,1],[140,-20],[-7,-142],[41,-15],[36,12],[10,-30],[75,53],[0,64],[72,155],[112,24],[125,108],[420,-1051],[78,-161],[20,-6],[-40,-94],[44,-74],[-42,-52],[25,-96],[35,-44],[-1,-52],[85,-100],[33,-71],[-88,-437],[-55,-154],[4,-70],[52,33],[46,-26],[189,-308],[17,-60],[28,14],[10,-55],[57,-5],[43,27],[20,-26],[34,35],[21,-60],[17,-48],[37,-28],[39,-1],[34,-30],[51,29],[7,-142],[38,-11],[-3,-28],[65,-42],[225,-243],[9,118],[-5,215],[20,71],[44,64],[81,215],[-67,52],[2,39],[48,134],[98,190],[0,148],[31,51],[80,76],[101,34],[310,22],[94,76],[70,-6],[37,23],[15,33],[-7,33],[-41,38],[-23,41],[13,33],[59,-9],[45,15],[48,-3],[23,20],[2,42],[-46,59],[26,91],[16,126],[45,28],[32,115],[59,84],[-1,42],[-19,14],[-29,11],[19,114],[18,73],[-26,100],[7,43],[64,130],[53,45],[155,8],[173,-86],[81,4],[78,35],[61,49],[-13,63],[19,28],[50,26],[25,33],[27,15],[33,-56],[23,-5],[41,56],[26,72],[-56,105],[-13,63],[28,111],[-63,55],[-18,64],[21,96],[32,18],[23,-55],[24,-84],[80,-47],[54,25],[9,52],[-42,44],[-60,27],[-6,52],[24,58],[83,82],[100,-18],[29,-119],[61,39],[67,2],[47,77],[91,-29],[28,37],[3,56],[-43,57],[62,84],[66,173],[-15,51],[-76,45],[-18,44],[-3,152],[16,228],[17,57],[36,15],[19,-26],[-19,-212],[6,-52],[115,-119],[-32,-92],[22,-56],[-18,-138],[9,-22],[196,217],[79,-147],[158,-139],[93,151],[17,-58],[68,-52],[-93,-116],[-5,-43],[70,-43],[32,0],[36,22],[141,-34],[126,-76],[125,-8],[49,26],[48,69],[100,20],[28,-21],[110,-9],[37,32],[13,32],[73,16],[41,42],[144,65],[51,82],[143,122],[184,77],[94,-14],[83,-49],[32,-78],[-38,-147],[-40,-132],[20,-155],[257,-767],[-55,-33],[17,-159],[-2,-110],[-30,-224],[-12,-79],[7,-66],[-44,-51],[-85,-256],[21,-48],[2,-56],[75,-37],[56,3],[80,22],[61,43],[10,54],[113,34],[108,-22],[114,-338],[32,17],[26,-62],[78,-80],[89,58],[72,50],[49,-3],[17,26],[43,31],[107,-53],[80,21],[52,-65],[57,-5],[32,34],[45,4],[97,103],[60,86],[52,39],[139,-45],[101,33],[26,-35],[62,34],[27,-50],[35,-45],[51,-32],[10,-52],[-14,-42],[20,-129],[36,-42],[71,-111],[42,-104],[56,-48],[40,-90],[58,-21],[32,11],[112,-105],[59,91],[95,21],[118,-9],[21,95],[9,673],[37,274],[-20,150],[467,674],[0,149],[38,109],[-5,315],[151,-16],[67,58],[147,293],[-15,28],[31,101],[-65,44],[25,28],[-74,187],[218,241],[-57,117],[64,159],[18,117],[58,-67],[61,106],[65,-133],[106,201],[10,75],[69,-21],[62,37],[24,-6],[73,-102],[14,54],[123,203],[61,107],[16,47],[26,23],[27,52],[43,59],[62,98],[84,-114],[-4,-37],[-69,-124],[-15,-66],[-1,-45],[-18,-72],[-10,-90],[21,-54],[32,30],[42,-34],[61,-65],[-86,-189],[51,-116],[12,-48],[19,-37],[29,2],[122,91],[184,109],[134,63],[29,-58],[111,5],[58,-29],[-6,88],[51,82],[42,129],[26,41],[33,-8],[20,22],[118,-44],[38,79],[23,85],[68,124],[105,81],[27,52],[23,33],[22,-116],[-9,-89],[-42,-173],[-55,-44],[-53,-125],[-13,-57],[0,-63],[54,-105],[65,-97],[26,-64],[-4,-59],[13,-82],[32,-89],[13,-73],[-4,-120],[22,-71],[35,-53],[29,-9],[70,-148],[28,4],[57,-83],[-8,-33],[58,-96],[10,-40],[0,-65],[34,-10],[29,-33],[1,-75],[-27,-31],[0,-39],[97,-332],[32,30],[35,-60],[36,52],[91,63],[32,-44],[27,6],[40,-47],[75,57],[73,14],[22,-14],[117,70],[51,7],[93,30],[262,23],[76,-42],[52,71],[22,-72],[23,-266],[50,-123],[26,17],[144,-50],[62,-59],[53,-91],[166,80],[98,-143],[69,118],[83,188],[27,25],[56,3],[44,24],[96,199],[36,-22],[62,-75],[17,-3],[-11,66],[6,62],[16,-12],[22,-115],[31,17],[15,44],[-39,150],[-2,43],[13,64],[23,-31],[26,-140],[16,1],[11,49],[8,36],[21,27],[23,-83],[117,-144],[26,91],[23,-7],[66,-72],[68,101],[15,-14],[93,35],[87,136],[79,-58],[41,-24],[27,-34],[66,-108],[60,-197],[19,-45],[-23,-80],[30,-35],[40,-75],[29,-20],[35,-90],[-5,-22],[10,-52],[19,11],[56,-158],[18,6],[36,-117],[-177,-150],[35,-117],[50,-41],[-50,-228],[84,-53],[1,-32],[-23,-118],[-30,-53],[-12,-220],[-53,-211],[4,-57],[-22,-82],[-3,-95],[-16,-112],[-38,-120],[-13,-64],[-24,-95],[18,-70],[15,-118],[79,-37],[30,51],[41,33],[53,-130],[128,128],[1,-250],[34,-75],[25,8],[-11,-90],[57,-67],[62,-160],[41,-34],[30,-121],[89,-129],[-19,-68],[-57,-190],[-30,-217],[16,6],[51,-111],[39,11],[36,76],[-14,43],[19,29],[64,-75],[38,67],[24,-20],[83,83],[-3,-72],[38,-39],[11,48],[-13,51],[53,20],[1,108],[49,7],[53,-41],[-11,-81],[61,-50],[-29,-159],[39,-131],[123,87],[104,-97],[50,25],[54,87],[76,-15],[82,4],[105,-36],[37,-59],[70,-33],[72,45],[70,-28],[107,44],[167,57],[106,-157],[213,1],[88,-60],[129,1],[102,197],[48,150],[80,95],[26,74],[51,61],[-6,31],[71,89],[63,28],[74,54],[42,106],[45,-58],[49,26],[-13,-76],[30,-142],[29,-29],[33,-100],[28,-34],[65,88],[81,-63],[222,-34],[56,24],[154,233],[172,209],[109,129],[111,18],[67,-40],[99,-462],[35,-56],[244,874],[10,89],[46,111],[73,243],[19,-47],[29,-27],[106,25],[18,29],[104,23],[55,-5],[22,39],[49,96],[15,-29],[-34,-114],[141,-350],[68,80],[70,-75],[10,-44],[37,-40],[13,17],[34,-57],[41,31]],[[4429,99887],[71,-182],[29,18],[17,-38],[54,58],[151,-105],[99,-367],[-142,-250],[-7,-44],[-20,-55],[-15,-213],[38,-127],[134,-273],[-34,-54],[-14,-90],[-2,-139],[24,-57],[-25,-103],[8,-42],[73,13],[79,-122],[91,48],[141,-197],[73,6],[8,-106],[-218,-167],[-91,-244],[-9,11],[-11,16],[-73,18],[-32,-33],[23,-179],[-51,-118],[-11,-22],[-12,-17],[-177,-215],[-16,-25],[-10,-18],[-9,-19],[-14,-23],[-14,-13],[-52,-34],[-20,-19],[-125,-130],[12,-28],[-44,-81],[-41,-55],[-13,-15],[-3,-18],[-10,3],[-33,-37],[-249,-193],[-66,-59],[-67,-245],[-150,-221],[-115,-53],[-42,7],[-152,25],[-5,107],[-4,81],[-102,70],[-4,-68],[-44,49],[-9,-7],[-133,-94],[-6,-11],[-14,-28],[-45,-93],[-30,-62],[-58,-118],[-119,-130],[-45,-49],[-59,-80],[-18,-130],[20,-261],[9,-63],[34,-38],[61,-68],[5,-24],[84,-390],[-54,-47],[-50,-44],[-112,-19],[-3,0],[-146,-118],[-60,-247],[35,-543],[3,-48],[-23,-348],[-12,-183],[-30,-123],[-90,-116],[-11,-79],[-26,-180],[-10,-14],[-47,-73],[-299,78],[-77,-143],[13,-326],[11,-44],[30,-116],[1,-6],[3,-10],[-8,-52],[-12,-72],[-14,-11],[-14,-10],[-109,-84],[-129,67],[-10,5],[-60,82],[-16,42],[-234,633],[-7,20],[-77,208],[-29,16],[-25,-40],[-69,-112],[-9,-14],[-67,-108],[-149,73],[-95,-61],[-11,-7],[-23,65],[-7,19],[-11,30],[-41,117],[-111,183],[178,362],[-150,222],[-64,172],[-54,260],[-60,-18],[-138,217],[-57,195],[-133,288],[-111,371],[70,81],[42,113],[33,7],[33,95],[115,76],[-133,428],[-82,150],[-81,255],[135,155],[125,48],[34,94],[16,-22],[41,201],[119,-2],[297,174],[30,-404],[201,-23],[24,45],[-12,222],[-58,257],[59,25],[36,-110],[22,-40],[25,-36],[35,-46],[12,-39],[10,-19],[58,-47],[23,-163],[62,-126],[36,41],[138,-82],[72,3],[105,110],[342,87],[250,131],[17,9],[-18,86],[-7,18],[-39,67],[-47,91],[-10,10],[-6,26],[1,74],[-8,49],[29,90],[439,333],[296,288],[68,34],[47,15],[38,6],[173,26],[94,23],[-31,112],[17,140],[23,39],[-1,101],[5,25],[-4,46],[-21,9],[-48,192],[-65,49],[4,36],[-28,41],[-41,54],[-38,152],[-145,347],[-256,137],[-9,55],[133,73],[179,11],[123,192],[103,13],[10,-29],[98,55],[88,176],[60,130],[40,13],[29,33],[171,49],[62,2],[77,25],[299,227],[262,307],[29,24]],[[61065,95324],[57,-33],[184,-207],[57,-63],[67,-109],[22,-77],[30,45],[67,-149],[126,-66],[83,-119],[105,-112],[-29,-80],[-52,-96],[-5,7],[32,-68],[-103,-141],[128,-215],[-45,-173],[23,-43],[13,-126],[-35,-77],[29,-32],[-68,-145],[58,-51],[48,-60],[101,-198],[140,-278],[74,32],[13,-89],[35,22],[-6,40],[39,18],[16,-76],[28,9],[13,-52],[33,41],[13,-29],[-68,-85],[63,-212],[18,-38],[45,-22],[10,-35],[28,-26],[18,-33],[-31,-57],[48,-115],[141,202],[72,-39],[94,-33],[57,-213],[84,96],[64,-43],[43,-96],[57,-67],[104,-40],[78,125],[26,-7],[21,48],[31,-31],[0,216],[22,52],[37,32],[80,51],[59,-3],[50,-71],[58,-26],[140,-91],[28,74],[24,-12],[22,10],[207,-158],[-18,-52],[60,-79],[108,-89],[-27,-109],[66,-60],[16,28],[119,-178],[163,-130],[113,-138],[50,3],[162,217],[166,-205],[38,1],[38,-12],[152,243],[116,123],[181,344],[-56,89],[27,14],[-113,406],[12,9],[-29,107],[0,112],[-174,-23],[-38,96],[21,44],[-20,31],[78,240],[-37,34],[32,104],[-27,23],[15,53],[134,-109],[19,73],[0,130],[45,-19],[-4,-75],[91,-116],[20,54],[53,-109],[18,27],[-4,-45],[30,51],[43,-75],[87,-46],[24,-81],[48,-34],[-7,-53],[27,-17],[57,-13],[66,104],[24,79],[157,62],[28,70],[42,-9],[8,35],[115,-4],[63,-69],[49,69],[294,-6],[101,-239],[21,24],[11,-29],[86,106],[44,125],[23,270],[68,233],[12,-63],[13,-178],[28,-96],[-20,-109],[85,-352],[64,1],[62,-36],[83,-10],[200,-82],[50,6],[4,53],[51,41],[41,-4],[49,22],[68,76],[-28,21],[21,41],[-18,20],[16,46],[-14,19],[80,111],[-10,16],[55,97],[43,17],[-9,221],[114,34],[34,128],[23,-32],[7,127],[148,-118],[-7,-25],[58,-69],[-9,-32],[50,-42],[-16,-38],[63,-43],[17,47],[35,-12],[19,29],[21,-40],[43,49],[18,-101],[58,27],[34,-89],[35,38],[44,-106],[-21,-36],[19,-35],[39,51],[36,-96],[-29,-44],[119,-308],[6,43],[45,42],[11,68],[23,6],[7,-46],[29,62],[22,-14],[19,15],[20,62],[-38,105],[25,45],[-54,211],[41,48],[11,64],[40,80],[71,218],[69,-70],[245,298],[242,235],[468,841],[494,41],[22,-34],[37,14],[49,-39],[24,-47],[55,-120],[18,-101],[25,-45],[171,224],[205,223],[82,-302],[22,-304],[-9,-118],[34,-267],[61,42],[82,-5],[35,-29],[41,13],[22,-253],[-12,-286],[34,-3],[6,-43],[27,-16],[1,-29],[91,-14],[1,-64],[30,-49],[-12,-29],[25,-43],[192,-111],[-20,-99],[28,-40],[2,-33],[110,-116],[29,69],[9,39],[27,-37],[143,249],[101,-261],[17,-120],[97,290],[52,-75],[52,105],[10,-36],[82,-11],[5,31],[137,-24],[13,-112],[34,-20],[95,46],[54,74],[-63,106],[61,136],[-36,65],[29,104],[56,-49],[19,103],[50,66],[40,67],[75,76],[-79,440],[67,29],[-16,153],[141,16],[25,-148],[-9,-37],[95,-132],[56,16],[73,-115],[3,-254],[-4,-74],[-23,-88],[24,-48],[-19,-59],[-26,-61],[131,-172],[79,156],[60,60],[149,85],[50,-20],[29,57],[9,83],[71,127],[410,434],[102,129],[163,280],[47,-83],[45,98],[17,-46],[50,67],[-20,48],[24,48],[-147,277],[33,101],[-20,54],[52,105],[-62,106],[38,170],[22,-6],[35,80],[-33,88],[23,158],[110,50],[31,-28],[-3,-66],[38,18],[45,-44],[10,-44],[55,-5],[-14,101],[14,56],[86,-26],[60,15],[84,-45],[133,11],[47,26],[28,19],[17,63],[26,2],[-3,45],[48,-11],[44,278],[85,-36],[16,98],[133,-61],[33,18],[99,-35],[42,34],[71,-1],[-10,49],[13,124],[18,50],[49,15],[-5,68],[3,85],[20,89],[28,34],[12,43],[112,37],[48,84],[85,-83],[17,-22],[0,-24],[27,-27],[64,93],[26,-46],[26,45],[20,-70],[56,-92],[29,39],[-59,150],[27,72],[50,33],[30,-67],[229,271],[26,-70],[65,109],[14,-29],[18,24],[88,-149],[13,16],[-46,104],[25,49],[-35,64],[-22,-33],[-41,94],[124,139],[139,258],[77,-87],[53,48],[96,-120],[17,71],[69,-61],[30,44],[-12,29],[122,187],[117,32],[53,81],[179,350],[55,89],[39,191],[101,292],[-49,67],[36,121],[-9,33],[15,24],[59,219],[14,-17],[72,-13],[6,66],[62,-15],[18,-25],[43,7],[205,-61],[33,65],[60,34],[-16,103],[62,33],[22,-137],[1,-61],[71,6],[-5,54],[112,44],[139,-193],[53,9],[28,96],[-16,137],[16,75],[-31,134],[19,153],[59,-15],[31,39],[35,-10],[10,-3],[5,-2],[15,-4],[1,-62],[14,-33],[76,-167],[36,-80],[34,-138],[-16,-153],[-57,-164],[-9,-19],[-18,-35],[-20,-43],[-4,-8],[-22,-46],[-29,-60],[-37,-105],[-5,-125],[75,-207],[24,-68],[33,-221],[86,-212],[28,-67],[21,-49],[14,-195],[-45,-287],[-54,-196],[-50,-262],[-82,-214],[-221,-466],[-76,-267],[-10,-199],[27,-201],[66,23],[77,-215],[37,-8],[3,-78],[71,-9],[7,48],[55,-24],[1,-43],[55,-49],[76,-5],[5,29],[41,-16],[4,16],[73,-43],[-6,49],[91,-46],[201,-206],[38,55],[112,-87],[15,52],[38,-23],[-18,-85],[48,-36],[24,99],[37,-67],[41,9],[-27,171],[53,40],[12,84],[-25,126],[17,54],[46,47],[25,-92],[57,8],[-9,99],[31,18],[-23,43],[36,-11],[1,77],[22,17],[2,-49],[106,15],[1,60],[157,-63],[28,-24],[-6,-99],[97,-53],[-39,-174],[13,-11],[-24,-73],[44,-118],[-12,-67],[74,-92],[608,465],[54,-123],[140,-89],[288,-291],[76,-132],[77,-282],[69,-103],[11,21],[76,-164],[21,48],[73,-29],[-11,-30],[33,-68],[-2,-45],[-40,-39],[14,-60],[-60,-74],[12,-50],[256,-575],[40,-21],[48,-347],[47,-118],[-33,-157],[171,-71],[49,-71],[418,63],[181,130],[306,28],[145,92],[207,-75],[92,-135],[150,-90],[230,-277],[46,98],[77,366],[64,142],[63,33],[74,269],[233,424],[62,195],[184,378],[-27,53],[-40,269],[-73,98],[20,127],[-138,74],[-29,135],[-105,-49],[-32,70],[-158,499],[-12,115],[60,133],[86,-54],[11,-20],[5,-9],[62,-111],[81,-91],[27,-6],[51,153],[-18,31],[46,109],[70,-12],[32,50],[23,-107],[57,72],[74,44],[7,-84],[44,-7],[-22,-208],[23,-98],[122,28],[46,21],[259,421],[69,-12],[66,7],[15,2],[81,89],[62,-1],[82,39],[38,48],[27,58],[43,4],[106,45],[41,-31],[89,111],[22,19],[5,5],[42,36],[54,0],[27,-31],[186,-87],[134,-95],[48,-121],[-13,-211],[22,-19],[41,-34],[35,6],[28,5],[110,-125],[5,-6],[41,28],[7,5],[176,-32],[92,14],[68,43],[62,-43],[6,-5],[41,32],[43,33],[19,14],[37,-8],[58,16],[148,42],[46,29],[51,-5],[52,-9],[65,-3],[53,-46],[11,-90],[9,-9],[188,-202],[53,-56],[23,-26],[218,-234],[45,-51],[-28,-239],[5,-21],[32,-139],[-19,-189],[-68,-137],[-67,-136],[-28,-56],[23,-63],[6,-20],[-47,-126],[24,-179],[-25,-122],[2,-11],[2,-8],[12,-55],[37,-93],[62,26],[-29,-91],[-7,-276],[9,-17],[17,-30],[46,-81],[27,9],[29,9],[14,5],[46,394],[42,360],[113,-166],[53,-32],[172,-104],[47,-27],[31,-18],[101,-59],[194,-116],[89,-59],[177,17],[235,23],[55,55],[8,8],[41,41],[98,-180],[82,200],[258,-13],[98,-5],[3,44],[50,-40],[76,-62],[73,-126],[37,-62],[27,-125],[2,-12],[42,-198],[0,-18],[-3,-42],[45,-132],[42,-125],[-1,-96],[-1,-56],[-6,-19],[-8,-25],[-22,-76],[-8,-24],[155,-349],[23,-53],[99,-221],[4,-161],[20,-62],[65,-126],[88,-65],[4,-105],[33,-111],[23,-22],[18,-17],[46,-100],[-37,-136],[49,-296],[5,-33],[-4,-90],[33,-19],[6,-15],[26,-71],[48,-50],[15,-133],[66,-59],[29,-31],[5,-5],[123,-133],[0,-16],[0,-33],[0,-22],[5,-30],[6,-18],[12,-26],[10,-15],[15,-17],[17,-12],[24,-14],[18,-9],[18,-9],[23,-17],[13,-22],[10,-40],[-3,-19],[-8,-42],[-21,-24],[-5,-4],[50,-262],[42,-223],[9,-25],[10,-26],[7,-16],[3,-10],[120,-289],[93,-171],[150,-143],[129,-180],[-53,-173],[68,-64],[-29,-135],[-29,-24],[-80,-156],[-6,-24],[-6,-4],[-5,13],[-9,10],[-11,3],[-11,-10],[-16,-25],[-10,-10],[-10,4],[-8,14],[-5,16],[-6,19],[-6,6],[-8,-6],[-14,-13],[-36,-43],[-16,-8],[-8,9],[-7,23],[-8,17],[-11,5],[-9,2],[-13,-3],[-32,-16],[-68,-44],[32,-65],[147,-301],[197,-396],[16,-33],[69,-86],[-88,-287],[-129,-94],[16,-107],[114,-114],[35,-35],[11,-11],[106,203],[88,74],[-42,204],[71,7],[47,136],[22,65],[58,82],[37,-86],[59,-5],[62,-92],[87,75],[14,13],[61,-47],[63,-49],[37,24],[72,-20],[78,-1],[61,62],[33,-29],[88,-81],[273,-252],[129,-119],[31,23],[530,69],[149,108],[167,-100],[53,-95],[22,-40],[-9,-479],[-44,-120],[-163,-454],[-49,-136],[-144,-206],[-139,-128],[-16,-29],[-23,-34],[-9,-28],[-12,-40],[-4,-39],[-2,-29],[58,-349],[-102,-321],[-65,-202],[-22,-99],[-47,-224],[-26,13],[-25,18],[-22,17],[-27,19],[-230,172],[-51,7],[-68,9],[-75,-264],[-10,-181],[-86,-245],[-84,-105],[-35,-42],[-188,-233],[-15,-18],[-37,9],[-10,-91],[21,-28],[-82,-185],[-1,-54],[23,-40],[-28,-94],[-12,-38],[-245,-226],[-50,-46],[-18,-17],[-73,46],[-7,-121],[-68,-23],[-140,-259],[-203,-250],[-8,-79],[55,-27],[66,-160],[-12,-944],[69,-44],[107,42],[122,-96],[33,-100],[166,-212],[39,6],[6,-11],[-33,-390],[-113,-9],[-137,-289],[-1,-60],[69,-119],[26,-161],[45,-119],[214,26],[51,-45],[119,14],[11,23],[7,-34],[10,-44],[39,-226],[118,-128],[-95,-70],[29,-119],[32,-3],[53,-5],[27,-144],[49,-234],[25,-118],[34,-42],[53,-50],[11,-115],[64,-173],[1,-71],[-10,-51],[-62,-90],[113,-249],[16,-17],[43,-45],[40,32],[88,185],[142,78],[59,14],[97,23],[77,121],[143,150],[73,75],[54,-57],[29,-266],[11,1],[93,7],[102,-35],[17,37],[110,245],[40,68],[48,80],[141,-174],[96,67],[92,2],[98,-323],[354,-99],[226,201],[95,84],[142,-181],[2,-93],[38,-58],[28,-43],[118,-131],[38,7],[7,-24],[14,-47],[26,-11],[70,-17],[61,-13],[31,-33],[29,-11],[20,-8],[27,-32],[15,-22],[5,-22],[1,-38],[5,-16],[29,-92],[16,-56],[21,6],[27,-9],[20,0],[38,27],[21,16],[46,-2],[110,-20],[59,-14],[24,15],[18,-23],[34,-27],[14,-4],[13,-14],[16,-10],[-2,-22],[-14,-13],[-18,9],[-6,-6],[-5,-36],[-29,-31],[-14,-2],[-18,-28],[-28,-19],[-24,-43],[-29,-54],[-9,-23],[-15,-20],[-51,-59],[-8,-13],[-5,-24],[-7,-16],[-5,-14],[-3,-27],[2,-64],[6,-163],[3,-59],[1,-24],[-1,-27],[-5,-27],[-22,-65],[-58,-120],[-7,-10],[-11,-15],[-4,-13],[0,-22],[11,-30],[2,-33],[-2,-32],[1,-30],[8,-30],[12,-24],[13,-7],[18,4],[20,1],[13,-1],[9,-5],[5,-12],[7,-14],[6,-32],[8,-28],[14,-38],[7,-16],[7,-11],[1,-15],[-2,-20],[12,-40],[8,-21],[-3,-33],[-15,-70],[-13,-61],[-6,-46],[-12,-32],[-8,-25],[-8,-44],[-13,-33],[-9,-35],[-13,-72],[-1,-17],[7,-30],[56,-71],[20,-15],[17,-36],[25,-76],[26,-50],[18,-12],[33,-8],[12,-4],[12,-9],[36,-90],[7,-18],[9,-13],[23,-16],[23,-13],[30,-14],[15,-8],[15,-1],[31,-3],[8,0],[10,8],[17,14],[11,3],[12,-9],[78,-120],[12,-15],[18,-17],[53,-37],[97,49],[155,78],[73,-252],[13,-78],[15,-172],[58,-633],[-24,-67],[28,-30],[-13,-172],[-32,-412],[-10,-43],[-45,-99],[-4,-120],[-117,-375],[-79,-257],[-6,-60],[92,-714],[-4,-64],[-67,-291],[-64,-279],[-144,-247],[-69,-183],[-21,-353],[-253,-393],[-35,-55],[-122,-398],[130,-132],[28,-29],[84,-156],[47,-130],[52,-49],[53,-9],[121,-146],[77,-223],[34,-77],[-25,15],[25,-75],[62,-159],[9,-103],[66,-163],[-19,-51],[-5,-36],[-29,-56],[-11,-32],[26,-54],[53,50],[19,-47],[36,13],[41,-12],[6,-65],[20,22],[56,-180],[21,60],[64,-170],[16,7],[29,-38],[9,2],[42,59],[23,-37],[9,-13],[20,-31],[-9,-9],[-4,-5],[12,-22],[13,-26],[-3,-29],[34,-61],[25,50],[89,-128],[203,-295],[15,-27],[9,-15],[13,-32],[13,-44],[19,-141],[3,-130],[6,-194],[2,-13],[6,-21],[8,-14],[10,-13],[4,-3],[135,-72],[27,-39],[11,-40],[11,-45],[-11,-115],[-11,-121],[-9,-126],[-7,-85],[-13,-153],[-13,-144],[-16,-155],[-39,-16],[-9,-4],[-48,-19],[-62,-25],[-89,-36],[-33,-12],[-158,-57],[-191,73],[-12,-12],[-6,-6],[-28,-30],[14,-160],[0,0],[0,0],[-74,-4],[-75,-117],[-1,-100],[1,-38],[6,-78],[-34,-94],[-129,-65],[-39,22],[-56,33],[-157,91],[-1,-4],[-2,-6],[-2,-51],[0,0],[-1,-3],[-1,-26],[0,0],[-14,-6],[-6,-3],[-17,-9],[-8,-4],[-11,-19],[-3,12],[-7,27],[0,-3],[-3,-12],[-2,-19],[-2,-14],[3,-45],[4,-34],[1,-9],[2,-18],[5,-42],[0,0],[-20,31],[-9,-2],[-7,-2],[-2,-1],[41,-84],[0,0],[-28,-26],[17,-39],[1,-2],[3,-4],[3,-4],[21,-22],[9,-30],[6,-46],[1,0],[6,-39],[16,-24],[3,-3],[14,-16],[8,-21],[7,-18],[3,-4],[11,-17],[18,-35],[-3,-4],[-4,-6],[-17,21],[-32,43],[-3,5],[-3,1],[-25,10],[-19,20],[-11,12],[-19,29],[-6,24],[0,2],[-9,22],[-10,25],[-10,23],[-8,12],[-7,10],[-14,20],[-17,22],[-47,44],[-55,39],[-10,10],[-15,15],[-16,52],[-1,5],[-11,56],[-9,5],[-10,6],[-10,40],[-8,54],[-2,25],[1,5],[0,0],[0,2],[0,3],[-2,28],[0,0],[-4,18],[-10,17],[-6,1],[-6,1],[0,0],[0,-1],[-2,-2],[-24,3],[-3,-2],[-4,-3],[-12,-10],[-4,-4],[-2,-3],[0,-1],[-1,0],[-12,0],[-13,13],[0,1],[-33,14],[0,0],[-30,14],[-3,2],[-27,18],[-18,9],[-22,12],[1,15],[0,1],[0,0],[8,23],[9,14],[10,0],[8,-6],[5,-14],[10,-4],[0,0],[0,0],[4,4],[5,53],[27,27],[5,5],[-3,6],[-11,22],[-15,-22],[-6,-10],[-14,50],[0,1],[25,38],[-44,14],[-17,-38],[-164,-130],[0,0],[-1,59],[21,16],[9,8],[-7,99],[-39,-3],[-35,44],[-5,109],[15,-1],[26,0],[-3,25],[-3,20],[-11,72],[-11,65],[-67,-21],[-102,125],[-51,-122],[-209,-293],[-14,34],[-15,38],[19,87],[-11,11],[-15,14],[-34,-68],[-34,42],[-42,54],[-135,-115],[-43,-15],[-12,-53],[-7,-30],[-9,-40],[0,-26],[1,-44],[66,-128],[-23,-106],[-6,-32],[11,-30],[30,-80],[14,-37],[8,-24],[5,-12],[-13,-26],[-60,-126],[-48,6],[-19,2],[-18,17],[-29,26],[-44,0],[-6,0],[-42,-65],[-24,-38],[-58,-1],[-7,0],[-16,-104],[37,-29],[-3,-16],[-4,-21],[-5,-26],[-14,-76],[-2,-9],[10,-12],[57,-77],[-26,-103],[21,-49],[-47,-12],[-11,-11],[-4,-4],[-34,-36],[28,-122],[-29,-36],[-9,-12],[0,0],[11,-53],[-14,-8],[-1,0],[0,0],[-86,-44],[0,0],[45,-60],[-3,-9],[-31,-88],[-34,-26],[-21,-16],[-24,-18],[-79,-60],[18,-122],[10,-25],[32,-80],[5,-13],[11,-26],[1,-4],[0,0],[-30,-3],[-18,-17],[37,-107],[0,0],[-34,-40],[-26,-70],[-19,-105],[-6,-129],[37,-131],[77,-48],[58,-168],[22,-70],[-17,-36],[-1,-8],[-2,-14],[-4,-51],[-1,-7],[0,-3],[-3,-25],[-8,-34],[-23,-45],[-11,-23],[-7,-24],[-7,-17],[-10,-11],[-7,-2],[-11,-3],[-22,-11],[-12,-7],[-3,-1],[-6,-4],[-3,-2],[-12,-17],[0,0],[-26,-45],[-6,-15],[-3,-16],[-2,-21],[0,0],[-8,-19],[-55,-96],[-6,-12],[-3,-25],[1,-28],[-3,-29],[-11,-47],[-14,-42],[-27,-47],[-26,-40],[-13,-33],[-7,-26],[-9,-34],[0,0],[-9,-23],[-13,-15],[-14,-8],[0,0],[-18,33],[-6,9],[-7,13],[-9,6],[-11,7],[-17,11],[-4,3],[-35,-4],[-18,33],[-4,7],[-14,-19],[-10,-16],[0,-1],[-2,-2],[-27,-22],[0,0],[-23,-3],[-13,-2],[-40,-86],[-32,-68],[-59,34],[-6,-1],[-8,-1],[-70,-12],[-46,121],[-33,85],[0,0],[-79,-80],[-22,-71],[-140,-166],[-117,-64],[-13,-63],[-44,-5],[0,0],[-178,-22],[31,53],[8,12],[-74,6],[-7,1],[-105,-163],[-98,-87],[-27,-25],[-18,-17],[0,0],[-91,-2],[-32,-107],[0,0],[0,0],[-40,-65],[-8,6],[-1,-1],[-75,-158],[-32,37],[12,33],[29,78],[-28,17],[-20,13],[-7,5],[-8,4],[-21,13],[-22,-87],[-20,-77],[0,0],[-50,-84],[-14,-62],[-1,1],[-1,-5],[-55,32],[-29,17],[0,0],[-9,-8],[-8,-17],[-28,-81],[-9,-22],[-5,-9],[-1,-2],[-12,-10],[-18,-15],[-10,-13],[0,-3],[2,-17],[7,-19],[30,-72],[1,-16],[0,-2],[-3,-17],[-55,-92],[0,0],[0,-1],[-4,-12],[1,-20],[6,-27],[7,-15],[2,-19],[-1,-7],[-3,-11],[-108,-345],[-4,-23],[-2,-29],[-5,-67],[-3,-25],[-3,-12],[-1,-4],[0,0],[-4,-13],[-79,-128],[-50,-70],[-14,-13],[-18,-11],[-38,-16],[-3,-1],[-24,-1],[-14,-1],[-6,3],[-9,5],[-156,75],[-4,1],[-7,1],[-12,-2],[-16,-9],[-60,-37],[-10,-5],[-2,-3],[-5,-6],[-1,-1],[-1,-2],[-8,-13],[-5,-12],[-10,-21],[-1,-2],[-4,-7],[-7,-2],[-1,0],[-5,-1],[-8,-2],[-15,-5],[-56,-9],[-12,-4],[-19,-15],[-12,-19],[-6,-20],[1,-28],[-2,-32],[-3,-13],[-5,-11],[-28,-32],[-6,-9],[-5,-14],[-3,-45],[-1,-26],[0,-8],[-1,-18],[3,-17],[7,-15],[28,-49],[52,-129],[11,-24],[5,-18],[1,-7],[0,-2],[1,-7],[0,-26],[-4,-68],[-5,-36],[-11,-48],[-9,-25],[-14,-18],[-22,-22],[-2,-1],[-9,-9],[-16,-9],[-1,-1],[-18,-11],[-21,-4],[-58,0],[-25,8],[-12,-4],[-2,-2],[-19,-13],[-11,-13],[-14,-31],[-14,-57],[-12,-67],[-7,-59],[-2,-13],[-3,-33],[0,-23],[0,-22],[1,-22],[1,-16],[2,-14],[2,-12],[6,-21],[13,-17],[13,-6],[2,1],[12,5],[62,0],[1,0],[15,0],[27,-15],[35,-32],[20,-30],[19,-29],[25,-39],[19,-29],[11,-10],[6,-4],[3,-3],[10,0],[1,0],[6,0],[7,-2],[8,-13],[10,-33],[7,-33],[2,-13],[1,-13],[1,-7],[0,-11],[0,-13],[-1,-9],[-3,-24],[47,-99],[26,-53],[6,-15],[3,-7],[4,-10],[1,-5],[4,-17],[1,-9],[1,-7],[4,-42],[0,-4],[2,-35],[1,-49],[2,-24],[3,-34],[3,-21],[5,-31],[13,-53],[16,-43],[3,-8],[5,-11],[8,-16],[11,-19],[10,-10],[3,-3],[14,-12],[59,-33],[27,-21],[7,-5],[-7,-53],[-27,-13],[-2,-1],[-11,-5],[-8,-11],[-5,-7],[-26,-45],[-8,-13],[-4,-9],[-1,-3],[-2,-16],[1,-18],[1,-2],[3,-22],[4,-20],[1,-5],[9,-25],[9,-19],[2,-8],[5,-12],[3,-14],[-1,-14],[-3,-22],[-4,-17],[-11,-25],[-13,-28],[-6,-17],[-1,-7],[-1,-5],[-1,-20],[1,-16],[1,-17],[5,-43],[10,-77],[8,-33],[1,-4],[1,-3],[5,-15],[4,-15],[1,-14],[0,-4],[0,0],[0,-17],[0,0],[0,0],[-1,-2],[-2,-13],[-6,-25],[-11,-29],[-14,-30],[0,0],[-4,-8],[-5,-12],[-6,-14],[-5,-13],[-1,-8],[0,0],[-1,-6],[-2,-11],[0,-12],[0,-26],[-14,2],[-2,-64],[29,-18],[3,-16],[2,-11],[3,-12],[9,-18],[21,-46],[9,-27],[7,-25],[3,-9],[3,-16],[1,-12],[2,-9],[4,-3],[21,-14],[7,-7],[7,-9],[23,-34],[26,-53],[-4,-51],[-2,-30],[-17,-57],[-55,-71],[-47,-63],[37,-48],[16,-7],[49,-22],[35,-72],[44,-12],[13,-3],[-3,-4],[-37,-57],[-38,-57],[-39,-60],[-29,-46],[-116,-59],[-19,-1],[-71,-4],[-2,0],[-23,52],[-37,86],[-3,-10],[-21,-75],[-32,22],[-25,17],[-120,-44],[-50,-1],[0,0],[-9,37],[-12,47],[-31,-73],[-52,16],[-8,-7],[-14,-15],[-15,-15],[-73,-75],[7,-99],[2,-29],[1,-5],[0,0],[-12,-72],[-3,-13],[-1,-7],[-6,-50],[-15,-139],[-2,-14],[-1,-11],[0,0],[-119,2],[-2,1],[0,0],[-50,177],[-43,157],[-70,94],[-25,6],[-27,6],[-31,8],[-10,2],[-19,-53],[-9,-31],[-2,-9],[0,0],[-7,-35],[-31,-148],[-2,-14],[-1,-6],[-2,-24],[-1,-5],[1,-8],[2,-26],[1,-5],[4,-19],[8,-19],[2,-5],[16,-23],[50,-66],[10,-14],[0,0],[2,-22],[-2,-15],[-1,-9],[-10,-23],[-4,-5],[-11,-15],[-12,-8],[-2,-1],[-5,-1],[-8,-3],[-43,-3],[-71,-2],[-31,-2],[-13,-10],[-1,-3],[-7,-15],[-1,-8],[-1,-7],[-1,-5],[1,-51],[3,-44],[9,-42],[6,-29],[9,-39],[3,-10],[16,-46],[4,-11],[1,-3],[16,-33],[18,-29],[65,-78],[24,-34],[10,-23],[1,-18],[-1,-28],[0,-18],[1,-21],[7,-21],[0,0],[16,-27],[9,-17],[2,-15],[-5,-18],[-12,-40],[-33,-105],[-11,-36],[-9,-59],[-13,-44],[-21,-40],[-5,-9],[-7,-12],[-7,-5],[-7,-6],[-33,-15],[-4,-1],[-52,-23],[-26,-7],[-4,-1],[-86,20],[-59,12],[-27,2],[-5,-4],[-3,-2],[-5,-12],[-1,-18],[-1,-14],[0,-13],[0,-30],[0,-25],[3,-33],[7,-20],[14,-22],[6,-10],[9,-12],[6,-8],[7,-14],[5,-18],[4,-13],[3,-14],[1,-4],[10,-12],[15,-8],[90,-68],[28,-26],[8,-8],[15,-27],[11,-22],[6,-26],[-2,-27],[-5,-53],[-1,-12],[35,2],[11,0],[29,80],[149,216],[41,-71],[23,-36],[58,-30],[0,0],[-10,-174],[-1,-15],[-1,-14],[19,-127],[4,-26],[2,-14],[37,-253],[0,0],[-30,-42],[-17,-23],[-16,-40],[-43,-104],[3,-104],[-111,-158],[-82,-10],[-59,-41],[-1,0],[-20,0],[0,0],[-69,0],[-5,-12],[-3,-8],[-2,-15],[-1,-8],[0,-5],[-1,-32],[5,-70],[2,-52],[-1,-25],[0,-13],[-2,-11],[-4,-31],[0,-1],[-20,-104],[-5,-5],[-3,1],[-15,19],[-8,-24],[-12,20],[-17,7],[-20,-16],[-1,-23],[-37,-14],[-16,16],[-21,-6],[-78,127],[-20,73],[-27,39],[-32,94],[-50,55],[-23,-2],[-46,66],[1,14],[-23,7],[-23,36],[-19,-1],[-5,-11],[-27,1],[-3,3],[-7,-3],[-10,1],[-7,9],[-51,4],[-4,15],[-9,-13],[-54,-2],[-27,-17],[-13,-8],[-6,11],[2,139],[16,32],[23,82],[13,168],[5,30],[15,61],[9,84],[3,16],[5,10],[6,12],[42,2],[0,22],[3,103],[4,27],[4,31],[120,165],[1,1],[81,42],[5,5],[4,2],[21,27],[0,0],[-17,19],[-3,-6],[-24,72],[-13,12],[-4,-15],[-18,18],[-19,2],[-11,30],[-8,-4],[-1,16],[-23,-2],[-38,117],[-37,68],[-10,26],[-25,22],[-8,3],[-12,12],[-23,-2],[-5,38],[-1,6],[1,8],[10,44],[40,97],[19,80],[82,229],[-17,116],[-253,285],[-4,4],[-230,265],[-38,0],[-1,1],[-1,-1],[-6,0],[-11,0],[-11,8],[-6,-8],[-2,0],[-36,-38],[-7,-3],[-7,-11],[-23,-24],[-31,-5],[-67,-2],[-6,-1],[-1,1],[0,0],[-1,-1],[-19,0],[-4,3],[-1,21],[-16,-4],[0,1],[-25,35],[-10,-2],[-105,100],[-6,3],[-1,2],[-45,29],[-21,-5],[-19,-4],[-8,-2],[-116,-81],[3,-17],[-4,-147],[1,-11],[-8,-33],[37,-307],[3,-56],[1,-93],[-5,-66],[-32,-92],[-13,-110],[-3,-103],[2,-10],[1,-11],[3,-29],[-3,2],[-35,29],[-11,-6],[-73,38],[0,1],[-5,8],[-61,-6],[-28,-43],[-7,2],[0,-15],[-14,1],[-28,-74],[-18,-30],[-31,-36],[-48,-56],[-9,-6],[-27,-17],[-29,-19],[-4,1],[0,3],[-20,20],[-20,-9],[-128,42],[-10,4],[-46,61],[-142,127],[-102,53],[-26,13],[-2,-7],[-14,8],[-57,71],[-87,59],[-78,88],[-57,102],[-5,4],[-4,4],[-34,47],[-45,59],[-19,39],[-24,67],[-19,54],[-4,156],[-5,238],[0,4],[0,5],[-11,151],[0,5],[-47,263],[-6,15],[-8,43],[-40,295],[-18,139]],[[89260,52132],[35,40],[-161,642],[9,143],[205,264],[61,196],[78,122],[-8,197],[50,151],[-85,131],[-93,13],[-40,96],[20,45],[-7,31],[-162,-169],[-29,-69],[5,-73],[-11,-9],[-54,44],[-122,-110],[-9,90],[-54,-37],[11,83],[-9,88],[98,524],[-90,278],[-4,278],[26,283],[-16,93],[-71,165],[-9,199],[20,212],[-40,291],[19,8],[-11,76],[21,83],[15,-8],[63,295],[48,273],[19,-12],[10,103],[-20,9],[62,271],[-19,-1],[-2,148],[-60,347],[-38,397],[-2,267],[-29,156],[22,128],[-9,263],[32,241],[2,299],[18,177],[45,168],[-17,272],[6,152],[57,535],[-42,182],[-44,10],[13,130],[-47,380],[10,155],[-106,261],[-256,133],[-95,117],[-372,208],[2,149],[-136,363],[46,78],[-3,139],[-542,-185],[-147,451],[-50,78],[-134,157],[-138,-4],[-202,150],[-26,-27],[-24,-124],[-51,-129],[-139,-162],[-182,18],[-157,134],[-148,43],[-29,66],[-101,54],[-24,64],[-98,97],[-6,61],[-124,-23],[-28,41],[-197,-92],[-68,76],[-102,41],[-91,115],[-272,178],[-106,118],[-127,215],[-44,-202],[12,-14],[-156,-372],[18,-42],[-133,-348],[-21,-663],[100,70],[239,-202],[97,-352],[14,-110],[74,31],[-53,-322],[52,-89],[-62,-45],[-12,-52],[-91,-647],[-62,-7],[-24,-34],[1,-129],[-107,-56],[-44,-90],[27,-120],[44,-16],[46,-199],[-113,-87],[-122,-188],[46,-38],[-44,-190],[-133,-47],[35,-179],[-62,-89],[55,-105],[-48,-117],[11,-8],[-22,-103],[579,167],[445,-178],[4,-113],[-101,21],[-31,-248],[-100,50],[-35,-133],[-51,-346],[13,-4],[-14,-65],[15,-19],[-7,-55],[-238,6],[-396,-389],[-127,-17],[-98,-142],[-98,54],[0,56],[-145,236],[-110,63],[-178,-192],[-310,15],[-25,-92],[36,-46],[-27,-45],[24,-131],[-30,0],[-40,-443],[-45,47],[0,454],[-110,20],[-16,45],[32,49],[5,71],[-48,34],[-37,99],[-292,-30],[-203,-102],[-9,-51],[-70,22],[-21,61],[-256,299],[-171,40],[-174,-139],[-172,-37],[-18,-43],[-7,-128],[-65,-186],[-83,-52],[-330,-20],[-135,104],[-132,-59],[-57,81],[-112,359],[194,258],[198,383],[107,811],[28,107],[-31,111],[161,345],[189,179],[-6,118],[18,79],[-29,126],[29,103],[-34,51],[3,51],[-558,100],[-55,-77],[-18,-86],[-25,9],[-144,264],[-51,211],[-128,224],[-121,538],[-137,845],[8,73],[24,-4],[-1,-46],[30,-63],[111,23],[50,156],[34,-36],[8,150],[42,54],[-35,31],[41,80],[-8,278],[-26,119],[-94,228],[61,16],[65,166],[12,109],[-97,60],[-4,50],[121,96],[137,268],[42,178],[-35,212],[-54,-31],[-89,46],[-118,-21],[-123,235],[-282,-299],[-101,56],[-124,-93],[-194,110],[-151,-21],[-78,-112],[-88,32],[26,303],[-9,202],[66,225],[73,162],[-414,-207],[-378,-30],[-363,471],[-75,-13],[-37,50],[41,98],[132,103],[8,28],[-18,50],[-194,104],[-454,422],[-150,308],[-138,374],[-170,163],[-7,30],[18,71],[-100,241],[-24,-32],[-174,116],[-195,-134],[-3,28],[-146,-84],[-6,36],[-112,-27],[-74,-106],[30,-57],[-46,-70],[-26,37],[-117,-196],[-230,-252],[-71,132],[-108,-1],[-101,57],[-110,-14],[-54,95],[-65,4],[-4,70],[-122,104],[-59,126],[2,125],[46,76],[126,44],[40,93],[-14,119],[-93,167],[-160,-196],[-192,59],[-29,40],[-23,135],[72,139],[-15,71],[-43,208],[-216,176],[-53,142],[24,114],[83,166],[-70,103],[139,93],[-84,38],[-41,95],[-4,51],[34,148],[-299,-114],[-22,-20],[-67,-231],[-30,5],[-25,-56],[-122,-2],[-53,-88],[-17,-78],[-61,-75],[-90,-12],[-148,-138],[-64,-19],[-37,-137],[-42,-68],[-20,22],[-32,-87],[-74,-51],[-37,-126],[11,-13],[-25,-40],[-37,17],[-92,184],[-199,-23],[-23,99],[49,84],[62,25],[-87,123],[-17,123],[-129,118],[16,187],[50,62],[2,45],[-195,-99],[-142,49],[-208,260],[0,86],[46,44],[-178,357],[-195,6],[-87,-47],[-347,-335],[13,-666],[44,-142],[-73,-85],[22,-111],[111,-56],[272,108],[53,-16],[56,-124],[56,-266],[39,-100],[34,-279],[-32,-39],[-7,-149],[-35,-84],[-86,-61],[-93,-159],[-98,-45],[-143,-250],[-101,-71],[-7,-53],[-158,-244],[-20,-88],[-149,-199],[-4,-71],[47,-88],[-6,-49],[-108,-126]],[[71545,67081],[-56,219],[-244,346],[-58,-6],[-54,-72],[25,-99],[-21,-64],[-153,-183],[-151,-100],[-48,94],[-86,27],[-46,-27],[37,65],[-17,128],[51,47],[-15,59],[-144,170],[-183,104],[-147,-152],[-52,-42],[-202,-439],[-529,-569],[-261,-115],[-338,-487],[-122,362],[-199,476],[-30,68],[-38,-51],[-64,166],[-17,640],[-35,183],[214,389],[-178,148],[-135,-140],[0,122],[-33,226],[-117,-38],[-58,186],[-125,-22],[-80,96],[14,11],[-41,104],[-171,-241],[-156,163],[-319,41],[-66,70],[-36,223],[-101,146],[-238,652],[397,575],[49,177],[-122,304],[46,74],[-37,133],[40,33],[14,60],[-10,16],[42,86],[12,135],[-185,448],[-21,-26],[-19,40],[-106,-141],[-52,142],[-229,797],[-130,331],[-9,165],[-96,426],[-77,520],[-134,214],[2,169],[-48,9],[-149,-62],[-55,-158],[-282,-6],[-29,-35],[-4,-94],[-181,-367],[-236,-137],[-5,204],[-154,162],[-57,125],[18,132],[-18,173],[-28,68],[-74,24],[-82,241],[279,357],[-42,48],[-23,131],[-261,-162],[-25,-74],[-126,68],[-92,-46],[-33,49],[-9,63],[-98,52],[-38,121],[-7,150],[44,299],[-54,272],[-87,217],[306,216],[132,230],[-70,262],[-169,-162],[-61,29],[-12,-17],[21,-56],[-154,-137],[-9,37],[-79,-129],[-164,-128],[-8,81],[-15,-2],[-10,-130],[-99,-16],[-66,225],[-39,-27],[-19,63],[-51,-16],[-17,84],[-107,-51],[-15,48],[-80,57],[-35,158],[1,112],[-56,-25],[-90,233],[20,77],[62,39],[-53,143],[-43,-33],[-9,34],[108,112],[-112,293],[-83,43],[-31,97],[39,69],[33,-98],[66,51],[-9,74],[-21,-12],[-41,176],[24,19],[-1648,180],[96,159],[18,64],[-1,185],[68,-43],[151,74],[17,25],[-26,48],[59,74],[118,31],[59,94],[-13,140],[-69,267],[-132,352],[52,194],[37,-49],[36,181],[-183,156],[112,249],[-251,554],[-172,206],[-45,307],[-20,-4],[-24,320],[-16,31],[60,56],[71,170],[-46,73],[-143,97],[-4,96],[28,232],[-99,34],[-164,137],[-14,-23],[-146,207],[-153,148],[8,32],[-108,96],[7,52],[-91,68],[-61,112],[19,213],[-2,209],[28,-5],[60,89],[-62,248],[-350,398],[-183,109],[-61,135],[126,176],[120,349],[-175,700],[134,133],[85,30],[-62,183],[-122,232]],[[89260,52132],[-5,-3],[0,2],[-73,-26],[-45,-46],[-42,-24],[-30,-14],[-2,-3],[-9,-9],[-15,-45],[-61,-56],[-46,-65],[-7,-5],[-2,-2],[-86,-45],[-9,-3],[-182,-146],[-87,-35],[-308,-25],[-103,-9],[-370,-31],[-28,-1],[-9,-11],[-35,-111],[-32,-42],[-91,15],[-40,-32],[16,-105],[-2,-484],[-9,-73],[-54,-200],[-5,-41],[40,14],[31,-206],[78,-213],[2,-21],[-21,-63],[-28,-47],[-44,-32],[-24,0],[-5,-6],[-3,10],[-128,-148],[0,0],[0,0],[18,-44],[-2,-22],[70,-54],[-17,-71],[-12,-101],[8,-109],[6,-36],[19,-221],[0,-14],[-77,-276],[-1,-5],[36,-349],[17,-115],[23,-99],[1,-6],[-8,-7],[-38,-21],[-140,6],[-19,-9],[-6,-19],[-1,-3],[8,-35],[-113,-79],[-66,-5],[-24,11],[-47,-12],[-47,4],[-22,-12],[2,-8],[0,-3],[0,0],[-181,-138],[-57,-16],[-3,9],[-34,-20],[-28,-16],[-47,-16],[-16,-6],[-35,-45],[-165,-161],[-25,-19],[-58,-62],[-30,-30],[-35,-34],[-81,22],[-1,0],[-5,2],[-2,1],[-81,-88],[-22,-73],[-4,-8],[-87,-91],[-53,-54],[-50,-42],[-22,-33],[-30,-31],[-23,-19],[-7,-18],[-149,-279],[1,-151],[-7,-80],[8,-279],[-10,-69],[-16,-114],[4,-149],[-72,-139],[-9,-44],[-39,-157],[-28,-86],[-26,-167],[-53,-223],[24,-362],[-2,-136],[9,-148],[-6,-120],[-2,-51],[-6,-39],[-8,-33],[-57,-89],[-47,-51],[-12,-25],[-6,-26],[-1,-2],[-4,28],[-1,20],[-31,-10],[-63,-20],[-167,-104],[-136,-119],[-7,-8],[-3,-3],[2,-32],[-2,-71],[-71,-122],[-1,-1],[-1,-1],[-16,-12],[-92,-69],[-16,-7],[-63,-182],[-14,-59],[-16,-67],[-2,-12],[-1,-5],[-4,-12],[-4,-36],[-9,-49],[-1,-33],[-2,-16],[0,-14],[-3,-54],[6,-37],[0,-1],[-4,-10],[-49,-113],[-8,-67],[-3,-10],[-5,-8],[41,-79],[9,2],[3,-16],[11,2],[29,-203],[21,-1],[10,-1],[54,-40],[2,-1],[2,5],[17,16],[3,-16],[63,-108],[9,-20],[21,-49],[39,-91],[33,-54],[5,-11],[14,-86],[55,-233],[-69,-47],[25,-85],[0,-32],[-28,-34],[-4,6],[-54,-54],[1,-18],[-4,-5],[-54,-15],[2,-33],[-26,-45],[-3,-4],[5,-16],[7,-60],[-4,-3],[6,-15],[1,-7],[-37,-68],[-9,-2],[-38,-37],[-61,-110],[-44,-51],[1,-18],[16,-20],[2,-11],[0,-1],[-7,-17],[22,-27],[18,-55],[-12,-83],[7,-27],[14,-30],[11,-73],[2,-12],[14,-59],[-5,-25],[22,-98],[-181,-95],[2,-8],[-5,-3],[9,-27],[4,-46],[-60,-38],[-2,-1],[26,-243],[-50,-26],[-25,-26],[-87,-100],[-101,-106],[-3,-4],[-8,2],[-3,1],[-11,-32],[-34,-46],[-7,19],[-1,23],[-15,7],[0,23],[-17,-15],[-33,-1],[3,-21],[-8,-6],[-31,-13],[-29,4],[-64,-24],[-38,-36],[13,-49],[-10,-16],[-28,-41],[-60,-58],[-2,-2],[23,-70],[-66,0],[-1,-4],[-49,5],[-4,5],[-1,-5],[-41,3],[-3,3],[-2,3],[-5,-10],[-45,-34],[-2,-1],[-1,2],[-10,-17],[-22,-28],[-36,-33],[-21,-38],[-1,-3],[-2,-3],[3,-13],[9,-107],[0,-1],[-1,0],[14,-116],[3,-26],[31,-162],[32,-101],[-19,-33],[-32,-21],[4,-17],[10,-107],[-1,0],[-2,-3],[24,-51],[1,-78],[-29,-76],[5,-48],[53,-171],[24,-72],[30,-18],[79,-91],[18,-31],[111,-317],[10,-35],[2,1],[1,-5],[131,19],[38,-45],[24,-37],[16,-12],[3,-4],[-24,-41],[-5,-31],[2,-22],[0,-2],[-11,-132],[4,-30],[-4,-127],[20,-22],[-11,-59],[-16,-65],[-2,-8],[-5,4],[-21,-111],[-6,-13],[-94,-184],[-12,13],[-28,-90],[-48,-93],[-10,-12],[-29,1],[-10,0],[-34,8],[-93,-61],[-15,1],[-104,-112],[4,-20],[2,-12],[-4,-25],[-17,-57],[-29,3],[-53,19],[-18,-14],[-22,1],[-6,9],[-57,3],[-23,-33],[-53,-112],[11,-61],[-24,-140],[-10,-28],[28,-128],[8,-10],[-9,-69],[-12,-29],[9,-8],[-3,-15],[4,-11],[1,-1],[-12,-19],[-14,-16],[-16,-20],[-59,-70],[-13,9],[-62,42],[-32,21],[-55,-31],[-2,-1],[-21,-1],[-11,18],[-114,195],[-118,-126],[-21,-17],[3,-84],[8,-37],[-4,-38],[-54,-18],[-11,-8],[-33,-13],[-18,-7],[-34,-14],[-6,-1],[-25,46],[-10,-11],[-28,49],[-2,-3],[0,1],[-23,14],[-56,36],[-96,-94],[-57,-53],[18,-102],[43,-129],[-53,-51],[-4,9],[-42,-53],[6,-24],[20,-143],[0,0],[-2,-4],[2,-35],[-5,-11],[16,-37],[1,-3],[-31,-63],[-49,-60],[-11,-28],[-7,-17],[-10,-23],[2,-10],[1,-1],[-4,-18],[-6,-29],[-16,-20],[27,-264],[42,30],[-3,-69],[13,-56],[2,-8],[-25,-14],[-16,-8],[59,-231],[9,-75],[18,-151],[8,-56],[-57,-2],[-3,-25],[-2,-12],[-12,-4],[0,-33],[-58,-4],[2,-23],[-20,-242],[1,-5],[-1,-2],[12,-28],[6,-18],[5,-24],[9,-35],[-24,-6],[-32,1],[-27,-15],[-54,-14],[-50,12],[-9,2],[2,-28],[-12,-3],[9,-35],[-2,-37],[-5,-97],[7,-34],[3,-25],[-4,-6],[-4,-5],[-4,-20],[-4,-20],[0,-28],[4,0],[-40,-272],[-13,-14],[6,-12],[3,-32],[-2,-25],[2,-111],[-6,-76],[-2,-13],[-9,-68],[-12,-24],[-8,-82],[-6,-10],[13,-2],[86,-114],[-9,-28],[-60,-52],[-238,-208],[-137,-190],[-2,-3],[0,-2],[-44,-83],[0,-2],[-1,-1],[0,-2],[-9,-32],[-3,-4],[2,-9],[14,-99],[-8,-7],[-19,-7],[-27,-27],[-9,-15],[-48,-44],[-9,-4],[-70,-61],[-2,-15],[20,-61],[1,-24],[-1,-28],[-1,-14],[-18,-23],[-8,-9],[-18,-14],[-37,-57],[-30,-117],[-11,-30],[5,-15],[11,-53],[-22,-75],[-4,-14],[0,0],[-2,-6],[23,-18],[61,-69],[30,-58],[29,11],[38,-1],[19,-3],[66,-62],[33,-7],[1,-1],[4,-17],[-1,-17],[7,-4],[1,-19],[23,-46],[-4,-6],[11,-26],[63,-58],[9,-9],[42,-17],[30,2],[1,11],[5,-1],[29,-11],[39,-36],[5,-13],[1,-2],[-1,-3],[22,-59],[5,0],[4,-11],[8,-2],[4,-14],[80,-14],[89,-78],[44,-1],[5,-14],[19,15],[22,-21],[22,-52],[35,-25],[38,0],[6,9],[9,0],[2,-4],[-1,-12],[10,-23],[1,-3],[6,-24],[17,-79],[18,-33],[42,-25],[52,-9],[61,-31],[14,-32],[-6,-3],[4,-46],[-8,-56],[10,-32],[8,3],[5,-44],[23,-29],[8,-9],[6,-26],[15,-7],[7,-25],[52,-50],[13,-32],[4,-28],[1,-17],[3,-50],[-2,-13],[-18,-108],[-1,-6],[-2,-2],[-6,-8],[-34,48],[-30,53],[-32,8],[-30,-85],[4,-34],[9,-22],[2,-18],[17,-41],[68,-58],[51,-44],[8,-18],[3,-7],[-6,-37],[-23,-36],[-1,0],[-71,25],[-13,5],[-36,-1],[-27,-14],[-3,-21],[0,0],[-24,-59],[-2,-3],[-1,-4],[-4,-10],[-12,-49],[-11,-89],[-1,-16],[-11,-77],[-15,-37],[-21,23],[-48,289],[-14,36],[-31,38],[-32,13],[-12,-21],[-3,-38],[-2,-6],[-15,-65],[-25,-61],[-43,-32],[-50,-4],[-47,19],[-25,54],[-4,36],[-72,138],[-30,16],[-33,18],[-40,-57],[-6,-9],[-25,-36],[1,-36],[-8,-21],[-2,-31],[-1,-4],[-3,-51],[-2,-22],[-16,-59],[-3,-10],[13,-63],[41,-37],[35,-49],[26,-126],[-5,-52],[-14,-44],[-41,-114],[-3,-45],[9,-19],[3,-45],[12,-24],[0,-1],[0,0],[4,-8],[30,-43],[6,-67],[14,-45],[18,-17],[42,-51],[26,-52],[1,-51],[-1,-3],[-32,-27],[-19,-3],[-35,3],[-11,8],[-13,26],[-54,15],[-32,-52],[-44,-56],[-14,-25],[-10,-5],[-22,-29],[-35,16],[-31,0],[-22,-15],[-5,-3],[-18,-12],[-10,-16],[-6,-36],[8,-88],[33,-40],[9,9],[10,1],[31,-42],[21,6],[3,-5],[28,11],[2,3],[26,2],[12,-7],[37,20],[9,2],[5,-1],[29,-14],[23,-47],[62,-128],[6,-40],[4,-23],[-8,-167],[-6,-13],[-2,-5],[-15,-27],[-32,-31],[-21,-14],[-43,-3],[-25,21],[-17,48],[-4,25],[-22,73],[-33,2],[-33,-19],[-26,-63],[6,-47],[-2,-75],[0,-13],[-2,-17],[2,-37],[6,-105],[8,-20],[6,-38],[26,-40],[11,-51],[-10,-71],[-23,-42],[-43,-23],[-3,-2],[-57,19],[-47,61],[-38,-10],[-44,-44],[-4,-30],[-12,-82],[-12,-45],[-8,-30],[9,-43],[-1,-30],[0,-3],[-9,-94],[-12,-45],[127,-164],[24,-125],[36,-138],[13,-142],[20,-63],[33,-65],[-3,-67],[-10,-22],[-10,-21],[-110,-144],[0,-32],[16,-108],[45,-162],[17,-105],[21,-29],[1,-4],[2,-10],[73,-21],[39,-11],[-2,-46],[0,-28],[-7,-17],[4,-13],[-3,-15],[-9,-47],[9,-32],[-24,-15],[0,-3],[1,-96],[1,-69],[1,-52],[-1,-1],[1,-4],[0,-2],[11,-92],[-3,-45],[9,-4],[2,-16],[1,-2],[-12,-49],[18,-38],[53,-669],[18,-19],[-10,-37],[0,0],[0,-1],[-2,-6],[3,-144],[-3,-64],[6,1],[23,-58],[0,0],[27,-71],[2,-19],[4,2],[2,-4],[17,11],[114,75],[38,23],[0,2],[35,23],[40,-2],[0,-2],[1,2],[8,0],[49,13],[68,50],[22,16],[13,-27],[6,13],[33,-26],[14,-38],[13,10],[43,73],[19,14],[21,3],[47,6],[8,-2],[2,-3],[1,0],[11,-17],[15,-41],[39,-49],[25,-31],[26,-33],[17,60],[3,8],[11,6],[27,52],[42,102],[7,59],[34,28],[12,6],[3,-6],[14,4],[20,6],[15,2],[11,-14],[34,-59],[18,-75],[33,-141],[34,-167],[-42,-166],[-5,-42],[9,-53],[4,-10],[66,-152],[6,-28],[55,-92],[23,-45],[28,-71],[14,-133],[6,-73],[3,-18],[7,-75],[14,-23],[86,-72],[15,-15],[1,-2],[8,-12],[21,-71],[16,-63],[16,-45],[47,-155],[5,-33],[15,-232],[12,-55],[0,-4],[0,-50],[23,-129],[6,0],[44,-4],[130,-232],[8,-81],[14,-239],[22,-156],[7,-73],[5,-61],[0,-17],[54,-22],[19,-21],[1,-145],[-1,-19],[41,-58],[31,-78],[25,-11],[1,0],[2,-1],[15,10],[61,33],[43,23],[16,-7],[34,-35],[11,-12],[5,-21],[7,-45],[29,-71],[15,-57],[-27,-127],[-30,-137],[-1,-5],[7,-14],[20,-71],[6,-20],[16,-55],[-59,-53],[-63,-95],[-22,-26],[34,-418],[-29,-67],[-47,-38],[1,-6],[-1,-1],[-2,-1],[20,-118],[29,-118],[0,-4],[-3,-7],[-13,-34],[8,-89],[-1,-10],[-34,-35],[-30,-31],[0,-2],[-5,-5],[19,-98],[29,-76],[2,-12],[2,1],[3,-7],[46,10],[95,61],[1,1],[3,-2],[84,-31],[6,7],[0,20],[16,6],[6,-14],[57,-28],[7,-44],[3,-20],[-1,-6],[4,-8],[0,-2],[3,-3],[25,-45],[54,-61],[51,-16],[44,6],[2,3],[3,-1],[193,224],[9,6],[76,21],[20,21],[6,2],[6,3],[47,62],[9,13],[56,75],[1,0],[1,1],[2,3],[10,13],[7,-11],[25,-40],[15,-25],[103,44],[3,-3],[13,-20],[8,-3],[16,-17],[4,-20],[60,-115],[16,-35],[-2,-12],[20,-24],[0,0],[3,-24],[-3,-45],[12,-72],[79,-1],[46,19],[1,-4],[0,-2],[0,-81],[0,-1],[-5,-4],[-2,-14],[11,-73],[33,-104],[-68,-53],[3,-8],[16,-89],[0,-31],[34,-43],[54,-41],[101,-120],[28,-82],[22,-20],[3,-7],[3,-7],[8,-18],[-5,-5],[25,-49],[13,-26],[54,-74],[-131,-270],[-72,-218],[-51,-129],[-131,-198],[-17,-14],[-20,4],[-2,1],[-29,-83],[-2,-12],[-67,-191],[-30,-9],[-15,-5],[-17,-75],[-10,-39],[25,-37],[4,-5],[1,-4],[2,-49],[-8,-20],[-26,-54],[-14,-53],[-25,-67],[-25,-54],[26,-18],[6,-69],[-12,-15],[5,-42],[-1,-2],[-12,-13],[-33,-140],[-4,-44],[1,-4],[-1,-2],[10,-69],[-14,-62],[0,-46],[-15,-39],[18,-107],[82,-271],[1,-1],[18,-22],[40,-49],[76,16],[104,-159],[70,10],[15,2],[19,-14],[11,5],[13,-29],[10,-9],[10,6],[48,-64],[36,-18],[7,-9],[-4,-103],[3,-1],[8,-3],[16,-6],[36,28],[12,-5],[3,-8],[0,-6],[-1,-31],[0,-1],[-11,-36],[2,-30],[11,-28],[39,-59],[19,5],[4,33],[-3,13],[-4,21],[10,59],[2,8],[62,60],[13,-3],[-1,-10],[2,-43],[2,-28],[16,-29],[16,-29],[3,-44],[17,-41],[-1,-17],[-6,-20],[2,-17],[17,-34],[6,-10],[30,9],[8,107],[26,53],[10,11],[11,1],[12,-11],[4,-7],[3,-28],[23,-49],[3,-20],[2,-15],[14,-37],[38,-37],[23,9],[4,11],[11,28],[6,16],[-2,15],[7,41],[18,44],[11,4],[7,-12],[5,-32],[6,-6],[10,-25],[-13,-20],[-29,-42],[-7,-11],[-2,-29],[8,-16],[-2,-41],[10,-61],[9,-9],[9,-9],[27,12],[16,44],[23,8],[14,30],[71,33],[6,-1],[21,-41],[11,-37],[8,-3],[0,0],[13,-98],[18,-61],[0,-2],[-84,-31],[-77,-76],[0,-4],[-37,-177],[-18,-86],[3,-9],[39,-142],[17,-39],[6,-15],[-54,-51],[-4,-23],[-6,-6],[-12,-44],[-4,-51],[-1,-8],[-10,-51],[-3,0],[-5,-28],[20,-4],[10,-3],[-1,-11],[-10,-55],[-5,-81],[7,-107],[5,-69],[-2,-14],[-1,0],[-9,-74],[1,-2],[4,-16],[14,-13],[25,4],[9,-4],[1,-86],[0,-189],[5,-29],[0,-9],[31,-90],[1,-3],[0,-3],[11,-10],[48,-66],[4,-6],[-26,-33],[-25,-31],[-76,-158],[-14,-16],[-21,-24],[-53,-61],[-27,-29],[-39,106],[-8,2],[-10,5],[-49,25],[-71,-2],[-11,0],[-3,0],[-129,-88],[-21,-10],[-8,-52],[-13,-39],[-4,-5],[-28,-24],[-14,0],[-18,-28],[0,-1],[-1,-1],[-3,-14],[-29,-139],[0,-1],[4,-8],[74,-149],[0,0],[11,-52],[1,-4],[14,-67],[-2,-1],[-10,-23],[-14,-33],[-21,-16],[-10,-7],[-19,-44],[-14,-5],[-7,-21],[-3,-4],[-8,4],[-4,-21],[-5,-7],[-20,-17],[4,-9],[-10,-21],[-11,11],[-3,-13],[-1,0],[-10,-22],[-5,-1],[-3,-2],[1,-34],[0,-2],[-3,-9],[-4,-11],[-23,-38],[-63,-137],[-22,-73],[-2,-13],[-1,-1],[-5,-34],[-6,-42],[-3,-277],[1,-28],[-2,-15],[6,-20],[10,-37],[29,-38],[-6,-30],[6,-2],[0,0],[1,-12],[0,-33],[-10,-23],[-27,-48],[15,-77],[-10,-37],[11,-20],[0,-42],[0,0],[-6,-64],[-11,-12],[2,-9],[-37,-37],[-8,-8],[-4,8],[-21,-33],[-91,-92],[-112,-42],[-4,-5],[-2,-1],[-4,-8],[-120,-192],[-111,-141],[-65,-67],[-16,-5],[-50,-41],[-106,-113],[-13,-37],[1,-2],[1,-6],[-23,-91],[0,0],[-1,-3],[2,-10],[13,-159],[6,-75],[8,-171],[16,-83],[19,-137],[0,-45],[14,3],[132,-41],[40,-27],[60,-4],[18,-6],[74,54],[6,-1],[17,-29],[9,21],[31,-8],[3,12],[8,17],[19,41],[-6,10],[31,50],[-6,10],[-6,10],[15,27],[39,64],[36,-69],[15,30],[3,-2],[37,-116],[13,-71],[1,-37],[13,-45],[6,-23],[25,-131],[-5,-10],[-77,-32],[-5,-8],[-5,-1],[-19,-20],[-22,-27],[-10,-31],[-6,-17],[-39,-62],[0,0],[-12,-17],[30,-15],[53,-52],[2,1],[4,-4],[65,-3],[12,-29],[0,-9],[-22,-103],[-39,-73],[1,-1],[-5,-8],[24,-43],[35,-61],[24,-80],[-64,-29],[-42,-44],[0,0],[-21,27],[-16,-29],[1,-14],[-60,-103],[-59,-92],[-21,16],[-16,-6],[-20,14],[-19,-49],[-4,-30],[10,-63],[2,-148],[-15,-22],[-12,-14],[-27,-13],[-22,-10],[-5,-1],[-37,3],[-34,-19],[-4,-9],[-62,-45],[-3,-2],[-24,-3],[-15,-55],[-30,-107],[-1,0],[-7,8],[-53,-57],[-29,-23],[-21,-4],[-14,-38],[-40,-55],[-27,-17],[-22,19],[15,-45],[25,-43],[27,-45],[10,-37],[-7,-7],[11,-27],[6,-58],[-3,-5],[6,-22],[1,-7],[1,-11],[-4,-18],[2,-26],[-1,-2],[-31,-11],[-16,-49],[-23,-21],[1,-8],[-41,-45],[0,-2],[-2,1],[3,-43],[-5,-63],[-117,-18],[-62,-31],[-37,-38],[-93,-84],[-19,-6],[-63,-59],[-37,111],[-8,44],[-10,15],[-19,-13],[-17,-27],[-16,-27],[-2,-3],[-1,-3],[-13,-28],[-15,-41],[-12,-24],[-9,-9],[-16,-8],[-1,0],[-11,5],[-37,-53],[3,-42],[-1,-10],[-8,-29],[8,-31],[-1,-7],[-29,-41],[-17,-56],[-9,-3],[-41,85],[-30,62],[-101,-57],[-16,46],[-26,74],[-4,9],[-8,25],[-7,19],[-66,64],[-20,-8],[-73,-29],[-84,-34],[-170,95],[-71,50],[-111,205],[-25,46],[-6,12],[-5,9],[-16,35],[-35,142],[-3,14],[-2,8],[-19,3],[-57,11],[-2,5],[-17,35],[-40,84],[-4,-4],[-52,-59],[-47,127],[-73,198],[-5,1],[-24,6],[-47,10],[-23,-8],[-14,-5],[-27,-26],[-24,-22],[-84,-82],[-73,-30],[-54,42],[-14,12],[-27,-8],[-5,-2],[-24,-42],[29,-198],[-86,-96],[-19,-58],[23,-44],[-1,-15],[-7,-186],[0,-1],[7,-12],[16,-30],[10,-18],[4,-8],[-7,-299],[-45,-185],[42,-251],[-36,22],[-213,-247],[-264,-70],[-4,66],[-3,50],[-63,169],[-106,161],[56,85],[-110,-76],[-95,-65],[-37,39],[-23,23],[-48,-102],[-1,-108],[0,-23],[-18,-58],[-48,-65],[-12,-16],[-3,1],[-1,0],[-18,8],[-71,29],[-64,-73],[-35,104],[-170,-126],[-8,11],[-5,7],[-14,19],[-12,17],[-14,18],[-54,-55],[-43,14],[-30,10],[-8,11],[-50,74],[4,122],[-214,195],[-18,75],[-4,14],[-2,8],[-2,11],[-4,1],[-18,4],[-6,2],[-4,1],[-224,-50],[1,82],[0,47],[0,48],[-5,6],[-35,40],[-19,21],[-207,-21],[-44,-4],[-28,-3],[-12,-1],[-44,101],[-32,74],[-49,112],[-7,16],[-114,79],[-8,-15],[-1,-3],[-66,-132],[-40,-25],[-6,-4],[-124,-75],[-27,72],[-109,-91],[-86,37],[-18,7],[-7,3],[17,-259],[-1,-1],[-3,-2],[-11,-8],[-8,-7],[-63,-48],[-140,-109],[-5,-4],[-5,-3],[-5,-30],[-21,-127],[-101,-73],[63,-165],[-107,-60],[-57,-89],[-75,-119],[-123,-253],[-103,-356],[-8,-65],[5,-11],[4,-7],[9,-14],[84,-151],[48,-374],[-39,-153],[-70,-266],[-37,-85],[-90,-202],[-12,-81],[-2,-17],[-3,-15],[-7,-45],[-12,-81],[-4,-27],[-13,-87],[-47,35],[-62,45],[-46,60],[-47,61],[-1,34],[0,15],[-2,41],[-3,76],[-4,114],[-66,68],[30,177],[2,12],[-24,46],[-81,154],[-153,290],[-63,56],[-2,2],[-25,-37],[-33,-50],[-65,53],[-346,284],[-70,107],[-15,23],[-82,-9],[-27,-3],[-10,-23],[-55,-132],[-32,3],[-5,0],[-75,102],[-9,13],[-3,3],[-109,150],[-20,-21],[-54,-57],[-66,-69],[-52,-55],[-45,-87],[-59,-113],[-36,-309],[-12,-106],[-5,-40],[-66,-164],[-42,-20],[-135,-64],[-53,-96],[0,0],[-1,-2],[-20,-24],[-20,-25],[-15,-17],[-3,-2],[-5,-3],[-387,-240],[-310,-136],[-82,-36],[-7,-3],[-45,-20],[-225,43],[-113,22],[-35,-8],[-115,-26],[-52,-107],[-3,-5],[-8,-17],[-50,-100],[-1,-111],[-1,-90],[-36,-116],[-112,-182],[-108,-27],[-101,88],[-64,56],[-21,207],[-3,32],[3,49],[19,277],[13,181],[-213,217],[-10,25],[-24,60],[-28,-44],[-6,-8],[-26,14],[-9,4],[-20,147],[-2,14],[-80,73],[-38,34],[6,19],[10,32],[-58,32],[-9,44],[-4,19],[107,93],[0,-2],[12,-37],[89,116],[11,14],[9,29],[36,126],[35,26],[25,19],[23,114],[21,102],[50,3],[132,7],[-17,183],[-17,182],[-15,172],[26,253],[-8,57],[-19,140],[-84,116],[-188,256],[-188,341],[-5,5],[-11,10],[-7,6],[-147,132],[-34,142],[22,11],[88,43],[42,65],[15,23],[23,173],[3,23],[28,90],[15,48],[127,404],[70,223],[-184,24],[-105,13],[-110,93],[-130,109],[-16,106],[-11,76],[-101,666],[-82,355],[-33,144],[0,13],[-12,189],[39,109],[21,60],[-130,402],[-210,154],[-32,97],[-31,95],[-45,135],[-69,208],[-26,78],[-7,23],[-99,98],[-152,40],[-116,382],[-2,7],[-6,18],[-31,36],[-6,6],[-11,13],[-8,9],[-28,31],[-8,9],[-4,5],[-15,17],[-14,16],[-15,8],[-323,183],[-31,46],[-6,9],[-130,192],[-28,41],[-103,-51],[-136,50],[-72,-27],[-31,176],[-26,47],[-62,65],[-67,-7],[-132,299],[-78,31],[-33,13],[-66,-42],[-54,-174],[-19,-111],[-9,-276],[-3,-97],[-19,-75],[-11,-44],[-40,-94],[-27,-66],[-38,-3],[51,-133],[-183,-63],[-80,85],[-18,19],[-23,-5],[-54,-11],[-35,-35],[-14,-13],[-50,-49],[-35,-91],[-7,-18],[-28,-33],[-38,50],[-18,24],[-112,-205],[-69,-29],[-20,53],[-29,454],[-73,149],[-92,356],[1,388],[41,143],[45,157],[18,198],[87,125],[69,191],[113,308],[-11,123],[409,470],[1,124],[-99,272],[-274,445],[-133,297],[-47,52],[-48,52],[-63,171],[-18,50],[-379,368],[-150,376],[-76,14],[-25,60],[-97,225],[-29,9],[-12,256],[-278,468],[-98,100],[-130,-132],[-191,-54],[-164,-442],[-161,-182],[-36,-6],[-3,202],[-25,40],[-152,29],[-137,122],[-76,-4],[-311,-261],[-89,123],[-234,522],[-36,12],[-84,-159],[-65,-122],[-4,-7],[-113,-29],[11,120],[-130,107],[-107,-68],[-229,10],[-365,-93],[-5,-2],[-43,67],[-6,9],[-8,179],[-1,35],[-11,254],[57,529],[-14,338],[-108,260],[-153,205],[-62,24],[-44,17],[-72,-304],[-168,-367],[-30,88],[-5,17],[-19,57],[-29,88],[-25,73],[-183,-47],[-108,39],[-100,-84],[-16,317],[-62,61],[51,732],[-180,663],[1,204],[-44,116],[-570,1515],[-88,300],[-159,172],[-52,-180],[-61,-78],[-153,15],[-178,-119],[-263,65],[-1,37],[-8,229],[-40,108],[-393,238],[-34,3],[-81,6],[-177,122],[-157,195],[-447,387],[-184,218],[-41,183],[5,56],[12,138],[-127,308],[-33,173],[-103,73],[-17,57],[47,91],[-11,193],[-12,58],[-71,50],[-39,8],[-267,-68],[-145,48],[-61,77],[-227,32]],[[59659,23162],[-10,58],[-16,16],[5,44],[18,59],[26,-21],[13,82],[-1,231],[-34,217],[102,188],[226,239],[-38,129],[-81,20],[12,116],[146,79],[137,-43],[25,204],[62,54],[-7,42],[-119,65],[-54,135],[-17,181],[-3,388],[54,310],[-110,327],[60,24],[121,257],[16,154],[15,6],[16,325],[176,18],[22,130],[26,51],[56,83],[88,59],[264,36],[160,313],[103,75],[126,162],[17,428],[-113,2],[-54,163],[184,28],[189,-38],[23,29],[29,-87],[44,69],[14,106],[122,82],[150,245],[107,143],[144,103],[178,354],[-409,133],[-20,65],[59,72],[-189,178],[48,76],[59,177],[22,158],[-18,34],[60,-49],[85,42],[121,-29],[34,-50],[154,217],[75,160],[-24,33],[33,42],[-27,20],[17,17],[-13,149],[16,78],[125,232],[49,222],[62,43],[196,-18],[156,175],[-7,50],[21,83],[52,23],[89,132],[174,120],[147,-30],[31,35],[171,6],[47,-41],[75,28],[122,145],[-1,52],[-34,33],[-179,66],[-56,76],[-5,196],[-145,145],[-115,313],[-60,226],[10,415],[106,316],[5,107],[-9,249],[-57,373],[50,316],[-73,118],[-163,-43],[-286,397],[-125,32],[-54,160],[-121,119],[-153,247],[-38,134],[-31,304],[51,177],[-124,75],[-50,121],[-217,-75],[-31,189],[-25,52],[-51,-4],[-70,-108],[-48,-172],[3,-69],[-50,-62],[-172,-67],[-32,29],[-65,-91],[-35,4],[-30,-84],[-56,-29],[-165,14],[-112,-39],[-47,89],[-42,3],[-60,79],[-78,15],[-71,86],[-44,126],[17,99],[-13,89],[10,135],[-7,77],[-24,44],[100,206],[67,62],[5,377],[-85,-7],[-156,279],[-130,347],[-131,99],[-14,43],[63,162],[37,315],[-25,98],[-115,34],[-57,61],[-74,153],[-125,399],[-118,134],[-182,292],[68,-12],[91,148],[123,-57],[-24,-35],[24,-74],[150,-85],[105,259],[49,41],[14,103],[-26,274],[47,390],[-7,105],[73,180],[116,-79],[155,-364],[116,-98],[153,294],[243,143],[103,261],[-14,187],[55,9],[140,162],[174,104],[62,251],[-5,122],[-40,100],[4,188],[120,-60],[84,202],[40,25],[18,192],[59,-9],[-33,339],[53,151],[-77,114],[6,26],[-95,79],[1,59],[13,83],[122,-40],[134,-169],[63,197],[3,196],[-159,87],[-49,68],[-11,81],[29,195],[-32,145],[69,385],[44,96],[-14,77],[11,37],[-31,113],[-18,175],[128,325],[-5,309],[51,241],[42,431],[89,489],[85,-8],[-77,-313],[62,-105],[-39,-194],[-184,-539],[27,-190],[94,-129],[83,-276],[19,12],[8,-81],[25,-14],[-20,-50],[42,-101],[-20,-22],[59,-253],[298,140],[4,-73],[414,66],[711,350],[65,-150],[218,85],[35,-88],[-5,-144],[84,-28],[-4,-76],[361,23],[95,-31],[-12,184],[102,-32],[71,126],[-6,188],[312,-34],[541,31],[4,-86],[-34,-88],[21,-30],[85,62],[66,-35],[92,21],[-2,-35],[20,3],[-4,42],[21,12],[-9,90],[45,5],[17,-266],[154,155],[595,298],[-7,357],[292,244],[321,-59],[329,54],[53,-50],[24,-80],[96,185],[60,37],[26,61],[15,80],[-32,42],[1,116],[22,151],[-151,343],[-55,-99],[-120,270],[-63,232],[-60,102],[-140,-119],[-9,40],[-31,-17],[-110,340],[-22,198],[357,320],[277,322],[102,-236],[65,54],[71,169],[-5,202],[130,90],[-4,28],[69,64],[42,-31],[38,51],[25,114],[-71,153],[-5,56],[45,92],[-7,86],[-28,81],[-63,56],[-55,-59],[-100,43],[144,198],[45,5],[-46,37],[-110,-41],[-84,45],[-107,245],[11,51],[-45,26],[-30,359],[-142,205],[-147,418],[-59,238],[-65,89],[-84,216],[-68,80],[-94,204],[182,287],[13,142],[-22,33],[16,32],[-79,120],[-126,-204],[-64,122],[-156,96],[108,268],[224,365],[-141,163],[-185,304],[-32,89],[-44,284],[-280,-56],[-177,133],[-163,28],[-86,-36],[11,104],[166,262],[6,85],[97,62],[-16,31],[20,29],[61,26],[114,67],[99,185],[61,60],[160,-443],[682,405],[-29,87],[112,133],[-42,199],[-75,214],[-156,187],[72,110],[310,90],[215,145],[127,177],[153,311],[47,-198],[242,-540],[99,143],[163,150],[42,-4],[52,90],[142,42],[72,66],[292,451],[226,261],[124,307],[25,115],[32,48],[-5,36],[39,-4],[-2,93],[64,52],[34,141],[33,-5],[5,-33],[32,23],[-5,84],[80,25],[39,97],[45,21],[8,58],[25,7],[-9,40],[62,74],[-19,65],[38,46],[-9,36],[29,-24],[21,78],[82,106],[-23,46],[45,47],[5,-44],[19,38],[36,-9],[32,50],[-4,42],[58,-3],[5,75],[176,-34],[3,71],[28,0],[10,50],[52,-41],[42,-17],[12,51],[46,24],[-5,40],[52,79],[59,48],[10,23],[-17,54],[59,19],[28,126],[40,13],[-8,43],[81,31],[35,-30],[52,159],[57,-1],[32,204],[-5,183],[-21,45],[12,103],[-52,214],[-19,28],[-43,-70],[-74,120],[20,70],[98,-27],[26,35],[-6,106],[-45,132],[-54,360],[73,206],[-93,223],[-29,274],[-57,69],[-56,-164],[-94,-84],[-57,116],[-90,12],[-39,60],[-183,81],[-49,63],[-118,-42],[-90,-124],[-92,-288],[18,-65],[-10,-52],[-164,-198],[-18,-161],[-48,-69],[-39,207],[-126,225],[0,85],[20,303],[16,47],[236,385],[535,259],[184,141],[-9,140],[127,60],[-12,47],[197,177],[-63,19],[160,234],[12,-45],[33,42],[62,-13],[-18,79],[3,159],[67,139],[-11,41],[-81,129],[-148,50],[-65,65],[-49,96],[6,104],[-34,160],[-62,108],[17,143],[146,251],[67,67],[51,189],[14,-6],[19,77],[-7,29],[95,144],[23,-60],[90,135],[-4,84],[24,170],[69,110],[-11,24],[-22,-36],[-108,128],[82,127],[-34,103],[64,93],[-62,97],[-68,183],[-42,-38],[-61,197]],[[59659,23162],[-50,-236],[-34,-14],[-110,-47],[-121,164],[-27,122],[-272,-221],[-96,-456],[-33,-158],[-16,127],[-100,37],[-181,-229],[-26,-237],[-16,7],[-320,136],[-60,-83],[-331,-153],[-144,80],[-50,185],[-102,-45],[-152,46],[-64,-72],[-184,335],[-144,70],[-153,4],[19,-298],[-254,-17],[-105,194],[-179,107],[203,278],[20,255],[91,115],[79,637],[0,12],[0,66],[0,22],[-1,137],[4,6],[102,161],[4,6],[176,126],[29,192],[-110,124],[-113,128],[0,36],[1,141],[1,56],[0,19],[1,173],[2,199],[-72,151],[67,122],[-53,534],[-19,42],[-236,-43],[-30,-6],[7,181],[7,207],[-62,165],[-99,363],[-9,812],[-76,287],[70,-152],[25,-54],[69,-56],[116,14],[122,163],[-34,252],[15,133],[107,436],[59,80],[75,-25],[12,46],[4,15],[-8,63],[-53,249],[84,301],[54,180],[75,154],[25,193],[203,182],[31,42],[36,117],[-5,66],[-56,174],[-230,-45],[-19,22],[31,194],[23,51],[72,48],[155,-5],[103,276],[-267,574],[16,399],[-144,208],[-153,221],[-20,21],[-30,29],[-253,250],[-26,48],[-132,491],[-104,579],[-64,168],[-29,44],[-180,125],[-38,0],[-254,-133],[-69,157],[-185,49],[-202,198],[-190,13],[-301,288],[-140,12],[-13,1],[-1,33],[-22,836],[147,541],[-62,318],[3,65],[68,63],[112,-33],[115,20],[33,35],[29,44],[118,337],[71,53],[164,452],[-67,221],[-8,64],[-2,136],[7,172],[1,23],[136,621],[1,63],[-112,273],[10,111],[19,214],[110,163],[-70,303],[102,198],[102,87],[25,51],[49,253],[58,74],[108,27],[146,215],[21,130],[2,252],[2,69],[-22,196],[-62,62],[-173,-19],[-86,106],[-72,239],[74,378],[-6,66],[-63,153],[-150,33],[-61,78],[-15,55],[82,250],[-23,46],[92,96],[303,34],[10,1],[67,8],[40,216],[12,65],[17,95],[71,381],[-4,27],[-56,409],[152,25],[18,101],[-132,554],[-121,130],[19,34],[13,24],[42,77],[74,21],[162,183],[44,173],[28,55],[15,29],[212,-134],[66,-167],[-36,-320],[194,-317],[140,-80],[32,171],[58,309],[3,18],[-53,96],[-151,63],[-7,57],[58,249],[10,203],[87,304],[-14,182],[-25,105],[-9,36],[-123,523],[-4,15],[-2,8],[14,58],[28,119],[66,276],[7,32],[198,185],[2,135],[1,68],[0,19],[1,48],[180,-65],[61,107],[10,17],[111,193],[104,48],[48,186],[-42,180],[-22,48],[-193,-13],[-89,38],[-88,39],[3,15],[27,173],[-30,128],[-15,62],[-29,121],[19,120],[-20,20],[-32,31],[26,127],[-29,53],[-28,52],[-15,29],[-10,17],[-36,22],[-93,-34],[-35,-13],[-22,-8],[-69,31],[-13,-11],[-82,-66],[-31,-25],[-109,-4],[-158,-5],[-79,-2],[-158,124],[-100,-53],[-57,59],[-38,-25],[-33,-23],[-7,1],[-104,20],[-24,4],[-37,194],[-195,411],[15,439],[4,138],[-8,0],[-31,1],[-3,-8],[-13,-34],[-490,-1244],[-234,-273],[-8,-9],[-286,-332],[-15,-18],[-170,-198],[-217,-123],[-29,-27],[-62,-57],[-90,-83],[-87,-80],[4,-188],[-184,-940],[-228,47],[42,-123],[4,-12],[30,-89],[8,-25],[54,-159],[-2,-24],[-3,-28],[-11,-113],[-5,-44],[-15,-146],[-2,-17],[-2,-19],[-260,-219],[-76,-65],[-539,-454],[-109,-92],[-64,-232],[-9,-34],[-7,-25],[-265,-65],[-59,-78],[-7,-25],[-25,-80],[-131,-434],[-7,-22],[-44,-146],[-5,-19],[-60,-198],[-98,-514],[1,-270],[-83,-225],[-138,-120],[-8,-131],[97,-171],[83,-504],[155,4],[135,129],[3,-296],[75,-184],[-112,-329],[-18,-112],[34,-353],[-130,-389],[-31,-259],[-93,-424],[-66,-127],[61,-165],[-38,-320],[4,-462],[73,-223],[-98,-276],[54,-231],[-4,-190],[210,-417],[8,-17],[-22,-57],[-75,20],[-16,-12],[-53,-37],[-144,80],[-180,-72],[-170,126],[-113,-26],[-15,-40],[-65,-169],[-154,-15],[-73,-37],[-279,-212],[-75,10],[-55,-90],[-109,-19],[-116,-159],[-106,40],[-204,-105],[-410,-63],[-177,32],[-39,7],[-76,14],[-252,-157],[-187,-53],[-160,-176],[-66,-66],[4,-246],[-43,-179],[-59,-79],[-169,-265],[-197,-81],[-125,-52],[-148,-2],[-176,74],[-56,-211],[-137,-227],[-30,-50],[-24,-39],[-44,-74],[16,-121],[-173,-431],[-32,-259],[-172,34],[-66,-71],[-118,-264],[-182,52],[-170,48],[-99,28],[-258,-186],[-152,124],[-976,-799],[-159,332],[-150,-17],[-37,-4],[-26,26]]],"transform":{"scale":[0.000035657010001999996,0.000013150196501964974],"translate":[2.8421690001,49.4972379991]},"objects":{"provinces-wal":{"type":"GeometryCollection","geometries":[{"arcs":[[0,1,2,3]],"type":"Polygon","properties":{"id":"BE31","name":"Brabant Wallon","cx":4.581,"cy":50.66}},{"arcs":[[[-3,4,5]],[[6]]],"type":"MultiPolygon","properties":{"id":"BE32","name":"Hainaut","cx":3.972,"cy":50.512}},{"arcs":[[-1,7,8,9]],"type":"Polygon","properties":{"id":"BE33","name":"Liège","cx":5.74,"cy":50.536}},{"arcs":[[-9,10,11]],"type":"Polygon","properties":{"id":"BE34","name":"Luxembourg","cx":5.496,"cy":49.969}},{"arcs":[[-2,-10,-12,12,-5]],"type":"Polygon","properties":{"id":"BE35","name":"Namur","cx":4.887,"cy":50.357}}]}}}